{
  "0000": {
    "postcode": "9180000",
    "prefecture": "福井県",
    "prefecture_kana": "フクイケン",
    "prefecture_code": 18,
    "city": "福井市",
    "city_kana": "フクイシ",
    "town": "",
    "town_kana": "",
    "street": null,
    "office_name": null,
    "office_name_kana": null
  },
  "8001": {
    "postcode": "9188001",
    "prefecture": "福井県",
    "prefecture_kana": "フクイケン",
    "prefecture_code": 18,
    "city": "福井市",
    "city_kana": "フクイシ",
    "town": "つくも",
    "town_kana": "ツクモ",
    "street": null,
    "office_name": null,
    "office_name_kana": null
  },
  "8002": {
    "postcode": "9188002",
    "prefecture": "福井県",
    "prefecture_kana": "フクイケン",
    "prefecture_code": 18,
    "city": "福井市",
    "city_kana": "フクイシ",
    "town": "左内町",
    "town_kana": "サナイチョウ",
    "street": null,
    "office_name": null,
    "office_name_kana": null
  },
  "8003": {
    "postcode": "9188003",
    "prefecture": "福井県",
    "prefecture_kana": "フクイケン",
    "prefecture_code": 18,
    "city": "福井市",
    "city_kana": "フクイシ",
    "town": "毛矢",
    "town_kana": "ケヤ",
    "street": null,
    "office_name": null,
    "office_name_kana": null
  },
  "8004": {
    "postcode": "9188004",
    "prefecture": "福井県",
    "prefecture_kana": "フクイケン",
    "prefecture_code": 18,
    "city": "福井市",
    "city_kana": "フクイシ",
    "town": "西木田",
    "town_kana": "ニシキダ",
    "street": null,
    "office_name": null,
    "office_name_kana": null
  },
  "8005": {
    "postcode": "9188005",
    "prefecture": "福井県",
    "prefecture_kana": "フクイケン",
    "prefecture_code": 18,
    "city": "福井市",
    "city_kana": "フクイシ",
    "town": "みのり",
    "town_kana": "ミノリ",
    "street": null,
    "office_name": null,
    "office_name_kana": null
  },
  "8006": {
    "postcode": "9188006",
    "prefecture": "福井県",
    "prefecture_kana": "フクイケン",
    "prefecture_code": 18,
    "city": "福井市",
    "city_kana": "フクイシ",
    "town": "足羽上町",
    "town_kana": "アスワカミチョウ",
    "street": null,
    "office_name": null,
    "office_name_kana": null
  },
  "8007": {
    "postcode": "9188007",
    "prefecture": "福井県",
    "prefecture_kana": "フクイケン",
    "prefecture_code": 18,
    "city": "福井市",
    "city_kana": "フクイシ",
    "town": "足羽",
    "town_kana": "アスワ",
    "street": null,
    "office_name": null,
    "office_name_kana": null
  },
  "8008": {
    "postcode": "9188008",
    "prefecture": "福井県",
    "prefecture_kana": "フクイケン",
    "prefecture_code": 18,
    "city": "福井市",
    "city_kana": "フクイシ",
    "town": "有楽町",
    "town_kana": "ユウラクチョウ",
    "street": null,
    "office_name": null,
    "office_name_kana": null
  },
  "8009": {
    "postcode": "9188009",
    "prefecture": "福井県",
    "prefecture_kana": "フクイケン",
    "prefecture_code": 18,
    "city": "福井市",
    "city_kana": "フクイシ",
    "town": "山奥町",
    "town_kana": "ヤマオクチョウ",
    "street": null,
    "office_name": null,
    "office_name_kana": null
  },
  "8011": {
    "postcode": "9188011",
    "prefecture": "福井県",
    "prefecture_kana": "フクイケン",
    "prefecture_code": 18,
    "city": "福井市",
    "city_kana": "フクイシ",
    "town": "月見",
    "town_kana": "ツキミ",
    "street": null,
    "office_name": null,
    "office_name_kana": null
  },
  "8012": {
    "postcode": "9188012",
    "prefecture": "福井県",
    "prefecture_kana": "フクイケン",
    "prefecture_code": 18,
    "city": "福井市",
    "city_kana": "フクイシ",
    "town": "花堂北",
    "town_kana": "ハナンドウキタ",
    "street": null,
    "office_name": null,
    "office_name_kana": null
  },
  "8013": {
    "postcode": "9188013",
    "prefecture": "福井県",
    "prefecture_kana": "フクイケン",
    "prefecture_code": 18,
    "city": "福井市",
    "city_kana": "フクイシ",
    "town": "花堂東",
    "town_kana": "ハナンドウヒガシ",
    "street": null,
    "office_name": null,
    "office_name_kana": null
  },
  "8014": {
    "postcode": "9188014",
    "prefecture": "福井県",
    "prefecture_kana": "フクイケン",
    "prefecture_code": 18,
    "city": "福井市",
    "city_kana": "フクイシ",
    "town": "花堂中",
    "town_kana": "ハナンドウナカ",
    "street": null,
    "office_name": null,
    "office_name_kana": null
  },
  "8015": {
    "postcode": "9188015",
    "prefecture": "福井県",
    "prefecture_kana": "フクイケン",
    "prefecture_code": 18,
    "city": "福井市",
    "city_kana": "フクイシ",
    "town": "花堂南",
    "town_kana": "ハナンドウミナミ",
    "street": null,
    "office_name": null,
    "office_name_kana": null
  },
  "8016": {
    "postcode": "9188016",
    "prefecture": "福井県",
    "prefecture_kana": "フクイケン",
    "prefecture_code": 18,
    "city": "福井市",
    "city_kana": "フクイシ",
    "town": "江端町",
    "town_kana": "エバタチョウ",
    "street": null,
    "office_name": null,
    "office_name_kana": null
  },
  "8017": {
    "postcode": "9188017",
    "prefecture": "福井県",
    "prefecture_kana": "フクイケン",
    "prefecture_code": 18,
    "city": "福井市",
    "city_kana": "フクイシ",
    "town": "下荒井町",
    "town_kana": "シモアライチョウ",
    "street": null,
    "office_name": null,
    "office_name_kana": null
  },
  "8018": {
    "postcode": "9188018",
    "prefecture": "福井県",
    "prefecture_kana": "フクイケン",
    "prefecture_code": 18,
    "city": "福井市",
    "city_kana": "フクイシ",
    "town": "大島町",
    "town_kana": "オオシマチョウ",
    "street": null,
    "office_name": null,
    "office_name_kana": null
  },
  "8021": [
    {
      "postcode": "9188021",
      "prefecture": "福井県",
      "prefecture_kana": "フクイケン",
      "prefecture_code": 18,
      "city": "福井市",
      "city_kana": "フクイシ",
      "town": "門前",
      "town_kana": "モンゼン",
      "street": null,
      "office_name": null,
      "office_name_kana": null
    },
    {
      "postcode": "9188021",
      "prefecture": "福井県",
      "prefecture_kana": "フクイケン",
      "prefecture_code": 18,
      "city": "福井市",
      "city_kana": "フクイシ",
      "town": "門前町",
      "town_kana": "モンゼンチョウ",
      "street": null,
      "office_name": null,
      "office_name_kana": null
    }
  ],
  "8022": {
    "postcode": "9188022",
    "prefecture": "福井県",
    "prefecture_kana": "フクイケン",
    "prefecture_code": 18,
    "city": "福井市",
    "city_kana": "フクイシ",
    "town": "西谷町",
    "town_kana": "ニシタニチョウ",
    "street": null,
    "office_name": null,
    "office_name_kana": null
  },
  "8023": {
    "postcode": "9188023",
    "prefecture": "福井県",
    "prefecture_kana": "フクイケン",
    "prefecture_code": 18,
    "city": "福井市",
    "city_kana": "フクイシ",
    "town": "西谷",
    "town_kana": "ニシタニ",
    "street": null,
    "office_name": null,
    "office_name_kana": null
  },
  "8024": {
    "postcode": "9188024",
    "prefecture": "福井県",
    "prefecture_kana": "フクイケン",
    "prefecture_code": 18,
    "city": "福井市",
    "city_kana": "フクイシ",
    "town": "舞屋町",
    "town_kana": "マイヤチョウ",
    "street": null,
    "office_name": null,
    "office_name_kana": null
  },
  "8025": [
    {
      "postcode": "9188025",
      "prefecture": "福井県",
      "prefecture_kana": "フクイケン",
      "prefecture_code": 18,
      "city": "福井市",
      "city_kana": "フクイシ",
      "town": "江守中",
      "town_kana": "エモリナカ",
      "street": null,
      "office_name": null,
      "office_name_kana": null
    },
    {
      "postcode": "9188025",
      "prefecture": "福井県",
      "prefecture_kana": "フクイケン",
      "prefecture_code": 18,
      "city": "福井市",
      "city_kana": "フクイシ",
      "town": "江守中町",
      "town_kana": "エモリナカチョウ",
      "street": null,
      "office_name": null,
      "office_name_kana": null
    }
  ],
  "8026": [
    {
      "postcode": "9188026",
      "prefecture": "福井県",
      "prefecture_kana": "フクイケン",
      "prefecture_code": 18,
      "city": "福井市",
      "city_kana": "フクイシ",
      "town": "渕",
      "town_kana": "フチ",
      "street": null,
      "office_name": null,
      "office_name_kana": null
    },
    {
      "postcode": "9188026",
      "prefecture": "福井県",
      "prefecture_kana": "フクイケン",
      "prefecture_code": 18,
      "city": "福井市",
      "city_kana": "フクイシ",
      "town": "渕町",
      "town_kana": "フチマチ",
      "street": null,
      "office_name": null,
      "office_name_kana": null
    }
  ],
  "8027": [
    {
      "postcode": "9188027",
      "prefecture": "福井県",
      "prefecture_kana": "フクイケン",
      "prefecture_code": 18,
      "city": "福井市",
      "city_kana": "フクイシ",
      "town": "福",
      "town_kana": "フク",
      "street": null,
      "office_name": null,
      "office_name_kana": null
    },
    {
      "postcode": "9188027",
      "prefecture": "福井県",
      "prefecture_kana": "フクイケン",
      "prefecture_code": 18,
      "city": "福井市",
      "city_kana": "フクイシ",
      "town": "福町",
      "town_kana": "フクマチ",
      "street": null,
      "office_name": null,
      "office_name_kana": null
    }
  ],
  "8031": [
    {
      "postcode": "9188031",
      "prefecture": "福井県",
      "prefecture_kana": "フクイケン",
      "prefecture_code": 18,
      "city": "福井市",
      "city_kana": "フクイシ",
      "town": "種池",
      "town_kana": "タナイケ",
      "street": null,
      "office_name": null,
      "office_name_kana": null
    },
    {
      "postcode": "9188031",
      "prefecture": "福井県",
      "prefecture_kana": "フクイケン",
      "prefecture_code": 18,
      "city": "福井市",
      "city_kana": "フクイシ",
      "town": "種池町",
      "town_kana": "タナイケチョウ",
      "street": null,
      "office_name": null,
      "office_name_kana": null
    }
  ],
  "8032": {
    "postcode": "9188032",
    "prefecture": "福井県",
    "prefecture_kana": "フクイケン",
    "prefecture_code": 18,
    "city": "福井市",
    "city_kana": "フクイシ",
    "town": "南江守町",
    "town_kana": "ミナミエモリチョウ",
    "street": null,
    "office_name": null,
    "office_name_kana": null
  },
  "8033": {
    "postcode": "9188033",
    "prefecture": "福井県",
    "prefecture_kana": "フクイケン",
    "prefecture_code": 18,
    "city": "福井市",
    "city_kana": "フクイシ",
    "town": "合谷町",
    "town_kana": "ゴウダニチョウ",
    "street": null,
    "office_name": null,
    "office_name_kana": null
  },
  "8034": {
    "postcode": "9188034",
    "prefecture": "福井県",
    "prefecture_kana": "フクイケン",
    "prefecture_code": 18,
    "city": "福井市",
    "city_kana": "フクイシ",
    "town": "南居町",
    "town_kana": "ナゴチョウ",
    "street": null,
    "office_name": null,
    "office_name_kana": null
  },
  "8035": {
    "postcode": "9188035",
    "prefecture": "福井県",
    "prefecture_kana": "フクイケン",
    "prefecture_code": 18,
    "city": "福井市",
    "city_kana": "フクイシ",
    "town": "江守の里",
    "town_kana": "エモリノサト",
    "street": null,
    "office_name": null,
    "office_name_kana": null
  },
  "8036": {
    "postcode": "9188036",
    "prefecture": "福井県",
    "prefecture_kana": "フクイケン",
    "prefecture_code": 18,
    "city": "福井市",
    "city_kana": "フクイシ",
    "town": "新下江守町",
    "town_kana": "シンシモエモリチョウ",
    "street": null,
    "office_name": null,
    "office_name_kana": null
  },
  "8037": {
    "postcode": "9188037",
    "prefecture": "福井県",
    "prefecture_kana": "フクイケン",
    "prefecture_code": 18,
    "city": "福井市",
    "city_kana": "フクイシ",
    "town": "下江守町",
    "town_kana": "シモエモリチョウ",
    "street": null,
    "office_name": null,
    "office_name_kana": null
  },
  "8041": {
    "postcode": "9188041",
    "prefecture": "福井県",
    "prefecture_kana": "フクイケン",
    "prefecture_code": 18,
    "city": "福井市",
    "city_kana": "フクイシ",
    "town": "西下野町",
    "town_kana": "ニシシモノチョウ",
    "street": null,
    "office_name": null,
    "office_name_kana": null
  },
  "8042": {
    "postcode": "9188042",
    "prefecture": "福井県",
    "prefecture_kana": "フクイケン",
    "prefecture_code": 18,
    "city": "福井市",
    "city_kana": "フクイシ",
    "town": "東下野町",
    "town_kana": "ヒガシシモノチョウ",
    "street": null,
    "office_name": null,
    "office_name_kana": null
  },
  "8043": {
    "postcode": "9188043",
    "prefecture": "福井県",
    "prefecture_kana": "フクイケン",
    "prefecture_code": 18,
    "city": "福井市",
    "city_kana": "フクイシ",
    "town": "狐橋",
    "town_kana": "キツネバシ",
    "street": null,
    "office_name": null,
    "office_name_kana": null
  },
  "8044": {
    "postcode": "9188044",
    "prefecture": "福井県",
    "prefecture_kana": "フクイケン",
    "prefecture_code": 18,
    "city": "福井市",
    "city_kana": "フクイシ",
    "town": "高塚町",
    "town_kana": "タカツカチョウ",
    "street": null,
    "office_name": null,
    "office_name_kana": null
  },
  "8045": {
    "postcode": "9188045",
    "prefecture": "福井県",
    "prefecture_kana": "フクイケン",
    "prefecture_code": 18,
    "city": "福井市",
    "city_kana": "フクイシ",
    "town": "福新町",
    "town_kana": "フクシンマチ",
    "street": null,
    "office_name": null,
    "office_name_kana": null
  },
  "8046": {
    "postcode": "9188046",
    "prefecture": "福井県",
    "prefecture_kana": "フクイケン",
    "prefecture_code": 18,
    "city": "福井市",
    "city_kana": "フクイシ",
    "town": "運動公園",
    "town_kana": "ウンドウコウエン",
    "street": null,
    "office_name": null,
    "office_name_kana": null
  },
  "8047": {
    "postcode": "9188047",
    "prefecture": "福井県",
    "prefecture_kana": "フクイケン",
    "prefecture_code": 18,
    "city": "福井市",
    "city_kana": "フクイシ",
    "town": "久喜津町",
    "town_kana": "クキヅチョウ",
    "street": null,
    "office_name": null,
    "office_name_kana": null
  },
  "8051": {
    "postcode": "9188051",
    "prefecture": "福井県",
    "prefecture_kana": "フクイケン",
    "prefecture_code": 18,
    "city": "福井市",
    "city_kana": "フクイシ",
    "town": "桃園",
    "town_kana": "モモゾノ",
    "street": null,
    "office_name": null,
    "office_name_kana": null
  },
  "8052": {
    "postcode": "9188052",
    "prefecture": "福井県",
    "prefecture_kana": "フクイケン",
    "prefecture_code": 18,
    "city": "福井市",
    "city_kana": "フクイシ",
    "town": "明里町",
    "town_kana": "アカリチョウ",
    "street": null,
    "office_name": null,
    "office_name_kana": null
  },
  "8053": {
    "postcode": "9188053",
    "prefecture": "福井県",
    "prefecture_kana": "フクイケン",
    "prefecture_code": 18,
    "city": "福井市",
    "city_kana": "フクイシ",
    "town": "小山谷町",
    "town_kana": "オヤマダニチョウ",
    "street": null,
    "office_name": null,
    "office_name_kana": null
  },
  "8054": {
    "postcode": "9188054",
    "prefecture": "福井県",
    "prefecture_kana": "フクイケン",
    "prefecture_code": 18,
    "city": "福井市",
    "city_kana": "フクイシ",
    "town": "加茂河原町",
    "town_kana": "カモガワラチョウ",
    "street": null,
    "office_name": null,
    "office_name_kana": null
  },
  "8055": [
    {
      "postcode": "9188055",
      "prefecture": "福井県",
      "prefecture_kana": "フクイケン",
      "prefecture_code": 18,
      "city": "福井市",
      "city_kana": "フクイシ",
      "town": "若杉",
      "town_kana": "ワカスギ",
      "street": null,
      "office_name": null,
      "office_name_kana": null
    },
    {
      "postcode": "9188055",
      "prefecture": "福井県",
      "prefecture_kana": "フクイケン",
      "prefecture_code": 18,
      "city": "福井市",
      "city_kana": "フクイシ",
      "town": "若杉町",
      "town_kana": "ワカスギチョウ",
      "street": null,
      "office_name": null,
      "office_name_kana": null
    }
  ],
  "8056": {
    "postcode": "9188056",
    "prefecture": "福井県",
    "prefecture_kana": "フクイケン",
    "prefecture_code": 18,
    "city": "福井市",
    "city_kana": "フクイシ",
    "town": "若杉浜",
    "town_kana": "ワカスギハマ",
    "street": null,
    "office_name": null,
    "office_name_kana": null
  },
  "8057": {
    "postcode": "9188057",
    "prefecture": "福井県",
    "prefecture_kana": "フクイケン",
    "prefecture_code": 18,
    "city": "福井市",
    "city_kana": "フクイシ",
    "town": "加茂河原",
    "town_kana": "カモガワラ",
    "street": null,
    "office_name": null,
    "office_name_kana": null
  },
  "8058": {
    "postcode": "9188058",
    "prefecture": "福井県",
    "prefecture_kana": "フクイケン",
    "prefecture_code": 18,
    "city": "福井市",
    "city_kana": "フクイシ",
    "town": "加茂緑苑町",
    "town_kana": "カモリョクエンチョウ",
    "street": null,
    "office_name": null,
    "office_name_kana": null
  },
  "8061": {
    "postcode": "9188061",
    "prefecture": "福井県",
    "prefecture_kana": "フクイケン",
    "prefecture_code": 18,
    "city": "福井市",
    "city_kana": "フクイシ",
    "town": "金屋町",
    "town_kana": "カナヤチョウ",
    "street": null,
    "office_name": null,
    "office_name_kana": null
  },
  "8062": {
    "postcode": "9188062",
    "prefecture": "福井県",
    "prefecture_kana": "フクイケン",
    "prefecture_code": 18,
    "city": "福井市",
    "city_kana": "フクイシ",
    "town": "下市町",
    "town_kana": "シモイチチョウ",
    "street": null,
    "office_name": null,
    "office_name_kana": null
  },
  "8063": {
    "postcode": "9188063",
    "prefecture": "福井県",
    "prefecture_kana": "フクイケン",
    "prefecture_code": 18,
    "city": "福井市",
    "city_kana": "フクイシ",
    "town": "大瀬町",
    "town_kana": "オオセチョウ",
    "street": null,
    "office_name": null,
    "office_name_kana": null
  },
  "8064": {
    "postcode": "9188064",
    "prefecture": "福井県",
    "prefecture_kana": "フクイケン",
    "prefecture_code": 18,
    "city": "福井市",
    "city_kana": "フクイシ",
    "town": "西学園",
    "town_kana": "ニシガクエン",
    "street": null,
    "office_name": null,
    "office_name_kana": null
  },
  "8065": {
    "postcode": "9188065",
    "prefecture": "福井県",
    "prefecture_kana": "フクイケン",
    "prefecture_code": 18,
    "city": "福井市",
    "city_kana": "フクイシ",
    "town": "水越",
    "town_kana": "ミズコシ",
    "street": null,
    "office_name": null,
    "office_name_kana": null
  },
  "8066": {
    "postcode": "9188066",
    "prefecture": "福井県",
    "prefecture_kana": "フクイケン",
    "prefecture_code": 18,
    "city": "福井市",
    "city_kana": "フクイシ",
    "town": "渡町",
    "town_kana": "ワタリチョウ",
    "street": null,
    "office_name": null,
    "office_name_kana": null
  },
  "8067": {
    "postcode": "9188067",
    "prefecture": "福井県",
    "prefecture_kana": "フクイケン",
    "prefecture_code": 18,
    "city": "福井市",
    "city_kana": "フクイシ",
    "town": "飯塚町",
    "town_kana": "イイヅカチョウ",
    "street": null,
    "office_name": null,
    "office_name_kana": null
  },
  "8068": {
    "postcode": "9188068",
    "prefecture": "福井県",
    "prefecture_kana": "フクイケン",
    "prefecture_code": 18,
    "city": "福井市",
    "city_kana": "フクイシ",
    "town": "角折町",
    "town_kana": "ツノオリチョウ",
    "street": null,
    "office_name": null,
    "office_name_kana": null
  },
  "8071": {
    "postcode": "9188071",
    "prefecture": "福井県",
    "prefecture_kana": "フクイケン",
    "prefecture_code": 18,
    "city": "福井市",
    "city_kana": "フクイシ",
    "town": "恐神町",
    "town_kana": "オソガミチョウ",
    "street": null,
    "office_name": null,
    "office_name_kana": null
  },
  "8072": {
    "postcode": "9188072",
    "prefecture": "福井県",
    "prefecture_kana": "フクイケン",
    "prefecture_code": 18,
    "city": "福井市",
    "city_kana": "フクイシ",
    "town": "北堀町",
    "town_kana": "キタホリチョウ",
    "street": null,
    "office_name": null,
    "office_name_kana": null
  },
  "8073": {
    "postcode": "9188073",
    "prefecture": "福井県",
    "prefecture_kana": "フクイケン",
    "prefecture_code": 18,
    "city": "福井市",
    "city_kana": "フクイシ",
    "town": "安田町",
    "town_kana": "ヤスダチョウ",
    "street": null,
    "office_name": null,
    "office_name_kana": null
  },
  "8074": {
    "postcode": "9188074",
    "prefecture": "福井県",
    "prefecture_kana": "フクイケン",
    "prefecture_code": 18,
    "city": "福井市",
    "city_kana": "フクイシ",
    "town": "細坂町",
    "town_kana": "ホソサカチョウ",
    "street": null,
    "office_name": null,
    "office_name_kana": null
  },
  "8075": {
    "postcode": "9188075",
    "prefecture": "福井県",
    "prefecture_kana": "フクイケン",
    "prefecture_code": 18,
    "city": "福井市",
    "city_kana": "フクイシ",
    "town": "羽坂町",
    "town_kana": "ハザカチョウ",
    "street": null,
    "office_name": null,
    "office_name_kana": null
  },
  "8076": {
    "postcode": "9188076",
    "prefecture": "福井県",
    "prefecture_kana": "フクイケン",
    "prefecture_code": 18,
    "city": "福井市",
    "city_kana": "フクイシ",
    "town": "本堂町",
    "town_kana": "ホンドウチョウ",
    "street": null,
    "office_name": null,
    "office_name_kana": null
  },
  "8077": {
    "postcode": "9188077",
    "prefecture": "福井県",
    "prefecture_kana": "フクイケン",
    "prefecture_code": 18,
    "city": "福井市",
    "city_kana": "フクイシ",
    "town": "末町",
    "town_kana": "スエマチ",
    "street": null,
    "office_name": null,
    "office_name_kana": null
  },
  "8078": {
    "postcode": "9188078",
    "prefecture": "福井県",
    "prefecture_kana": "フクイケン",
    "prefecture_code": 18,
    "city": "福井市",
    "city_kana": "フクイシ",
    "town": "更毛町",
    "town_kana": "サラゲチョウ",
    "street": null,
    "office_name": null,
    "office_name_kana": null
  },
  "8081": {
    "postcode": "9188081",
    "prefecture": "福井県",
    "prefecture_kana": "フクイケン",
    "prefecture_code": 18,
    "city": "福井市",
    "city_kana": "フクイシ",
    "town": "上一光町",
    "town_kana": "カミイカリチョウ",
    "street": null,
    "office_name": null,
    "office_name_kana": null
  },
  "8082": {
    "postcode": "9188082",
    "prefecture": "福井県",
    "prefecture_kana": "フクイケン",
    "prefecture_code": 18,
    "city": "福井市",
    "city_kana": "フクイシ",
    "town": "下一光町",
    "town_kana": "シモイカリチョウ",
    "street": null,
    "office_name": null,
    "office_name_kana": null
  },
  "8083": {
    "postcode": "9188083",
    "prefecture": "福井県",
    "prefecture_kana": "フクイケン",
    "prefecture_code": 18,
    "city": "福井市",
    "city_kana": "フクイシ",
    "town": "五太子町",
    "town_kana": "ゴタイシチョウ",
    "street": null,
    "office_name": null,
    "office_name_kana": null
  },
  "8101": {
    "postcode": "9188101",
    "prefecture": "福井県",
    "prefecture_kana": "フクイケン",
    "prefecture_code": 18,
    "city": "福井市",
    "city_kana": "フクイシ",
    "town": "一本木町",
    "town_kana": "イッポンギチョウ",
    "street": null,
    "office_name": null,
    "office_name_kana": null
  },
  "8102": {
    "postcode": "9188102",
    "prefecture": "福井県",
    "prefecture_kana": "フクイケン",
    "prefecture_code": 18,
    "city": "福井市",
    "city_kana": "フクイシ",
    "town": "西板垣町",
    "town_kana": "ニシイタガキチョウ",
    "street": null,
    "office_name": null,
    "office_name_kana": null
  },
  "8103": {
    "postcode": "9188103",
    "prefecture": "福井県",
    "prefecture_kana": "フクイケン",
    "prefecture_code": 18,
    "city": "福井市",
    "city_kana": "フクイシ",
    "town": "板垣町",
    "town_kana": "イタガキチョウ",
    "street": null,
    "office_name": null,
    "office_name_kana": null
  },
  "8104": {
    "postcode": "9188104",
    "prefecture": "福井県",
    "prefecture_kana": "フクイケン",
    "prefecture_code": 18,
    "city": "福井市",
    "city_kana": "フクイシ",
    "town": "板垣",
    "town_kana": "イタガキ",
    "street": null,
    "office_name": null,
    "office_name_kana": null
  },
  "8105": {
    "postcode": "9188105",
    "prefecture": "福井県",
    "prefecture_kana": "フクイケン",
    "prefecture_code": 18,
    "city": "福井市",
    "city_kana": "フクイシ",
    "town": "木田",
    "town_kana": "キダ",
    "street": null,
    "office_name": null,
    "office_name_kana": null
  },
  "8106": {
    "postcode": "9188106",
    "prefecture": "福井県",
    "prefecture_kana": "フクイケン",
    "prefecture_code": 18,
    "city": "福井市",
    "city_kana": "フクイシ",
    "town": "木田町",
    "town_kana": "キダチョウ",
    "street": null,
    "office_name": null,
    "office_name_kana": null
  },
  "8107": {
    "postcode": "9188107",
    "prefecture": "福井県",
    "prefecture_kana": "フクイケン",
    "prefecture_code": 18,
    "city": "福井市",
    "city_kana": "フクイシ",
    "town": "春日町",
    "town_kana": "カスガチョウ",
    "street": null,
    "office_name": null,
    "office_name_kana": null
  },
  "8108": {
    "postcode": "9188108",
    "prefecture": "福井県",
    "prefecture_kana": "フクイケン",
    "prefecture_code": 18,
    "city": "福井市",
    "city_kana": "フクイシ",
    "town": "春日",
    "town_kana": "カスガ",
    "street": null,
    "office_name": null,
    "office_name_kana": null
  },
  "8111": {
    "postcode": "9188111",
    "prefecture": "福井県",
    "prefecture_kana": "フクイケン",
    "prefecture_code": 18,
    "city": "福井市",
    "city_kana": "フクイシ",
    "town": "馬垣町",
    "town_kana": "ウマガキチョウ",
    "street": null,
    "office_name": null,
    "office_name_kana": null
  },
  "8112": {
    "postcode": "9188112",
    "prefecture": "福井県",
    "prefecture_kana": "フクイケン",
    "prefecture_code": 18,
    "city": "福井市",
    "city_kana": "フクイシ",
    "town": "下馬",
    "town_kana": "ゲバ",
    "street": null,
    "office_name": null,
    "office_name_kana": null
  },
  "8113": {
    "postcode": "9188113",
    "prefecture": "福井県",
    "prefecture_kana": "フクイケン",
    "prefecture_code": 18,
    "city": "福井市",
    "city_kana": "フクイシ",
    "town": "下馬町",
    "town_kana": "ゲバチョウ",
    "street": null,
    "office_name": null,
    "office_name_kana": null
  },
  "8114": {
    "postcode": "9188114",
    "prefecture": "福井県",
    "prefecture_kana": "フクイケン",
    "prefecture_code": 18,
    "city": "福井市",
    "city_kana": "フクイシ",
    "town": "羽水",
    "town_kana": "ウスイ",
    "street": null,
    "office_name": null,
    "office_name_kana": null
  },
  "8115": {
    "postcode": "9188115",
    "prefecture": "福井県",
    "prefecture_kana": "フクイケン",
    "prefecture_code": 18,
    "city": "福井市",
    "city_kana": "フクイシ",
    "town": "別所町",
    "town_kana": "ベッショチョウ",
    "street": null,
    "office_name": null,
    "office_name_kana": null
  },
  "8116": {
    "postcode": "9188116",
    "prefecture": "福井県",
    "prefecture_kana": "フクイケン",
    "prefecture_code": 18,
    "city": "福井市",
    "city_kana": "フクイシ",
    "town": "大町",
    "town_kana": "オオマチ",
    "street": null,
    "office_name": null,
    "office_name_kana": null
  },
  "8131": {
    "postcode": "9188131",
    "prefecture": "福井県",
    "prefecture_kana": "フクイケン",
    "prefecture_code": 18,
    "city": "福井市",
    "city_kana": "フクイシ",
    "town": "小稲津町",
    "town_kana": "コイナヅチョウ",
    "street": null,
    "office_name": null,
    "office_name_kana": null
  },
  "8132": {
    "postcode": "9188132",
    "prefecture": "福井県",
    "prefecture_kana": "フクイケン",
    "prefecture_code": 18,
    "city": "福井市",
    "city_kana": "フクイシ",
    "town": "上六条町",
    "town_kana": "カミロクジョウチョウ",
    "street": null,
    "office_name": null,
    "office_name_kana": null
  },
  "8133": {
    "postcode": "9188133",
    "prefecture": "福井県",
    "prefecture_kana": "フクイケン",
    "prefecture_code": 18,
    "city": "福井市",
    "city_kana": "フクイシ",
    "town": "上莇生田町",
    "town_kana": "カミアゾウダチョウ",
    "street": null,
    "office_name": null,
    "office_name_kana": null
  },
  "8134": {
    "postcode": "9188134",
    "prefecture": "福井県",
    "prefecture_kana": "フクイケン",
    "prefecture_code": 18,
    "city": "福井市",
    "city_kana": "フクイシ",
    "town": "下莇生田町",
    "town_kana": "シモアゾウダチョウ",
    "street": null,
    "office_name": null,
    "office_name_kana": null
  },
  "8135": {
    "postcode": "9188135",
    "prefecture": "福井県",
    "prefecture_kana": "フクイケン",
    "prefecture_code": 18,
    "city": "福井市",
    "city_kana": "フクイシ",
    "town": "下六条町",
    "town_kana": "シモロクジョウチョウ",
    "street": null,
    "office_name": null,
    "office_name_kana": null
  },
  "8136": {
    "postcode": "9188136",
    "prefecture": "福井県",
    "prefecture_kana": "フクイケン",
    "prefecture_code": 18,
    "city": "福井市",
    "city_kana": "フクイシ",
    "town": "天王町",
    "town_kana": "テンノウチョウ",
    "street": null,
    "office_name": null,
    "office_name_kana": null
  },
  "8151": {
    "postcode": "9188151",
    "prefecture": "福井県",
    "prefecture_kana": "フクイケン",
    "prefecture_code": 18,
    "city": "福井市",
    "city_kana": "フクイシ",
    "town": "中荒井町",
    "town_kana": "ナカアライマチ",
    "street": null,
    "office_name": null,
    "office_name_kana": null
  },
  "8152": {
    "postcode": "9188152",
    "prefecture": "福井県",
    "prefecture_kana": "フクイケン",
    "prefecture_code": 18,
    "city": "福井市",
    "city_kana": "フクイシ",
    "town": "今市町",
    "town_kana": "イマイチチョウ",
    "street": null,
    "office_name": null,
    "office_name_kana": null
  },
  "8153": {
    "postcode": "9188153",
    "prefecture": "福井県",
    "prefecture_kana": "フクイケン",
    "prefecture_code": 18,
    "city": "福井市",
    "city_kana": "フクイシ",
    "town": "安保町",
    "town_kana": "アボチョウ",
    "street": null,
    "office_name": null,
    "office_name_kana": null
  },
  "8154": {
    "postcode": "9188154",
    "prefecture": "福井県",
    "prefecture_kana": "フクイケン",
    "prefecture_code": 18,
    "city": "福井市",
    "city_kana": "フクイシ",
    "town": "冬野町",
    "town_kana": "フユノチョウ",
    "street": null,
    "office_name": null,
    "office_name_kana": null
  },
  "8155": {
    "postcode": "9188155",
    "prefecture": "福井県",
    "prefecture_kana": "フクイケン",
    "prefecture_code": 18,
    "city": "福井市",
    "city_kana": "フクイシ",
    "town": "杉谷町",
    "town_kana": "スギタニチョウ",
    "street": null,
    "office_name": null,
    "office_name_kana": null
  },
  "8156": {
    "postcode": "9188156",
    "prefecture": "福井県",
    "prefecture_kana": "フクイケン",
    "prefecture_code": 18,
    "city": "福井市",
    "city_kana": "フクイシ",
    "town": "引目町",
    "town_kana": "ヒキメチョウ",
    "street": null,
    "office_name": null,
    "office_name_kana": null
  },
  "8161": {
    "postcode": "9188161",
    "prefecture": "福井県",
    "prefecture_kana": "フクイケン",
    "prefecture_code": 18,
    "city": "福井市",
    "city_kana": "フクイシ",
    "town": "鉾ケ崎町",
    "town_kana": "ホコガサキチョウ",
    "street": null,
    "office_name": null,
    "office_name_kana": null
  },
  "8162": {
    "postcode": "9188162",
    "prefecture": "福井県",
    "prefecture_kana": "フクイケン",
    "prefecture_code": 18,
    "city": "福井市",
    "city_kana": "フクイシ",
    "town": "角原町",
    "town_kana": "ツノハラチョウ",
    "street": null,
    "office_name": null,
    "office_name_kana": null
  },
  "8163": {
    "postcode": "9188163",
    "prefecture": "福井県",
    "prefecture_kana": "フクイケン",
    "prefecture_code": 18,
    "city": "福井市",
    "city_kana": "フクイシ",
    "town": "生野町",
    "town_kana": "ショウノチョウ",
    "street": null,
    "office_name": null,
    "office_name_kana": null
  },
  "8164": {
    "postcode": "9188164",
    "prefecture": "福井県",
    "prefecture_kana": "フクイケン",
    "prefecture_code": 18,
    "city": "福井市",
    "city_kana": "フクイシ",
    "town": "三本木町",
    "town_kana": "サンボンギチョウ",
    "street": null,
    "office_name": null,
    "office_name_kana": null
  },
  "8165": {
    "postcode": "9188165",
    "prefecture": "福井県",
    "prefecture_kana": "フクイケン",
    "prefecture_code": 18,
    "city": "福井市",
    "city_kana": "フクイシ",
    "town": "徳尾町",
    "town_kana": "トクオチョウ",
    "street": null,
    "office_name": null,
    "office_name_kana": null
  },
  "8166": {
    "postcode": "9188166",
    "prefecture": "福井県",
    "prefecture_kana": "フクイケン",
    "prefecture_code": 18,
    "city": "福井市",
    "city_kana": "フクイシ",
    "town": "主計中町",
    "town_kana": "カズエナカチョウ",
    "street": null,
    "office_name": null,
    "office_name_kana": null
  },
  "8171": {
    "postcode": "9188171",
    "prefecture": "福井県",
    "prefecture_kana": "フクイケン",
    "prefecture_code": 18,
    "city": "福井市",
    "city_kana": "フクイシ",
    "town": "森行町",
    "town_kana": "モリユキチョウ",
    "street": null,
    "office_name": null,
    "office_name_kana": null
  },
  "8172": {
    "postcode": "9188172",
    "prefecture": "福井県",
    "prefecture_kana": "フクイケン",
    "prefecture_code": 18,
    "city": "福井市",
    "city_kana": "フクイシ",
    "town": "末広町",
    "town_kana": "スエヒロマチ",
    "street": null,
    "office_name": null,
    "office_name_kana": null
  },
  "8173": {
    "postcode": "9188173",
    "prefecture": "福井県",
    "prefecture_kana": "フクイケン",
    "prefecture_code": 18,
    "city": "福井市",
    "city_kana": "フクイシ",
    "town": "下江尻町",
    "town_kana": "シモエジリチョウ",
    "street": null,
    "office_name": null,
    "office_name_kana": null
  },
  "8174": {
    "postcode": "9188174",
    "prefecture": "福井県",
    "prefecture_kana": "フクイケン",
    "prefecture_code": 18,
    "city": "福井市",
    "city_kana": "フクイシ",
    "town": "上江尻町",
    "town_kana": "カミエジリチョウ",
    "street": null,
    "office_name": null,
    "office_name_kana": null
  },
  "8175": {
    "postcode": "9188175",
    "prefecture": "福井県",
    "prefecture_kana": "フクイケン",
    "prefecture_code": 18,
    "city": "福井市",
    "city_kana": "フクイシ",
    "town": "江尻ケ丘町",
    "town_kana": "エジリガオカチョウ",
    "street": null,
    "office_name": null,
    "office_name_kana": null
  },
  "8176": {
    "postcode": "9188176",
    "prefecture": "福井県",
    "prefecture_kana": "フクイケン",
    "prefecture_code": 18,
    "city": "福井市",
    "city_kana": "フクイシ",
    "town": "三十八社町",
    "town_kana": "サンジュウハッシャチョウ",
    "street": null,
    "office_name": null,
    "office_name_kana": null
  },
  "8181": {
    "postcode": "9188181",
    "prefecture": "福井県",
    "prefecture_kana": "フクイケン",
    "prefecture_code": 18,
    "city": "福井市",
    "city_kana": "フクイシ",
    "town": "浅水町",
    "town_kana": "アソウズチョウ",
    "street": null,
    "office_name": null,
    "office_name_kana": null
  },
  "8182": {
    "postcode": "9188182",
    "prefecture": "福井県",
    "prefecture_kana": "フクイケン",
    "prefecture_code": 18,
    "city": "福井市",
    "city_kana": "フクイシ",
    "town": "浅水二日町",
    "town_kana": "アソウズフツカマチ",
    "street": null,
    "office_name": null,
    "office_name_kana": null
  },
  "8183": {
    "postcode": "9188183",
    "prefecture": "福井県",
    "prefecture_kana": "フクイケン",
    "prefecture_code": 18,
    "city": "福井市",
    "city_kana": "フクイシ",
    "town": "浅水三ケ町",
    "town_kana": "アソウズサンガチョウ",
    "street": null,
    "office_name": null,
    "office_name_kana": null
  },
  "8184": {
    "postcode": "9188184",
    "prefecture": "福井県",
    "prefecture_kana": "フクイケン",
    "prefecture_code": 18,
    "city": "福井市",
    "city_kana": "フクイシ",
    "town": "真木町",
    "town_kana": "マキチョウ",
    "street": null,
    "office_name": null,
    "office_name_kana": null
  },
  "8185": {
    "postcode": "9188185",
    "prefecture": "福井県",
    "prefecture_kana": "フクイケン",
    "prefecture_code": 18,
    "city": "福井市",
    "city_kana": "フクイシ",
    "town": "中野町",
    "town_kana": "ナカノチョウ",
    "street": null,
    "office_name": null,
    "office_name_kana": null
  },
  "8186": {
    "postcode": "9188186",
    "prefecture": "福井県",
    "prefecture_kana": "フクイケン",
    "prefecture_code": 18,
    "city": "福井市",
    "city_kana": "フクイシ",
    "town": "中野",
    "town_kana": "ナカノ",
    "street": null,
    "office_name": null,
    "office_name_kana": null
  },
  "8187": {
    "postcode": "9188187",
    "prefecture": "福井県",
    "prefecture_kana": "フクイケン",
    "prefecture_code": 18,
    "city": "福井市",
    "city_kana": "フクイシ",
    "town": "花守町",
    "town_kana": "ハナモリチョウ",
    "street": null,
    "office_name": null,
    "office_name_kana": null
  },
  "8188": {
    "postcode": "9188188",
    "prefecture": "福井県",
    "prefecture_kana": "フクイケン",
    "prefecture_code": 18,
    "city": "福井市",
    "city_kana": "フクイシ",
    "town": "三尾野町",
    "town_kana": "ミオノチョウ",
    "street": null,
    "office_name": null,
    "office_name_kana": null
  },
  "8201": {
    "postcode": "9188201",
    "prefecture": "福井県",
    "prefecture_kana": "フクイケン",
    "prefecture_code": 18,
    "city": "福井市",
    "city_kana": "フクイシ",
    "town": "南四ツ居町",
    "town_kana": "ミナミヨツイチョウ",
    "street": null,
    "office_name": null,
    "office_name_kana": null
  },
  "8202": {
    "postcode": "9188202",
    "prefecture": "福井県",
    "prefecture_kana": "フクイケン",
    "prefecture_code": 18,
    "city": "福井市",
    "city_kana": "フクイシ",
    "town": "大東",
    "town_kana": "ダイトウ",
    "street": null,
    "office_name": null,
    "office_name_kana": null
  },
  "8203": {
    "postcode": "9188203",
    "prefecture": "福井県",
    "prefecture_kana": "フクイケン",
    "prefecture_code": 18,
    "city": "福井市",
    "city_kana": "フクイシ",
    "town": "上北野",
    "town_kana": "カミキタノ",
    "street": null,
    "office_name": null,
    "office_name_kana": null
  },
  "8204": {
    "postcode": "9188204",
    "prefecture": "福井県",
    "prefecture_kana": "フクイケン",
    "prefecture_code": 18,
    "city": "福井市",
    "city_kana": "フクイシ",
    "town": "南四ツ居",
    "town_kana": "ミナミヨツイ",
    "street": null,
    "office_name": null,
    "office_name_kana": null
  },
  "8205": {
    "postcode": "9188205",
    "prefecture": "福井県",
    "prefecture_kana": "フクイケン",
    "prefecture_code": 18,
    "city": "福井市",
    "city_kana": "フクイシ",
    "town": "北四ツ居",
    "town_kana": "キタヨツイ",
    "street": null,
    "office_name": null,
    "office_name_kana": null
  },
  "8206": {
    "postcode": "9188206",
    "prefecture": "福井県",
    "prefecture_kana": "フクイケン",
    "prefecture_code": 18,
    "city": "福井市",
    "city_kana": "フクイシ",
    "town": "北四ツ居町",
    "town_kana": "キタヨツイチョウ",
    "street": null,
    "office_name": null,
    "office_name_kana": null
  },
  "8207": {
    "postcode": "9188207",
    "prefecture": "福井県",
    "prefecture_kana": "フクイケン",
    "prefecture_code": 18,
    "city": "福井市",
    "city_kana": "フクイシ",
    "town": "円山",
    "town_kana": "エンザン",
    "street": null,
    "office_name": null,
    "office_name_kana": null
  },
  "8211": {
    "postcode": "9188211",
    "prefecture": "福井県",
    "prefecture_kana": "フクイケン",
    "prefecture_code": 18,
    "city": "福井市",
    "city_kana": "フクイシ",
    "town": "下中町",
    "town_kana": "シモナカチョウ",
    "street": null,
    "office_name": null,
    "office_name_kana": null
  },
  "8212": {
    "postcode": "9188212",
    "prefecture": "福井県",
    "prefecture_kana": "フクイケン",
    "prefecture_code": 18,
    "city": "福井市",
    "city_kana": "フクイシ",
    "town": "北今泉町",
    "town_kana": "キタイマイズミチョウ",
    "street": null,
    "office_name": null,
    "office_name_kana": null
  },
  "8213": {
    "postcode": "9188213",
    "prefecture": "福井県",
    "prefecture_kana": "フクイケン",
    "prefecture_code": 18,
    "city": "福井市",
    "city_kana": "フクイシ",
    "town": "今泉町",
    "town_kana": "イマイズミチョウ",
    "street": null,
    "office_name": null,
    "office_name_kana": null
  },
  "8214": {
    "postcode": "9188214",
    "prefecture": "福井県",
    "prefecture_kana": "フクイケン",
    "prefecture_code": 18,
    "city": "福井市",
    "city_kana": "フクイシ",
    "town": "東今泉町",
    "town_kana": "ヒガシイマイズミチョウ",
    "street": null,
    "office_name": null,
    "office_name_kana": null
  },
  "8215": {
    "postcode": "9188215",
    "prefecture": "福井県",
    "prefecture_kana": "フクイケン",
    "prefecture_code": 18,
    "city": "福井市",
    "city_kana": "フクイシ",
    "town": "寮町",
    "town_kana": "リョウマチ",
    "street": null,
    "office_name": null,
    "office_name_kana": null
  },
  "8216": {
    "postcode": "9188216",
    "prefecture": "福井県",
    "prefecture_kana": "フクイケン",
    "prefecture_code": 18,
    "city": "福井市",
    "city_kana": "フクイシ",
    "town": "殿下町",
    "town_kana": "テンガチョウ",
    "street": null,
    "office_name": null,
    "office_name_kana": null
  },
  "8217": {
    "postcode": "9188217",
    "prefecture": "福井県",
    "prefecture_kana": "フクイケン",
    "prefecture_code": 18,
    "city": "福井市",
    "city_kana": "フクイシ",
    "town": "印田町",
    "town_kana": "インデンチョウ",
    "street": null,
    "office_name": null,
    "office_name_kana": null
  },
  "8218": {
    "postcode": "9188218",
    "prefecture": "福井県",
    "prefecture_kana": "フクイケン",
    "prefecture_code": 18,
    "city": "福井市",
    "city_kana": "フクイシ",
    "town": "河増町",
    "town_kana": "コウマスチョウ",
    "street": null,
    "office_name": null,
    "office_name_kana": null
  },
  "8219": {
    "postcode": "9188219",
    "prefecture": "福井県",
    "prefecture_kana": "フクイケン",
    "prefecture_code": 18,
    "city": "福井市",
    "city_kana": "フクイシ",
    "town": "フェア河増",
    "town_kana": "フェアコウマス",
    "street": null,
    "office_name": null,
    "office_name_kana": null
  },
  "8221": {
    "postcode": "9188221",
    "prefecture": "福井県",
    "prefecture_kana": "フクイケン",
    "prefecture_code": 18,
    "city": "福井市",
    "city_kana": "フクイシ",
    "town": "堅達町",
    "town_kana": "ゲンダツチョウ",
    "street": null,
    "office_name": null,
    "office_name_kana": null
  },
  "8222": {
    "postcode": "9188222",
    "prefecture": "福井県",
    "prefecture_kana": "フクイケン",
    "prefecture_code": 18,
    "city": "福井市",
    "city_kana": "フクイシ",
    "town": "坂下町",
    "town_kana": "サカシタチョウ",
    "street": null,
    "office_name": null,
    "office_name_kana": null
  },
  "8223": {
    "postcode": "9188223",
    "prefecture": "福井県",
    "prefecture_kana": "フクイケン",
    "prefecture_code": 18,
    "city": "福井市",
    "city_kana": "フクイシ",
    "town": "河水町",
    "town_kana": "コウスイチョウ",
    "street": null,
    "office_name": null,
    "office_name_kana": null
  },
  "8224": {
    "postcode": "9188224",
    "prefecture": "福井県",
    "prefecture_kana": "フクイケン",
    "prefecture_code": 18,
    "city": "福井市",
    "city_kana": "フクイシ",
    "town": "花野谷町",
    "town_kana": "ハナノタニチョウ",
    "street": null,
    "office_name": null,
    "office_name_kana": null
  },
  "8225": {
    "postcode": "9188225",
    "prefecture": "福井県",
    "prefecture_kana": "フクイケン",
    "prefecture_code": 18,
    "city": "福井市",
    "city_kana": "フクイシ",
    "town": "宮地町",
    "town_kana": "ミヤジチョウ",
    "street": null,
    "office_name": null,
    "office_name_kana": null
  },
  "8226": {
    "postcode": "9188226",
    "prefecture": "福井県",
    "prefecture_kana": "フクイケン",
    "prefecture_code": 18,
    "city": "福井市",
    "city_kana": "フクイシ",
    "town": "大畑町",
    "town_kana": "オバタケチョウ",
    "street": null,
    "office_name": null,
    "office_name_kana": null
  },
  "8227": {
    "postcode": "9188227",
    "prefecture": "福井県",
    "prefecture_kana": "フクイケン",
    "prefecture_code": 18,
    "city": "福井市",
    "city_kana": "フクイシ",
    "town": "次郎丸町",
    "town_kana": "ジロウマルチョウ",
    "street": null,
    "office_name": null,
    "office_name_kana": null
  },
  "8228": {
    "postcode": "9188228",
    "prefecture": "福井県",
    "prefecture_kana": "フクイケン",
    "prefecture_code": 18,
    "city": "福井市",
    "city_kana": "フクイシ",
    "town": "岡西谷町",
    "town_kana": "オカニシタニチョウ",
    "street": null,
    "office_name": null,
    "office_name_kana": null
  },
  "8231": {
    "postcode": "9188231",
    "prefecture": "福井県",
    "prefecture_kana": "フクイケン",
    "prefecture_code": 18,
    "city": "福井市",
    "city_kana": "フクイシ",
    "town": "問屋町",
    "town_kana": "トイヤチョウ",
    "street": null,
    "office_name": null,
    "office_name_kana": null
  },
  "8232": {
    "postcode": "9188232",
    "prefecture": "福井県",
    "prefecture_kana": "フクイケン",
    "prefecture_code": 18,
    "city": "福井市",
    "city_kana": "フクイシ",
    "town": "荒木別所町",
    "town_kana": "アラキベッシヨチョウ",
    "street": null,
    "office_name": null,
    "office_name_kana": null
  },
  "8233": {
    "postcode": "9188233",
    "prefecture": "福井県",
    "prefecture_kana": "フクイケン",
    "prefecture_code": 18,
    "city": "福井市",
    "city_kana": "フクイシ",
    "town": "合島町",
    "town_kana": "ゴウシマチョウ",
    "street": null,
    "office_name": null,
    "office_name_kana": null
  },
  "8234": {
    "postcode": "9188234",
    "prefecture": "福井県",
    "prefecture_kana": "フクイケン",
    "prefecture_code": 18,
    "city": "福井市",
    "city_kana": "フクイシ",
    "town": "曽万布町",
    "town_kana": "ソンボチョウ",
    "street": null,
    "office_name": null,
    "office_name_kana": null
  },
  "8235": {
    "postcode": "9188235",
    "prefecture": "福井県",
    "prefecture_kana": "フクイケン",
    "prefecture_code": 18,
    "city": "福井市",
    "city_kana": "フクイシ",
    "town": "和田中町",
    "town_kana": "ワダナカチョウ",
    "street": null,
    "office_name": null,
    "office_name_kana": null
  },
  "8236": {
    "postcode": "9188236",
    "prefecture": "福井県",
    "prefecture_kana": "フクイケン",
    "prefecture_code": 18,
    "city": "福井市",
    "city_kana": "フクイシ",
    "town": "和田中",
    "town_kana": "ワダナカ",
    "street": null,
    "office_name": null,
    "office_name_kana": null
  },
  "8237": {
    "postcode": "9188237",
    "prefecture": "福井県",
    "prefecture_kana": "フクイケン",
    "prefecture_code": 18,
    "city": "福井市",
    "city_kana": "フクイシ",
    "town": "和田東",
    "town_kana": "ワダヒガシ",
    "street": null,
    "office_name": null,
    "office_name_kana": null
  },
  "8238": {
    "postcode": "9188238",
    "prefecture": "福井県",
    "prefecture_kana": "フクイケン",
    "prefecture_code": 18,
    "city": "福井市",
    "city_kana": "フクイシ",
    "town": "和田",
    "town_kana": "ワダ",
    "street": null,
    "office_name": null,
    "office_name_kana": null
  },
  "8239": {
    "postcode": "9188239",
    "prefecture": "福井県",
    "prefecture_kana": "フクイケン",
    "prefecture_code": 18,
    "city": "福井市",
    "city_kana": "フクイシ",
    "town": "成和",
    "town_kana": "セイワ",
    "street": null,
    "office_name": null,
    "office_name_kana": null
  },
  "8501": {
    "postcode": "9188501",
    "prefecture": "福井県",
    "prefecture_kana": "フクイケン",
    "prefecture_code": 18,
    "city": "福井市",
    "city_kana": "フクイシ",
    "town": "月見",
    "town_kana": "ツキミ",
    "street": "２丁目４−１",
    "office_name": "福井赤十字病院",
    "office_name_kana": "フクイセキジユウジビヨウイン"
  },
  "8502": {
    "postcode": "9188502",
    "prefecture": "福井県",
    "prefecture_kana": "フクイケン",
    "prefecture_code": 18,
    "city": "福井市",
    "city_kana": "フクイシ",
    "town": "舞屋町",
    "town_kana": "マイヤチョウ",
    "street": "１５−５−２",
    "office_name": "オー・ジー　株式会社　北陸支店",
    "office_name_kana": "オ-・ジ- カブシキガイシヤ ホクリクシテン"
  },
  "8503": {
    "postcode": "9188503",
    "prefecture": "福井県",
    "prefecture_kana": "フクイケン",
    "prefecture_code": 18,
    "city": "福井市",
    "city_kana": "フクイシ",
    "town": "和田中町",
    "town_kana": "ワダナカチョウ",
    "street": "舟橋７−１",
    "office_name": "福井県　済生会病院",
    "office_name_kana": "フクイケン サイセイカイビヨウイン"
  },
  "8505": {
    "postcode": "9188505",
    "prefecture": "福井県",
    "prefecture_kana": "フクイケン",
    "prefecture_code": 18,
    "city": "福井市",
    "city_kana": "フクイシ",
    "town": "河水町",
    "town_kana": "コウスイチョウ",
    "street": "第１４号３０番地",
    "office_name": "アイローグ協同組合",
    "office_name_kana": "アイロ-グキヨウドウクミアイ"
  },
  "8508": {
    "postcode": "9188508",
    "prefecture": "福井県",
    "prefecture_kana": "フクイケン",
    "prefecture_code": 18,
    "city": "福井市",
    "city_kana": "フクイシ",
    "town": "下馬",
    "town_kana": "ゲバ",
    "street": "２丁目１０１番地",
    "office_name": "株式会社　アイビックス",
    "office_name_kana": "カブシキガイシヤ アイビツクス"
  },
  "8509": {
    "postcode": "9188509",
    "prefecture": "福井県",
    "prefecture_kana": "フクイケン",
    "prefecture_code": 18,
    "city": "福井市",
    "city_kana": "フクイシ",
    "town": "毛矢",
    "town_kana": "ケヤ",
    "street": "１丁目６−２３",
    "office_name": "江守グループホールディングス　株式会社",
    "office_name_kana": "エモリグル-プホ-ルデイングス カブシキガイシヤ"
  },
  "8510": {
    "postcode": "9188510",
    "prefecture": "福井県",
    "prefecture_kana": "フクイケン",
    "prefecture_code": 18,
    "city": "福井市",
    "city_kana": "フクイシ",
    "town": "毛矢",
    "town_kana": "ケヤ",
    "street": "１丁目６−２３",
    "office_name": "興和江守　株式会社",
    "office_name_kana": "コウワエモリ カブシキガイシヤ"
  },
  "8511": {
    "postcode": "9188511",
    "prefecture": "福井県",
    "prefecture_kana": "フクイケン",
    "prefecture_code": 18,
    "city": "福井市",
    "city_kana": "フクイシ",
    "town": "左内町",
    "town_kana": "サナイチョウ",
    "street": "４−１５",
    "office_name": "山金工業　株式会社",
    "office_name_kana": "ヤマキンコウギヨウ カブシキガイシヤ"
  },
  "8515": {
    "postcode": "9188515",
    "prefecture": "福井県",
    "prefecture_kana": "フクイケン",
    "prefecture_code": 18,
    "city": "福井市",
    "city_kana": "フクイシ",
    "town": "和田中",
    "town_kana": "ワダナカ",
    "street": "１丁目４１４番地",
    "office_name": "清川メッキ工業　株式会社",
    "office_name_kana": "キヨカワメツキコウギヨウ カブシキガイシヤ"
  },
  "8518": {
    "postcode": "9188518",
    "prefecture": "福井県",
    "prefecture_kana": "フクイケン",
    "prefecture_code": 18,
    "city": "福井市",
    "city_kana": "フクイシ",
    "town": "花堂東",
    "town_kana": "ハナンドウヒガシ",
    "street": "１丁目２６−３０",
    "office_name": "福井県　社会保険診療報酬支払基金",
    "office_name_kana": "フクイケン シヤカイホケンシンリヨウホウシユウシハライキキン"
  },
  "8520": {
    "postcode": "9188520",
    "prefecture": "福井県",
    "prefecture_kana": "フクイケン",
    "prefecture_code": 18,
    "city": "福井市",
    "city_kana": "フクイシ",
    "town": "花堂中",
    "town_kana": "ハナンドウナカ",
    "street": "２丁目１５番２号",
    "office_name": "エネックス　株式会社",
    "office_name_kana": "エネツクス カブシキガイシヤ"
  },
  "8522": {
    "postcode": "9188522",
    "prefecture": "福井県",
    "prefecture_kana": "フクイケン",
    "prefecture_code": 18,
    "city": "福井市",
    "city_kana": "フクイシ",
    "town": "上北野",
    "town_kana": "カミキタノ",
    "street": "１丁目２７−３３",
    "office_name": "日本マイヤー　株式会社",
    "office_name_kana": "ニツポンマイヤ- カブシキガイシヤ"
  },
  "8523": {
    "postcode": "9188523",
    "prefecture": "福井県",
    "prefecture_kana": "フクイケン",
    "prefecture_code": 18,
    "city": "福井市",
    "city_kana": "フクイシ",
    "town": "下荒井町",
    "town_kana": "シモアライチョウ",
    "street": "２１号３番地",
    "office_name": "福井日産自動車　株式会社",
    "office_name_kana": "フクイニツサンジドウシヤ カブシキガイシヤ"
  },
  "8525": {
    "postcode": "9188525",
    "prefecture": "福井県",
    "prefecture_kana": "フクイケン",
    "prefecture_code": 18,
    "city": "福井市",
    "city_kana": "フクイシ",
    "town": "花堂北",
    "town_kana": "ハナンドウキタ",
    "street": "１丁目７番２５号",
    "office_name": "株式会社　サンワコン",
    "office_name_kana": "カブシキガイシヤ サンワコン"
  },
  "8530": {
    "postcode": "9188530",
    "prefecture": "福井県",
    "prefecture_kana": "フクイケン",
    "prefecture_code": 18,
    "city": "福井市",
    "city_kana": "フクイシ",
    "town": "花堂中",
    "town_kana": "ハナンドウナカ",
    "street": "２丁目１５番１号",
    "office_name": "サカイオーベックス　株式会社",
    "office_name_kana": "サカイオ-ベツクス カブシキガイシヤ"
  },
  "8533": {
    "postcode": "9188533",
    "prefecture": "福井県",
    "prefecture_kana": "フクイケン",
    "prefecture_code": 18,
    "city": "福井市",
    "city_kana": "フクイシ",
    "town": "桃園",
    "town_kana": "モモゾノ",
    "street": "２丁目１−１５",
    "office_name": "フクイボウ　株式会社",
    "office_name_kana": "フクイボウ カブシキガイシヤ"
  },
  "8537": {
    "postcode": "9188537",
    "prefecture": "福井県",
    "prefecture_kana": "フクイケン",
    "prefecture_code": 18,
    "city": "福井市",
    "city_kana": "フクイシ",
    "town": "下六条町",
    "town_kana": "シモロクジョウチョウ",
    "street": "２０１番地",
    "office_name": "医療法人　厚生会　福井厚生病院",
    "office_name_kana": "イリヨウホウジン コウセイカイ フクイコウセイビヨウイン"
  },
  "8540": {
    "postcode": "9188540",
    "prefecture": "福井県",
    "prefecture_kana": "フクイケン",
    "prefecture_code": 18,
    "city": "福井市",
    "city_kana": "フクイシ",
    "town": "西木田",
    "town_kana": "ニシキダ",
    "street": "２丁目８−８",
    "office_name": "福井健康福祉センター",
    "office_name_kana": "フクイケンコウフクシセンタ-"
  },
  "8543": {
    "postcode": "9188543",
    "prefecture": "福井県",
    "prefecture_kana": "フクイケン",
    "prefecture_code": 18,
    "city": "福井市",
    "city_kana": "フクイシ",
    "town": "問屋町",
    "town_kana": "トイヤチョウ",
    "street": "２丁目６５",
    "office_name": "株式会社　北川",
    "office_name_kana": "カブシキガイシヤ キタガワ"
  },
  "8550": {
    "postcode": "9188550",
    "prefecture": "福井県",
    "prefecture_kana": "フクイケン",
    "prefecture_code": 18,
    "city": "福井市",
    "city_kana": "フクイシ",
    "town": "毛矢",
    "town_kana": "ケヤ",
    "street": "３丁目２−４",
    "office_name": "轟産業　株式会社",
    "office_name_kana": "トドロキサンギヨウ カブシキガイシヤ"
  },
  "8552": {
    "postcode": "9188552",
    "prefecture": "福井県",
    "prefecture_kana": "フクイケン",
    "prefecture_code": 18,
    "city": "福井市",
    "city_kana": "フクイシ",
    "town": "問屋町",
    "town_kana": "トイヤチョウ",
    "street": "２丁目３２番号",
    "office_name": "株式会社　山内",
    "office_name_kana": "カブシキガイシヤ ヤマウチ"
  },
  "8555": {
    "postcode": "9188555",
    "prefecture": "福井県",
    "prefecture_kana": "フクイケン",
    "prefecture_code": 18,
    "city": "福井市",
    "city_kana": "フクイシ",
    "town": "つくも",
    "town_kana": "ツクモ",
    "street": "２丁目１１−２１",
    "office_name": "北陸農政局　福井農政事務所",
    "office_name_kana": "ホクリクノウセイキヨク フクイノウセイジムシヨ"
  },
  "8556": {
    "postcode": "9188556",
    "prefecture": "福井県",
    "prefecture_kana": "フクイケン",
    "prefecture_code": 18,
    "city": "福井市",
    "city_kana": "フクイシ",
    "town": "問屋町",
    "town_kana": "トイヤチョウ",
    "street": "４丁目９０１番地",
    "office_name": "株式会社　ミタス",
    "office_name_kana": "カブシキガイシヤ ミタス"
  },
  "8558": {
    "postcode": "9188558",
    "prefecture": "福井県",
    "prefecture_kana": "フクイケン",
    "prefecture_code": 18,
    "city": "福井市",
    "city_kana": "フクイシ",
    "town": "毛矢",
    "town_kana": "ケヤ",
    "street": "１丁目１０−１",
    "office_name": "東京海上日動火災保険　株式会社",
    "office_name_kana": "トウキヨウカイジヨウニチドウカサイホケン カブシキガイシヤ"
  },
  "8560": {
    "postcode": "9188560",
    "prefecture": "福井県",
    "prefecture_kana": "フクイケン",
    "prefecture_code": 18,
    "city": "福井市",
    "city_kana": "フクイシ",
    "town": "毛矢",
    "town_kana": "ケヤ",
    "street": "１丁目１０番１号",
    "office_name": "セーレン　株式会社",
    "office_name_kana": "セ-レン カブシキガイシヤ"
  },
  "8565": {
    "postcode": "9188565",
    "prefecture": "福井県",
    "prefecture_kana": "フクイケン",
    "prefecture_code": 18,
    "city": "福井市",
    "city_kana": "フクイシ",
    "town": "花堂東",
    "town_kana": "ハナンドウヒガシ",
    "street": "１丁目２０番５号",
    "office_name": "産建機械リース　株式会社",
    "office_name_kana": "サンケンキカイリ-ス カブシキガイシヤ"
  },
  "8566": {
    "postcode": "9188566",
    "prefecture": "福井県",
    "prefecture_kana": "フクイケン",
    "prefecture_code": 18,
    "city": "福井市",
    "city_kana": "フクイシ",
    "town": "問屋町",
    "town_kana": "トイヤチョウ",
    "street": "２丁目１６",
    "office_name": "中島管材鋼機　株式会社",
    "office_name_kana": "ナカジマカンザイコウキ カブシキガイシヤ"
  },
  "8567": {
    "postcode": "9188567",
    "prefecture": "福井県",
    "prefecture_kana": "フクイケン",
    "prefecture_code": 18,
    "city": "福井市",
    "city_kana": "フクイシ",
    "town": "江端町",
    "town_kana": "エバタチョウ",
    "street": "２０号１番地",
    "office_name": "福井県　森林組合連合会",
    "office_name_kana": "フクイケン シンリンクミアイレンゴウカイ"
  },
  "8568": {
    "postcode": "9188568",
    "prefecture": "福井県",
    "prefecture_kana": "フクイケン",
    "prefecture_code": 18,
    "city": "福井市",
    "city_kana": "フクイシ",
    "town": "下荒井町",
    "town_kana": "シモアライチョウ",
    "street": "１９字５０番地",
    "office_name": "福井トヨタ自動車　株式会社",
    "office_name_kana": "フクイトヨタジドウシヤ カブシキガイシヤ"
  },
  "8570": {
    "postcode": "9188570",
    "prefecture": "福井県",
    "prefecture_kana": "フクイケン",
    "prefecture_code": 18,
    "city": "あわら市",
    "city_kana": "アワラシ",
    "town": "熊坂",
    "town_kana": "クマサカ",
    "street": "９６",
    "office_name": "株式会社　ニッセン　福井ロジスティックセンター",
    "office_name_kana": "カブシキガイシヤ ニツセン フクイロジステイツクセンタ-"
  },
  "8575": {
    "postcode": "9188575",
    "prefecture": "福井県",
    "prefecture_kana": "フクイケン",
    "prefecture_code": 18,
    "city": "福井市",
    "city_kana": "フクイシ",
    "town": "若杉町",
    "town_kana": "ワカスギチョウ",
    "street": "３５字２１",
    "office_name": "福井県立　道守高等学校",
    "office_name_kana": "フクイケンリツ ミチモリコウトウガツコウ"
  },
  "8577": {
    "postcode": "9188577",
    "prefecture": "福井県",
    "prefecture_kana": "フクイケン",
    "prefecture_code": 18,
    "city": "福井市",
    "city_kana": "フクイシ",
    "town": "花堂南",
    "town_kana": "ハナンドウミナミ",
    "street": "２丁目１６−１",
    "office_name": "ショッピングシティ　ベル",
    "office_name_kana": "シヨツピングシテイ ベル"
  },
  "8578": {
    "postcode": "9188578",
    "prefecture": "福井県",
    "prefecture_kana": "フクイケン",
    "prefecture_code": 18,
    "city": "福井市",
    "city_kana": "フクイシ",
    "town": "円山",
    "town_kana": "エンザン",
    "street": "１丁目４０５",
    "office_name": "塩田食品　株式会社",
    "office_name_kana": "シオダシヨクヒン カブシキガイシヤ"
  },
  "8580": {
    "postcode": "9188580",
    "prefecture": "福井県",
    "prefecture_kana": "フクイケン",
    "prefecture_code": 18,
    "city": "福井市",
    "city_kana": "フクイシ",
    "town": "西木田",
    "town_kana": "ニシキダ",
    "street": "２丁目８−１",
    "office_name": "福井商工会議所",
    "office_name_kana": "フクイシヨウコウカイギシヨ"
  },
  "8583": {
    "postcode": "9188583",
    "prefecture": "福井県",
    "prefecture_kana": "フクイケン",
    "prefecture_code": 18,
    "city": "福井市",
    "city_kana": "フクイシ",
    "town": "南四ツ居",
    "town_kana": "ミナミヨツイ",
    "street": "１丁目９番１７号",
    "office_name": "株式会社　パスポート",
    "office_name_kana": "カブシキガイシヤ パスポ-ト"
  },
  "8585": {
    "postcode": "9188585",
    "prefecture": "福井県",
    "prefecture_kana": "フクイケン",
    "prefecture_code": 18,
    "city": "福井市",
    "city_kana": "フクイシ",
    "town": "三十八社町",
    "town_kana": "サンジュウハッシャチョウ",
    "street": "３３字６６",
    "office_name": "フクビ化学工業　株式会社",
    "office_name_kana": "フクビカガクコウギヨウ カブシキガイシヤ"
  },
  "8586": {
    "postcode": "9188586",
    "prefecture": "福井県",
    "prefecture_kana": "フクイケン",
    "prefecture_code": 18,
    "city": "福井市",
    "city_kana": "フクイシ",
    "town": "飯塚町",
    "town_kana": "イイヅカチョウ",
    "street": "第１１号１１１番地",
    "office_name": "アピタ　福井店",
    "office_name_kana": "アピタ フクイテン"
  },
  "8588": {
    "postcode": "9188588",
    "prefecture": "福井県",
    "prefecture_kana": "フクイケン",
    "prefecture_code": 18,
    "city": "福井市",
    "city_kana": "フクイシ",
    "town": "みのり",
    "town_kana": "ミノリ",
    "street": "４丁目１３−１",
    "office_name": "株式会社　アタゴ",
    "office_name_kana": "カブシキガイシヤ アタゴ"
  },
  "8668": {
    "postcode": "9188668",
    "prefecture": "福井県",
    "prefecture_kana": "フクイケン",
    "prefecture_code": 18,
    "city": "福井市",
    "city_kana": "フクイシ",
    "town": "毛矢",
    "town_kana": "ケヤ",
    "street": "１丁目２−７",
    "office_name": "広撚　株式会社",
    "office_name_kana": "ヒロネン カブシキガイシヤ"
  },
  "8681": {
    "postcode": "9188681",
    "prefecture": "福井県",
    "prefecture_kana": "フクイケン",
    "prefecture_code": 18,
    "city": "福井市",
    "city_kana": "フクイシ",
    "town": "木田町",
    "town_kana": "キダチョウ",
    "street": "１３０７（福井南郵便局私書箱第２号）",
    "office_name": "株式会社　ミツノリ",
    "office_name_kana": "カブシキガイシヤ ミツノリ"
  },
  "8686": {
    "postcode": "9188686",
    "prefecture": "福井県",
    "prefecture_kana": "フクイケン",
    "prefecture_code": 18,
    "city": "福井市",
    "city_kana": "フクイシ",
    "town": "今市町",
    "town_kana": "イマイチチョウ",
    "street": "６６（福井南郵便局私書箱第５号）",
    "office_name": "株式会社　福井銀行事務センター",
    "office_name_kana": "カブシキガイシヤ フクイギンコウジムセンタ-"
  },
  "8688": {
    "postcode": "9188688",
    "prefecture": "福井県",
    "prefecture_kana": "フクイケン",
    "prefecture_code": 18,
    "city": "福井市",
    "city_kana": "フクイシ",
    "town": "問屋町",
    "town_kana": "トイヤチョウ",
    "street": "３丁目４１０（福井南郵便局私書箱第１号）",
    "office_name": "福井テレビジョン放送　株式会社",
    "office_name_kana": "フクイテレビジヨンホウソウ カブシキガイシヤ"
  }
}