{
  "0000": {
    "postcode": "9330000",
    "prefecture": "富山県",
    "prefecture_kana": "トヤマケン",
    "prefecture_code": 16,
    "city": "高岡市",
    "city_kana": "タカオカシ",
    "town": "",
    "town_kana": "",
    "street": null,
    "office_name": null,
    "office_name_kana": null
  },
  "0001": {
    "postcode": "9330001",
    "prefecture": "富山県",
    "prefecture_kana": "トヤマケン",
    "prefecture_code": 16,
    "city": "高岡市",
    "city_kana": "タカオカシ",
    "town": "富岡町",
    "town_kana": "トミオカマチ",
    "street": null,
    "office_name": null,
    "office_name_kana": null
  },
  "0002": {
    "postcode": "9330002",
    "prefecture": "富山県",
    "prefecture_kana": "トヤマケン",
    "prefecture_code": 16,
    "city": "高岡市",
    "city_kana": "タカオカシ",
    "town": "吉久",
    "town_kana": "ヨシヒサ",
    "street": null,
    "office_name": null,
    "office_name_kana": null
  },
  "0003": {
    "postcode": "9330003",
    "prefecture": "富山県",
    "prefecture_kana": "トヤマケン",
    "prefecture_code": 16,
    "city": "高岡市",
    "city_kana": "タカオカシ",
    "town": "能町",
    "town_kana": "ノウマチ",
    "street": null,
    "office_name": null,
    "office_name_kana": null
  },
  "0004": {
    "postcode": "9330004",
    "prefecture": "富山県",
    "prefecture_kana": "トヤマケン",
    "prefecture_code": 16,
    "city": "高岡市",
    "city_kana": "タカオカシ",
    "town": "能町東",
    "town_kana": "ノウマチヒガシ",
    "street": null,
    "office_name": null,
    "office_name_kana": null
  },
  "0005": {
    "postcode": "9330005",
    "prefecture": "富山県",
    "prefecture_kana": "トヤマケン",
    "prefecture_code": 16,
    "city": "高岡市",
    "city_kana": "タカオカシ",
    "town": "能町南",
    "town_kana": "ノウマチミナミ",
    "street": null,
    "office_name": null,
    "office_name_kana": null
  },
  "0006": {
    "postcode": "9330006",
    "prefecture": "富山県",
    "prefecture_kana": "トヤマケン",
    "prefecture_code": 16,
    "city": "高岡市",
    "city_kana": "タカオカシ",
    "town": "角三島",
    "town_kana": "ツノミシマ",
    "street": null,
    "office_name": null,
    "office_name_kana": null
  },
  "0007": {
    "postcode": "9330007",
    "prefecture": "富山県",
    "prefecture_kana": "トヤマケン",
    "prefecture_code": 16,
    "city": "高岡市",
    "city_kana": "タカオカシ",
    "town": "角",
    "town_kana": "ツノ",
    "street": null,
    "office_name": null,
    "office_name_kana": null
  },
  "0008": {
    "postcode": "9330008",
    "prefecture": "富山県",
    "prefecture_kana": "トヤマケン",
    "prefecture_code": 16,
    "city": "高岡市",
    "city_kana": "タカオカシ",
    "town": "材木町",
    "town_kana": "ザイモクチョウ",
    "street": null,
    "office_name": null,
    "office_name_kana": null
  },
  "0011": {
    "postcode": "9330011",
    "prefecture": "富山県",
    "prefecture_kana": "トヤマケン",
    "prefecture_code": 16,
    "city": "高岡市",
    "city_kana": "タカオカシ",
    "town": "石瀬",
    "town_kana": "イシゼ",
    "street": null,
    "office_name": null,
    "office_name_kana": null
  },
  "0012": {
    "postcode": "9330012",
    "prefecture": "富山県",
    "prefecture_kana": "トヤマケン",
    "prefecture_code": 16,
    "city": "高岡市",
    "city_kana": "タカオカシ",
    "town": "美原町",
    "town_kana": "ミハラマチ",
    "street": null,
    "office_name": null,
    "office_name_kana": null
  },
  "0013": {
    "postcode": "9330013",
    "prefecture": "富山県",
    "prefecture_kana": "トヤマケン",
    "prefecture_code": 16,
    "city": "高岡市",
    "city_kana": "タカオカシ",
    "town": "三女子",
    "town_kana": "サンヨシ",
    "street": null,
    "office_name": null,
    "office_name_kana": null
  },
  "0014": {
    "postcode": "9330014",
    "prefecture": "富山県",
    "prefecture_kana": "トヤマケン",
    "prefecture_code": 16,
    "city": "高岡市",
    "city_kana": "タカオカシ",
    "town": "野村",
    "town_kana": "ノムラ",
    "street": null,
    "office_name": null,
    "office_name_kana": null
  },
  "0015": {
    "postcode": "9330015",
    "prefecture": "富山県",
    "prefecture_kana": "トヤマケン",
    "prefecture_code": 16,
    "city": "高岡市",
    "city_kana": "タカオカシ",
    "town": "明園町",
    "town_kana": "アケゾノマチ",
    "street": null,
    "office_name": null,
    "office_name_kana": null
  },
  "0016": {
    "postcode": "9330016",
    "prefecture": "富山県",
    "prefecture_kana": "トヤマケン",
    "prefecture_code": 16,
    "city": "高岡市",
    "city_kana": "タカオカシ",
    "town": "大野",
    "town_kana": "オオノ",
    "street": null,
    "office_name": null,
    "office_name_kana": null
  },
  "0017": {
    "postcode": "9330017",
    "prefecture": "富山県",
    "prefecture_kana": "トヤマケン",
    "prefecture_code": 16,
    "city": "高岡市",
    "city_kana": "タカオカシ",
    "town": "前田町",
    "town_kana": "マエダチョウ",
    "street": null,
    "office_name": null,
    "office_name_kana": null
  },
  "0018": {
    "postcode": "9330018",
    "prefecture": "富山県",
    "prefecture_kana": "トヤマケン",
    "prefecture_code": 16,
    "city": "高岡市",
    "city_kana": "タカオカシ",
    "town": "高陵町",
    "town_kana": "コウリョウマチ",
    "street": null,
    "office_name": null,
    "office_name_kana": null
  },
  "0021": {
    "postcode": "9330021",
    "prefecture": "富山県",
    "prefecture_kana": "トヤマケン",
    "prefecture_code": 16,
    "city": "高岡市",
    "city_kana": "タカオカシ",
    "town": "下関町",
    "town_kana": "シモゼキマチ",
    "street": null,
    "office_name": null,
    "office_name_kana": null
  },
  "0022": {
    "postcode": "9330022",
    "prefecture": "富山県",
    "prefecture_kana": "トヤマケン",
    "prefecture_code": 16,
    "city": "高岡市",
    "city_kana": "タカオカシ",
    "town": "白金町",
    "town_kana": "シロガネマチ",
    "street": null,
    "office_name": null,
    "office_name_kana": null
  },
  "0023": {
    "postcode": "9330023",
    "prefecture": "富山県",
    "prefecture_kana": "トヤマケン",
    "prefecture_code": 16,
    "city": "高岡市",
    "city_kana": "タカオカシ",
    "town": "末広町",
    "town_kana": "スエヒロマチ",
    "street": null,
    "office_name": null,
    "office_name_kana": null
  },
  "0024": {
    "postcode": "9330024",
    "prefecture": "富山県",
    "prefecture_kana": "トヤマケン",
    "prefecture_code": 16,
    "city": "高岡市",
    "city_kana": "タカオカシ",
    "town": "宮脇町",
    "town_kana": "ミヤワキチョウ",
    "street": null,
    "office_name": null,
    "office_name_kana": null
  },
  "0025": {
    "postcode": "9330025",
    "prefecture": "富山県",
    "prefecture_kana": "トヤマケン",
    "prefecture_code": 16,
    "city": "高岡市",
    "city_kana": "タカオカシ",
    "town": "片原横町",
    "town_kana": "カタハラヨコマチ",
    "street": null,
    "office_name": null,
    "office_name_kana": null
  },
  "0026": {
    "postcode": "9330026",
    "prefecture": "富山県",
    "prefecture_kana": "トヤマケン",
    "prefecture_code": 16,
    "city": "高岡市",
    "city_kana": "タカオカシ",
    "town": "片原町",
    "town_kana": "カタハラマチ",
    "street": null,
    "office_name": null,
    "office_name_kana": null
  },
  "0027": {
    "postcode": "9330027",
    "prefecture": "富山県",
    "prefecture_kana": "トヤマケン",
    "prefecture_code": 16,
    "city": "高岡市",
    "city_kana": "タカオカシ",
    "town": "片原中島町",
    "town_kana": "カタハラナカジママチ",
    "street": null,
    "office_name": null,
    "office_name_kana": null
  },
  "0028": {
    "postcode": "9330028",
    "prefecture": "富山県",
    "prefecture_kana": "トヤマケン",
    "prefecture_code": 16,
    "city": "高岡市",
    "city_kana": "タカオカシ",
    "town": "大福院",
    "town_kana": "ダイフクイン",
    "street": null,
    "office_name": null,
    "office_name_kana": null
  },
  "0029": {
    "postcode": "9330029",
    "prefecture": "富山県",
    "prefecture_kana": "トヤマケン",
    "prefecture_code": 16,
    "city": "高岡市",
    "city_kana": "タカオカシ",
    "town": "御旅屋町",
    "town_kana": "オタヤマチ",
    "street": null,
    "office_name": null,
    "office_name_kana": null
  },
  "0030": {
    "postcode": "9330030",
    "prefecture": "富山県",
    "prefecture_kana": "トヤマケン",
    "prefecture_code": 16,
    "city": "高岡市",
    "city_kana": "タカオカシ",
    "town": "中央町",
    "town_kana": "チュウオウマチ",
    "street": null,
    "office_name": null,
    "office_name_kana": null
  },
  "0031": {
    "postcode": "9330031",
    "prefecture": "富山県",
    "prefecture_kana": "トヤマケン",
    "prefecture_code": 16,
    "city": "高岡市",
    "city_kana": "タカオカシ",
    "town": "中川町",
    "town_kana": "ナカガワマチ",
    "street": null,
    "office_name": null,
    "office_name_kana": null
  },
  "0032": {
    "postcode": "9330032",
    "prefecture": "富山県",
    "prefecture_kana": "トヤマケン",
    "prefecture_code": 16,
    "city": "高岡市",
    "city_kana": "タカオカシ",
    "town": "定塚町",
    "town_kana": "ジョウヅカマチ",
    "street": null,
    "office_name": null,
    "office_name_kana": null
  },
  "0033": {
    "postcode": "9330033",
    "prefecture": "富山県",
    "prefecture_kana": "トヤマケン",
    "prefecture_code": 16,
    "city": "高岡市",
    "city_kana": "タカオカシ",
    "town": "東下関",
    "town_kana": "ヒガシシモゼキ",
    "street": null,
    "office_name": null,
    "office_name_kana": null
  },
  "0034": {
    "postcode": "9330034",
    "prefecture": "富山県",
    "prefecture_kana": "トヤマケン",
    "prefecture_code": 16,
    "city": "高岡市",
    "city_kana": "タカオカシ",
    "town": "大仏町",
    "town_kana": "ダイブツマチ",
    "street": null,
    "office_name": null,
    "office_name_kana": null
  },
  "0035": {
    "postcode": "9330035",
    "prefecture": "富山県",
    "prefecture_kana": "トヤマケン",
    "prefecture_code": 16,
    "city": "高岡市",
    "city_kana": "タカオカシ",
    "town": "新横町",
    "town_kana": "シンヨコマチ",
    "street": null,
    "office_name": null,
    "office_name_kana": null
  },
  "0036": {
    "postcode": "9330036",
    "prefecture": "富山県",
    "prefecture_kana": "トヤマケン",
    "prefecture_code": 16,
    "city": "高岡市",
    "city_kana": "タカオカシ",
    "town": "桐木町",
    "town_kana": "キリノキマチ",
    "street": null,
    "office_name": null,
    "office_name_kana": null
  },
  "0037": {
    "postcode": "9330037",
    "prefecture": "富山県",
    "prefecture_kana": "トヤマケン",
    "prefecture_code": 16,
    "city": "高岡市",
    "city_kana": "タカオカシ",
    "town": "定塚",
    "town_kana": "ジョウヅカ",
    "street": null,
    "office_name": null,
    "office_name_kana": null
  },
  "0038": {
    "postcode": "9330038",
    "prefecture": "富山県",
    "prefecture_kana": "トヤマケン",
    "prefecture_code": 16,
    "city": "高岡市",
    "city_kana": "タカオカシ",
    "town": "坂下町",
    "town_kana": "サカシタマチ",
    "street": null,
    "office_name": null,
    "office_name_kana": null
  },
  "0039": {
    "postcode": "9330039",
    "prefecture": "富山県",
    "prefecture_kana": "トヤマケン",
    "prefecture_code": 16,
    "city": "高岡市",
    "city_kana": "タカオカシ",
    "town": "大手町",
    "town_kana": "オオテマチ",
    "street": null,
    "office_name": null,
    "office_name_kana": null
  },
  "0041": {
    "postcode": "9330041",
    "prefecture": "富山県",
    "prefecture_kana": "トヤマケン",
    "prefecture_code": 16,
    "city": "高岡市",
    "city_kana": "タカオカシ",
    "town": "城東",
    "town_kana": "ジョウトウ",
    "street": null,
    "office_name": null,
    "office_name_kana": null
  },
  "0042": {
    "postcode": "9330042",
    "prefecture": "富山県",
    "prefecture_kana": "トヤマケン",
    "prefecture_code": 16,
    "city": "高岡市",
    "city_kana": "タカオカシ",
    "town": "中川栄町",
    "town_kana": "ナカガワサカエマチ",
    "street": null,
    "office_name": null,
    "office_name_kana": null
  },
  "0043": {
    "postcode": "9330043",
    "prefecture": "富山県",
    "prefecture_kana": "トヤマケン",
    "prefecture_code": 16,
    "city": "高岡市",
    "city_kana": "タカオカシ",
    "town": "中川上町",
    "town_kana": "ナカガワカミマチ",
    "street": null,
    "office_name": null,
    "office_name_kana": null
  },
  "0044": {
    "postcode": "9330044",
    "prefecture": "富山県",
    "prefecture_kana": "トヤマケン",
    "prefecture_code": 16,
    "city": "高岡市",
    "city_kana": "タカオカシ",
    "town": "古城",
    "town_kana": "コジョウ",
    "street": null,
    "office_name": null,
    "office_name_kana": null
  },
  "0045": {
    "postcode": "9330045",
    "prefecture": "富山県",
    "prefecture_kana": "トヤマケン",
    "prefecture_code": 16,
    "city": "高岡市",
    "city_kana": "タカオカシ",
    "town": "本丸町",
    "town_kana": "ホンマルマチ",
    "street": null,
    "office_name": null,
    "office_name_kana": null
  },
  "0046": {
    "postcode": "9330046",
    "prefecture": "富山県",
    "prefecture_kana": "トヤマケン",
    "prefecture_code": 16,
    "city": "高岡市",
    "city_kana": "タカオカシ",
    "town": "中川本町",
    "town_kana": "ナカガワホンマチ",
    "street": null,
    "office_name": null,
    "office_name_kana": null
  },
  "0047": {
    "postcode": "9330047",
    "prefecture": "富山県",
    "prefecture_kana": "トヤマケン",
    "prefecture_code": 16,
    "city": "高岡市",
    "city_kana": "タカオカシ",
    "town": "東中川町",
    "town_kana": "ヒガシナカガワマチ",
    "street": null,
    "office_name": null,
    "office_name_kana": null
  },
  "0051": {
    "postcode": "9330051",
    "prefecture": "富山県",
    "prefecture_kana": "トヤマケン",
    "prefecture_code": 16,
    "city": "高岡市",
    "city_kana": "タカオカシ",
    "town": "東野",
    "town_kana": "ヒガシノ",
    "street": null,
    "office_name": null,
    "office_name_kana": null
  },
  "0052": {
    "postcode": "9330052",
    "prefecture": "富山県",
    "prefecture_kana": "トヤマケン",
    "prefecture_code": 16,
    "city": "高岡市",
    "city_kana": "タカオカシ",
    "town": "北定塚",
    "town_kana": "キタジョウヅカ",
    "street": null,
    "office_name": null,
    "office_name_kana": null
  },
  "0053": {
    "postcode": "9330053",
    "prefecture": "富山県",
    "prefecture_kana": "トヤマケン",
    "prefecture_code": 16,
    "city": "高岡市",
    "city_kana": "タカオカシ",
    "town": "城北町",
    "town_kana": "ジョウホクマチ",
    "street": null,
    "office_name": null,
    "office_name_kana": null
  },
  "0054": {
    "postcode": "9330054",
    "prefecture": "富山県",
    "prefecture_kana": "トヤマケン",
    "prefecture_code": 16,
    "city": "高岡市",
    "city_kana": "タカオカシ",
    "town": "古定塚",
    "town_kana": "フルジョウヅカ",
    "street": null,
    "office_name": null,
    "office_name_kana": null
  },
  "0055": {
    "postcode": "9330055",
    "prefecture": "富山県",
    "prefecture_kana": "トヤマケン",
    "prefecture_code": 16,
    "city": "高岡市",
    "city_kana": "タカオカシ",
    "town": "中川園町",
    "town_kana": "ナカガワソノマチ",
    "street": null,
    "office_name": null,
    "office_name_kana": null
  },
  "0056": {
    "postcode": "9330056",
    "prefecture": "富山県",
    "prefecture_kana": "トヤマケン",
    "prefecture_code": 16,
    "city": "高岡市",
    "city_kana": "タカオカシ",
    "town": "中川",
    "town_kana": "ナカガワ",
    "street": null,
    "office_name": null,
    "office_name_kana": null
  },
  "0057": {
    "postcode": "9330057",
    "prefecture": "富山県",
    "prefecture_kana": "トヤマケン",
    "prefecture_code": 16,
    "city": "高岡市",
    "city_kana": "タカオカシ",
    "town": "広小路",
    "town_kana": "ヒロコウジ",
    "street": null,
    "office_name": null,
    "office_name_kana": null
  },
  "0058": {
    "postcode": "9330058",
    "prefecture": "富山県",
    "prefecture_kana": "トヤマケン",
    "prefecture_code": 16,
    "city": "射水市",
    "city_kana": "イミズシ",
    "town": "川口宮袋",
    "town_kana": "カワグチミヤブクロ",
    "street": null,
    "office_name": null,
    "office_name_kana": null
  },
  "0061": {
    "postcode": "9330061",
    "prefecture": "富山県",
    "prefecture_kana": "トヤマケン",
    "prefecture_code": 16,
    "city": "高岡市",
    "city_kana": "タカオカシ",
    "town": "青葉町",
    "town_kana": "アオバチョウ",
    "street": null,
    "office_name": null,
    "office_name_kana": null
  },
  "0062": {
    "postcode": "9330062",
    "prefecture": "富山県",
    "prefecture_kana": "トヤマケン",
    "prefecture_code": 16,
    "city": "高岡市",
    "city_kana": "タカオカシ",
    "town": "江尻",
    "town_kana": "エジリ",
    "street": null,
    "office_name": null,
    "office_name_kana": null
  },
  "0063": {
    "postcode": "9330063",
    "prefecture": "富山県",
    "prefecture_kana": "トヤマケン",
    "prefecture_code": 16,
    "city": "高岡市",
    "city_kana": "タカオカシ",
    "town": "鶴寄町",
    "town_kana": "ツルヨセマチ",
    "street": null,
    "office_name": null,
    "office_name_kana": null
  },
  "0064": {
    "postcode": "9330064",
    "prefecture": "富山県",
    "prefecture_kana": "トヤマケン",
    "prefecture_code": 16,
    "city": "高岡市",
    "city_kana": "タカオカシ",
    "town": "宝町",
    "town_kana": "タカラマチ",
    "street": null,
    "office_name": null,
    "office_name_kana": null
  },
  "0065": {
    "postcode": "9330065",
    "prefecture": "富山県",
    "prefecture_kana": "トヤマケン",
    "prefecture_code": 16,
    "city": "高岡市",
    "city_kana": "タカオカシ",
    "town": "江尻白山町",
    "town_kana": "エジリシラヤマチョウ",
    "street": null,
    "office_name": null,
    "office_name_kana": null
  },
  "0066": {
    "postcode": "9330066",
    "prefecture": "富山県",
    "prefecture_kana": "トヤマケン",
    "prefecture_code": 16,
    "city": "高岡市",
    "city_kana": "タカオカシ",
    "town": "春日丘",
    "town_kana": "カスガオカ",
    "street": null,
    "office_name": null,
    "office_name_kana": null
  },
  "0067": {
    "postcode": "9330067",
    "prefecture": "富山県",
    "prefecture_kana": "トヤマケン",
    "prefecture_code": 16,
    "city": "高岡市",
    "city_kana": "タカオカシ",
    "town": "高伏町",
    "town_kana": "コウフクマチ",
    "street": null,
    "office_name": null,
    "office_name_kana": null
  },
  "0068": {
    "postcode": "9330068",
    "prefecture": "富山県",
    "prefecture_kana": "トヤマケン",
    "prefecture_code": 16,
    "city": "高岡市",
    "city_kana": "タカオカシ",
    "town": "志貴野しらとり台",
    "town_kana": "シキノシラトリダイ",
    "street": null,
    "office_name": null,
    "office_name_kana": null
  },
  "0071": {
    "postcode": "9330071",
    "prefecture": "富山県",
    "prefecture_kana": "トヤマケン",
    "prefecture_code": 16,
    "city": "高岡市",
    "city_kana": "タカオカシ",
    "town": "鷲北新",
    "town_kana": "ワシキタシン",
    "street": null,
    "office_name": null,
    "office_name_kana": null
  },
  "0072": {
    "postcode": "9330072",
    "prefecture": "富山県",
    "prefecture_kana": "トヤマケン",
    "prefecture_code": 16,
    "city": "高岡市",
    "city_kana": "タカオカシ",
    "town": "旭ケ丘",
    "town_kana": "アサヒガオカ",
    "street": null,
    "office_name": null,
    "office_name_kana": null
  },
  "0073": {
    "postcode": "9330073",
    "prefecture": "富山県",
    "prefecture_kana": "トヤマケン",
    "prefecture_code": 16,
    "city": "高岡市",
    "city_kana": "タカオカシ",
    "town": "荻布",
    "town_kana": "オギノ",
    "street": null,
    "office_name": null,
    "office_name_kana": null
  },
  "0074": {
    "postcode": "9330074",
    "prefecture": "富山県",
    "prefecture_kana": "トヤマケン",
    "prefecture_code": 16,
    "city": "高岡市",
    "city_kana": "タカオカシ",
    "town": "荻布新町",
    "town_kana": "オギノシンマチ",
    "street": null,
    "office_name": null,
    "office_name_kana": null
  },
  "0075": {
    "postcode": "9330075",
    "prefecture": "富山県",
    "prefecture_kana": "トヤマケン",
    "prefecture_code": 16,
    "city": "高岡市",
    "city_kana": "タカオカシ",
    "town": "新能町",
    "town_kana": "シンノウマチ",
    "street": null,
    "office_name": null,
    "office_name_kana": null
  },
  "0076": {
    "postcode": "9330076",
    "prefecture": "富山県",
    "prefecture_kana": "トヤマケン",
    "prefecture_code": 16,
    "city": "高岡市",
    "city_kana": "タカオカシ",
    "town": "米島",
    "town_kana": "ヨネジマ",
    "street": null,
    "office_name": null,
    "office_name_kana": null
  },
  "0077": {
    "postcode": "9330077",
    "prefecture": "富山県",
    "prefecture_kana": "トヤマケン",
    "prefecture_code": 16,
    "city": "高岡市",
    "city_kana": "タカオカシ",
    "town": "能町駅南",
    "town_kana": "ノウマチエキナン",
    "street": null,
    "office_name": null,
    "office_name_kana": null
  },
  "0078": {
    "postcode": "9330078",
    "prefecture": "富山県",
    "prefecture_kana": "トヤマケン",
    "prefecture_code": 16,
    "city": "高岡市",
    "city_kana": "タカオカシ",
    "town": "荻布四つ葉町",
    "town_kana": "オギノヨツバマチ",
    "street": null,
    "office_name": null,
    "office_name_kana": null
  },
  "0101": {
    "postcode": "9330101",
    "prefecture": "富山県",
    "prefecture_kana": "トヤマケン",
    "prefecture_code": 16,
    "city": "高岡市",
    "city_kana": "タカオカシ",
    "town": "伏木国分",
    "town_kana": "フシキコクブ",
    "street": null,
    "office_name": null,
    "office_name_kana": null
  },
  "0102": {
    "postcode": "9330102",
    "prefecture": "富山県",
    "prefecture_kana": "トヤマケン",
    "prefecture_code": 16,
    "city": "高岡市",
    "city_kana": "タカオカシ",
    "town": "伏木磯町",
    "town_kana": "フシキイソマチ",
    "street": null,
    "office_name": null,
    "office_name_kana": null
  },
  "0103": {
    "postcode": "9330103",
    "prefecture": "富山県",
    "prefecture_kana": "トヤマケン",
    "prefecture_code": 16,
    "city": "高岡市",
    "city_kana": "タカオカシ",
    "town": "伏木中央町",
    "town_kana": "フシキチュウオウマチ",
    "street": null,
    "office_name": null,
    "office_name_kana": null
  },
  "0104": {
    "postcode": "9330104",
    "prefecture": "富山県",
    "prefecture_kana": "トヤマケン",
    "prefecture_code": 16,
    "city": "高岡市",
    "city_kana": "タカオカシ",
    "town": "伏木湊町",
    "town_kana": "フシキミナトマチ",
    "street": null,
    "office_name": null,
    "office_name_kana": null
  },
  "0105": {
    "postcode": "9330105",
    "prefecture": "富山県",
    "prefecture_kana": "トヤマケン",
    "prefecture_code": 16,
    "city": "高岡市",
    "city_kana": "タカオカシ",
    "town": "伏木錦町",
    "town_kana": "フシキニシキマチ",
    "street": null,
    "office_name": null,
    "office_name_kana": null
  },
  "0106": {
    "postcode": "9330106",
    "prefecture": "富山県",
    "prefecture_kana": "トヤマケン",
    "prefecture_code": 16,
    "city": "高岡市",
    "city_kana": "タカオカシ",
    "town": "伏木本町",
    "town_kana": "フシキホンマチ",
    "street": null,
    "office_name": null,
    "office_name_kana": null
  },
  "0111": {
    "postcode": "9330111",
    "prefecture": "富山県",
    "prefecture_kana": "トヤマケン",
    "prefecture_code": 16,
    "city": "高岡市",
    "city_kana": "タカオカシ",
    "town": "伏木東一宮",
    "town_kana": "フシキヒガシイチノミヤ",
    "street": null,
    "office_name": null,
    "office_name_kana": null
  },
  "0112": {
    "postcode": "9330112",
    "prefecture": "富山県",
    "prefecture_kana": "トヤマケン",
    "prefecture_code": 16,
    "city": "高岡市",
    "city_kana": "タカオカシ",
    "town": "伏木古国府",
    "town_kana": "フシキフルコクフ",
    "street": null,
    "office_name": null,
    "office_name_kana": null
  },
  "0113": {
    "postcode": "9330113",
    "prefecture": "富山県",
    "prefecture_kana": "トヤマケン",
    "prefecture_code": 16,
    "city": "高岡市",
    "city_kana": "タカオカシ",
    "town": "伏木",
    "town_kana": "フシキ",
    "street": null,
    "office_name": null,
    "office_name_kana": null
  },
  "0114": {
    "postcode": "9330114",
    "prefecture": "富山県",
    "prefecture_kana": "トヤマケン",
    "prefecture_code": 16,
    "city": "高岡市",
    "city_kana": "タカオカシ",
    "town": "伏木古府",
    "town_kana": "フシキコフ",
    "street": null,
    "office_name": null,
    "office_name_kana": null
  },
  "0115": {
    "postcode": "9330115",
    "prefecture": "富山県",
    "prefecture_kana": "トヤマケン",
    "prefecture_code": 16,
    "city": "高岡市",
    "city_kana": "タカオカシ",
    "town": "伏木古府元町",
    "town_kana": "フシキコフモトマチ",
    "street": null,
    "office_name": null,
    "office_name_kana": null
  },
  "0116": {
    "postcode": "9330116",
    "prefecture": "富山県",
    "prefecture_kana": "トヤマケン",
    "prefecture_code": 16,
    "city": "高岡市",
    "city_kana": "タカオカシ",
    "town": "伏木一宮",
    "town_kana": "フシキイチノミヤ",
    "street": null,
    "office_name": null,
    "office_name_kana": null
  },
  "0121": {
    "postcode": "9330121",
    "prefecture": "富山県",
    "prefecture_kana": "トヤマケン",
    "prefecture_code": 16,
    "city": "高岡市",
    "city_kana": "タカオカシ",
    "town": "伏木矢田新町",
    "town_kana": "フシキヤタシンマチ",
    "street": null,
    "office_name": null,
    "office_name_kana": null
  },
  "0122": {
    "postcode": "9330122",
    "prefecture": "富山県",
    "prefecture_kana": "トヤマケン",
    "prefecture_code": 16,
    "city": "高岡市",
    "city_kana": "タカオカシ",
    "town": "伏木矢田上町",
    "town_kana": "フシキヤタカミマチ",
    "street": null,
    "office_name": null,
    "office_name_kana": null
  },
  "0123": {
    "postcode": "9330123",
    "prefecture": "富山県",
    "prefecture_kana": "トヤマケン",
    "prefecture_code": 16,
    "city": "高岡市",
    "city_kana": "タカオカシ",
    "town": "伏木矢田",
    "town_kana": "フシキヤタ",
    "street": null,
    "office_name": null,
    "office_name_kana": null
  },
  "0124": {
    "postcode": "9330124",
    "prefecture": "富山県",
    "prefecture_kana": "トヤマケン",
    "prefecture_code": 16,
    "city": "高岡市",
    "city_kana": "タカオカシ",
    "town": "高美町",
    "town_kana": "タカミチョウ",
    "street": null,
    "office_name": null,
    "office_name_kana": null
  },
  "0125": [
    {
      "postcode": "9330125",
      "prefecture": "富山県",
      "prefecture_kana": "トヤマケン",
      "prefecture_code": 16,
      "city": "高岡市",
      "city_kana": "タカオカシ",
      "town": "伏木矢田",
      "town_kana": "フシキヤタ",
      "street": null,
      "office_name": null,
      "office_name_kana": null
    },
    {
      "postcode": "9330125",
      "prefecture": "富山県",
      "prefecture_kana": "トヤマケン",
      "prefecture_code": 16,
      "city": "高岡市",
      "city_kana": "タカオカシ",
      "town": "伏木矢田万葉台",
      "town_kana": "フシキヤタマンヨウダイ",
      "street": null,
      "office_name": null,
      "office_name_kana": null
    }
  ],
  "0126": {
    "postcode": "9330126",
    "prefecture": "富山県",
    "prefecture_kana": "トヤマケン",
    "prefecture_code": 16,
    "city": "高岡市",
    "city_kana": "タカオカシ",
    "town": "城光寺",
    "town_kana": "ジョウコウジ",
    "street": null,
    "office_name": null,
    "office_name_kana": null
  },
  "0131": {
    "postcode": "9330131",
    "prefecture": "富山県",
    "prefecture_kana": "トヤマケン",
    "prefecture_code": 16,
    "city": "高岡市",
    "city_kana": "タカオカシ",
    "town": "太田伊勢領",
    "town_kana": "オオタイセリョウ",
    "street": null,
    "office_name": null,
    "office_name_kana": null
  },
  "0132": [
    {
      "postcode": "9330132",
      "prefecture": "富山県",
      "prefecture_kana": "トヤマケン",
      "prefecture_code": 16,
      "city": "高岡市",
      "city_kana": "タカオカシ",
      "town": "太田",
      "town_kana": "オオタ",
      "street": null,
      "office_name": null,
      "office_name_kana": null
    },
    {
      "postcode": "9330132",
      "prefecture": "富山県",
      "prefecture_kana": "トヤマケン",
      "prefecture_code": 16,
      "city": "高岡市",
      "city_kana": "タカオカシ",
      "town": "太田中村",
      "town_kana": "オオタナカムラ",
      "street": null,
      "office_name": null,
      "office_name_kana": null
    }
  ],
  "0133": {
    "postcode": "9330133",
    "prefecture": "富山県",
    "prefecture_kana": "トヤマケン",
    "prefecture_code": 16,
    "city": "高岡市",
    "city_kana": "タカオカシ",
    "town": "太田",
    "town_kana": "オオタ",
    "street": null,
    "office_name": null,
    "office_name_kana": null
  },
  "0134": [
    {
      "postcode": "9330134",
      "prefecture": "富山県",
      "prefecture_kana": "トヤマケン",
      "prefecture_code": 16,
      "city": "高岡市",
      "city_kana": "タカオカシ",
      "town": "太田",
      "town_kana": "オオタ",
      "street": null,
      "office_name": null,
      "office_name_kana": null
    },
    {
      "postcode": "9330134",
      "prefecture": "富山県",
      "prefecture_kana": "トヤマケン",
      "prefecture_code": 16,
      "city": "高岡市",
      "city_kana": "タカオカシ",
      "town": "太田辰ノ口",
      "town_kana": "オオタタツノクチ",
      "street": null,
      "office_name": null,
      "office_name_kana": null
    },
    {
      "postcode": "9330134",
      "prefecture": "富山県",
      "prefecture_kana": "トヤマケン",
      "prefecture_code": 16,
      "city": "高岡市",
      "city_kana": "タカオカシ",
      "town": "太田旦保",
      "town_kana": "オオタタンボ",
      "street": null,
      "office_name": null,
      "office_name_kana": null
    }
  ],
  "0135": [
    {
      "postcode": "9330135",
      "prefecture": "富山県",
      "prefecture_kana": "トヤマケン",
      "prefecture_code": 16,
      "city": "高岡市",
      "city_kana": "タカオカシ",
      "town": "太田",
      "town_kana": "オオタ",
      "street": null,
      "office_name": null,
      "office_name_kana": null
    },
    {
      "postcode": "9330135",
      "prefecture": "富山県",
      "prefecture_kana": "トヤマケン",
      "prefecture_code": 16,
      "city": "高岡市",
      "city_kana": "タカオカシ",
      "town": "太田雨晴",
      "town_kana": "オオタアマハラ",
      "street": null,
      "office_name": null,
      "office_name_kana": null
    }
  ],
  "0136": {
    "postcode": "9330136",
    "prefecture": "富山県",
    "prefecture_kana": "トヤマケン",
    "prefecture_code": 16,
    "city": "高岡市",
    "city_kana": "タカオカシ",
    "town": "渋谷",
    "town_kana": "シブヤ",
    "street": null,
    "office_name": null,
    "office_name_kana": null
  },
  "0137": [
    {
      "postcode": "9330137",
      "prefecture": "富山県",
      "prefecture_kana": "トヤマケン",
      "prefecture_code": 16,
      "city": "高岡市",
      "city_kana": "タカオカシ",
      "town": "太田谷内",
      "town_kana": "オオタヤチ",
      "street": null,
      "office_name": null,
      "office_name_kana": null
    },
    {
      "postcode": "9330137",
      "prefecture": "富山県",
      "prefecture_kana": "トヤマケン",
      "prefecture_code": 16,
      "city": "高岡市",
      "city_kana": "タカオカシ",
      "town": "西田",
      "town_kana": "サイダ",
      "street": null,
      "office_name": null,
      "office_name_kana": null
    }
  ],
  "0138": {
    "postcode": "9330138",
    "prefecture": "富山県",
    "prefecture_kana": "トヤマケン",
    "prefecture_code": 16,
    "city": "高岡市",
    "city_kana": "タカオカシ",
    "town": "太田山岸",
    "town_kana": "オオタヤマギシ",
    "street": null,
    "office_name": null,
    "office_name_kana": null
  },
  "0192": {
    "postcode": "9330192",
    "prefecture": "富山県",
    "prefecture_kana": "トヤマケン",
    "prefecture_code": 16,
    "city": "高岡市",
    "city_kana": "タカオカシ",
    "town": "伏木湊町",
    "town_kana": "フシキミナトマチ",
    "street": "５−１",
    "office_name": "伏木海陸運送　株式会社",
    "office_name_kana": "フシキカイリクウンソウ カブシキガイシヤ"
  },
  "0193": {
    "postcode": "9330193",
    "prefecture": "富山県",
    "prefecture_kana": "トヤマケン",
    "prefecture_code": 16,
    "city": "高岡市",
    "city_kana": "タカオカシ",
    "town": "伏木",
    "town_kana": "フシキ",
    "street": "１丁目１番１号",
    "office_name": "日本製紙　株式会社　伏木工場",
    "office_name_kana": "ニホンセイシ カブシキガイシヤ フシキコウジヨウ"
  },
  "0195": {
    "postcode": "9330195",
    "prefecture": "富山県",
    "prefecture_kana": "トヤマケン",
    "prefecture_code": 16,
    "city": "高岡市",
    "city_kana": "タカオカシ",
    "town": "伏木",
    "town_kana": "フシキ",
    "street": "２丁目１−３",
    "office_name": "東亞合成　株式会社　高岡工場",
    "office_name_kana": "トウアゴウセイ カブシキガイシヤ タカオカコウジヨウ"
  },
  "0201": {
    "postcode": "9330201",
    "prefecture": "富山県",
    "prefecture_kana": "トヤマケン",
    "prefecture_code": 16,
    "city": "射水市",
    "city_kana": "イミズシ",
    "town": "山屋",
    "town_kana": "ヤマヤ",
    "street": null,
    "office_name": null,
    "office_name_kana": null
  },
  "0202": {
    "postcode": "9330202",
    "prefecture": "富山県",
    "prefecture_kana": "トヤマケン",
    "prefecture_code": 16,
    "city": "射水市",
    "city_kana": "イミズシ",
    "town": "下村三箇",
    "town_kana": "シモムラサンガ",
    "street": null,
    "office_name": null,
    "office_name_kana": null
  },
  "0203": {
    "postcode": "9330203",
    "prefecture": "富山県",
    "prefecture_kana": "トヤマケン",
    "prefecture_code": 16,
    "city": "射水市",
    "city_kana": "イミズシ",
    "town": "加茂東部",
    "town_kana": "カモトウブ",
    "street": null,
    "office_name": null,
    "office_name_kana": null
  },
  "0204": {
    "postcode": "9330204",
    "prefecture": "富山県",
    "prefecture_kana": "トヤマケン",
    "prefecture_code": 16,
    "city": "射水市",
    "city_kana": "イミズシ",
    "town": "加茂中部",
    "town_kana": "カモチュウブ",
    "street": null,
    "office_name": null,
    "office_name_kana": null
  },
  "0205": {
    "postcode": "9330205",
    "prefecture": "富山県",
    "prefecture_kana": "トヤマケン",
    "prefecture_code": 16,
    "city": "射水市",
    "city_kana": "イミズシ",
    "town": "加茂西部",
    "town_kana": "カモセイブ",
    "street": null,
    "office_name": null,
    "office_name_kana": null
  },
  "0206": {
    "postcode": "9330206",
    "prefecture": "富山県",
    "prefecture_kana": "トヤマケン",
    "prefecture_code": 16,
    "city": "射水市",
    "city_kana": "イミズシ",
    "town": "倉垣小杉",
    "town_kana": "クラガキコスギ",
    "street": null,
    "office_name": null,
    "office_name_kana": null
  },
  "0207": {
    "postcode": "9330207",
    "prefecture": "富山県",
    "prefecture_kana": "トヤマケン",
    "prefecture_code": 16,
    "city": "射水市",
    "city_kana": "イミズシ",
    "town": "白石",
    "town_kana": "シライシ",
    "street": null,
    "office_name": null,
    "office_name_kana": null
  },
  "0208": {
    "postcode": "9330208",
    "prefecture": "富山県",
    "prefecture_kana": "トヤマケン",
    "prefecture_code": 16,
    "city": "射水市",
    "city_kana": "イミズシ",
    "town": "八講",
    "town_kana": "ハッコウ",
    "street": null,
    "office_name": null,
    "office_name_kana": null
  },
  "0209": {
    "postcode": "9330209",
    "prefecture": "富山県",
    "prefecture_kana": "トヤマケン",
    "prefecture_code": 16,
    "city": "射水市",
    "city_kana": "イミズシ",
    "town": "摺出寺",
    "town_kana": "スリデジ",
    "street": null,
    "office_name": null,
    "office_name_kana": null
  },
  "0221": {
    "postcode": "9330221",
    "prefecture": "富山県",
    "prefecture_kana": "トヤマケン",
    "prefecture_code": 16,
    "city": "射水市",
    "city_kana": "イミズシ",
    "town": "堀岡新明神",
    "town_kana": "ホリオカシンミョウジン",
    "street": null,
    "office_name": null,
    "office_name_kana": null
  },
  "0222": {
    "postcode": "9330222",
    "prefecture": "富山県",
    "prefecture_kana": "トヤマケン",
    "prefecture_code": 16,
    "city": "射水市",
    "city_kana": "イミズシ",
    "town": "海竜町",
    "town_kana": "カイリュウマチ",
    "street": null,
    "office_name": null,
    "office_name_kana": null
  },
  "0223": {
    "postcode": "9330223",
    "prefecture": "富山県",
    "prefecture_kana": "トヤマケン",
    "prefecture_code": 16,
    "city": "射水市",
    "city_kana": "イミズシ",
    "town": "堀岡",
    "town_kana": "ホリオカ",
    "street": null,
    "office_name": null,
    "office_name_kana": null
  },
  "0224": {
    "postcode": "9330224",
    "prefecture": "富山県",
    "prefecture_kana": "トヤマケン",
    "prefecture_code": 16,
    "city": "射水市",
    "city_kana": "イミズシ",
    "town": "堀岡古明神",
    "town_kana": "ホリオカフルミョウジン",
    "street": null,
    "office_name": null,
    "office_name_kana": null
  },
  "0225": {
    "postcode": "9330225",
    "prefecture": "富山県",
    "prefecture_kana": "トヤマケン",
    "prefecture_code": 16,
    "city": "射水市",
    "city_kana": "イミズシ",
    "town": "草岡町",
    "town_kana": "クサオカチョウ",
    "street": null,
    "office_name": null,
    "office_name_kana": null
  },
  "0226": {
    "postcode": "9330226",
    "prefecture": "富山県",
    "prefecture_kana": "トヤマケン",
    "prefecture_code": 16,
    "city": "射水市",
    "city_kana": "イミズシ",
    "town": "堀江千石",
    "town_kana": "ホリエセンゴク",
    "street": null,
    "office_name": null,
    "office_name_kana": null
  },
  "0227": {
    "postcode": "9330227",
    "prefecture": "富山県",
    "prefecture_kana": "トヤマケン",
    "prefecture_code": 16,
    "city": "射水市",
    "city_kana": "イミズシ",
    "town": "射水町",
    "town_kana": "イミズチョウ",
    "street": null,
    "office_name": null,
    "office_name_kana": null
  },
  "0228": {
    "postcode": "9330228",
    "prefecture": "富山県",
    "prefecture_kana": "トヤマケン",
    "prefecture_code": 16,
    "city": "射水市",
    "city_kana": "イミズシ",
    "town": "堀岡明神新",
    "town_kana": "ホリオカミョウジンシン",
    "street": null,
    "office_name": null,
    "office_name_kana": null
  },
  "0231": {
    "postcode": "9330231",
    "prefecture": "富山県",
    "prefecture_kana": "トヤマケン",
    "prefecture_code": 16,
    "city": "射水市",
    "city_kana": "イミズシ",
    "town": "海老江浜開",
    "town_kana": "エビエハマビラキ",
    "street": null,
    "office_name": null,
    "office_name_kana": null
  },
  "0232": {
    "postcode": "9330232",
    "prefecture": "富山県",
    "prefecture_kana": "トヤマケン",
    "prefecture_code": 16,
    "city": "射水市",
    "city_kana": "イミズシ",
    "town": "浜開新町",
    "town_kana": "ハマビラキシンマチ",
    "street": null,
    "office_name": null,
    "office_name_kana": null
  },
  "0233": {
    "postcode": "9330233",
    "prefecture": "富山県",
    "prefecture_kana": "トヤマケン",
    "prefecture_code": 16,
    "city": "射水市",
    "city_kana": "イミズシ",
    "town": "海老江",
    "town_kana": "エビエ",
    "street": null,
    "office_name": null,
    "office_name_kana": null
  },
  "0234": {
    "postcode": "9330234",
    "prefecture": "富山県",
    "prefecture_kana": "トヤマケン",
    "prefecture_code": 16,
    "city": "射水市",
    "city_kana": "イミズシ",
    "town": "海老江七軒",
    "town_kana": "エビエシチケン",
    "street": null,
    "office_name": null,
    "office_name_kana": null
  },
  "0235": {
    "postcode": "9330235",
    "prefecture": "富山県",
    "prefecture_kana": "トヤマケン",
    "prefecture_code": 16,
    "city": "射水市",
    "city_kana": "イミズシ",
    "town": "海老江練合",
    "town_kana": "エビエネリヤ",
    "street": null,
    "office_name": null,
    "office_name_kana": null
  },
  "0236": {
    "postcode": "9330236",
    "prefecture": "富山県",
    "prefecture_kana": "トヤマケン",
    "prefecture_code": 16,
    "city": "射水市",
    "city_kana": "イミズシ",
    "town": "東明七軒",
    "town_kana": "トウメイシチケン",
    "street": null,
    "office_name": null,
    "office_name_kana": null
  },
  "0237": {
    "postcode": "9330237",
    "prefecture": "富山県",
    "prefecture_kana": "トヤマケン",
    "prefecture_code": 16,
    "city": "射水市",
    "city_kana": "イミズシ",
    "town": "東明東町",
    "town_kana": "トウメイヒガシマチ",
    "street": null,
    "office_name": null,
    "office_name_kana": null
  },
  "0238": {
    "postcode": "9330238",
    "prefecture": "富山県",
    "prefecture_kana": "トヤマケン",
    "prefecture_code": 16,
    "city": "射水市",
    "city_kana": "イミズシ",
    "town": "東明中町",
    "town_kana": "トウメイナカマチ",
    "street": null,
    "office_name": null,
    "office_name_kana": null
  },
  "0239": {
    "postcode": "9330239",
    "prefecture": "富山県",
    "prefecture_kana": "トヤマケン",
    "prefecture_code": 16,
    "city": "射水市",
    "city_kana": "イミズシ",
    "town": "東明西町",
    "town_kana": "トウメイニシマチ",
    "street": null,
    "office_name": null,
    "office_name_kana": null
  },
  "0240": {
    "postcode": "9330240",
    "prefecture": "富山県",
    "prefecture_kana": "トヤマケン",
    "prefecture_code": 16,
    "city": "射水市",
    "city_kana": "イミズシ",
    "town": "かもめ台",
    "town_kana": "カモメダイ",
    "street": null,
    "office_name": null,
    "office_name_kana": null
  },
  "0241": {
    "postcode": "9330241",
    "prefecture": "富山県",
    "prefecture_kana": "トヤマケン",
    "prefecture_code": 16,
    "city": "射水市",
    "city_kana": "イミズシ",
    "town": "足洗新町",
    "town_kana": "アシアライシンマチ",
    "street": null,
    "office_name": null,
    "office_name_kana": null
  },
  "0242": {
    "postcode": "9330242",
    "prefecture": "富山県",
    "prefecture_kana": "トヤマケン",
    "prefecture_code": 16,
    "city": "射水市",
    "city_kana": "イミズシ",
    "town": "本江針山開",
    "town_kana": "ホンゴウハリヤマビラキ",
    "street": null,
    "office_name": null,
    "office_name_kana": null
  },
  "0243": [
    {
      "postcode": "9330243",
      "prefecture": "富山県",
      "prefecture_kana": "トヤマケン",
      "prefecture_code": 16,
      "city": "射水市",
      "city_kana": "イミズシ",
      "town": "本江",
      "town_kana": "ホンゴウ",
      "street": null,
      "office_name": null,
      "office_name_kana": null
    },
    {
      "postcode": "9330243",
      "prefecture": "富山県",
      "prefecture_kana": "トヤマケン",
      "prefecture_code": 16,
      "city": "射水市",
      "city_kana": "イミズシ",
      "town": "本江足洗",
      "town_kana": "ホンゴウアシアライ",
      "street": null,
      "office_name": null,
      "office_name_kana": null
    }
  ],
  "0244": [
    {
      "postcode": "9330244",
      "prefecture": "富山県",
      "prefecture_kana": "トヤマケン",
      "prefecture_code": 16,
      "city": "射水市",
      "city_kana": "イミズシ",
      "town": "本江",
      "town_kana": "ホンゴウ",
      "street": null,
      "office_name": null,
      "office_name_kana": null
    },
    {
      "postcode": "9330244",
      "prefecture": "富山県",
      "prefecture_kana": "トヤマケン",
      "prefecture_code": 16,
      "city": "射水市",
      "city_kana": "イミズシ",
      "town": "本江北",
      "town_kana": "ホンゴウキタ",
      "street": null,
      "office_name": null,
      "office_name_kana": null
    },
    {
      "postcode": "9330244",
      "prefecture": "富山県",
      "prefecture_kana": "トヤマケン",
      "prefecture_code": 16,
      "city": "射水市",
      "city_kana": "イミズシ",
      "town": "本江三箇",
      "town_kana": "ホンゴウサンガ",
      "street": null,
      "office_name": null,
      "office_name_kana": null
    },
    {
      "postcode": "9330244",
      "prefecture": "富山県",
      "prefecture_kana": "トヤマケン",
      "prefecture_code": 16,
      "city": "射水市",
      "city_kana": "イミズシ",
      "town": "本江中",
      "town_kana": "ホンゴウナカ",
      "street": null,
      "office_name": null,
      "office_name_kana": null
    },
    {
      "postcode": "9330244",
      "prefecture": "富山県",
      "prefecture_kana": "トヤマケン",
      "prefecture_code": 16,
      "city": "射水市",
      "city_kana": "イミズシ",
      "town": "本江西",
      "town_kana": "ホンゴウニシ",
      "street": null,
      "office_name": null,
      "office_name_kana": null
    },
    {
      "postcode": "9330244",
      "prefecture": "富山県",
      "prefecture_kana": "トヤマケン",
      "prefecture_code": 16,
      "city": "射水市",
      "city_kana": "イミズシ",
      "town": "本江後新",
      "town_kana": "ホンゴウノチシン",
      "street": null,
      "office_name": null,
      "office_name_kana": null
    },
    {
      "postcode": "9330244",
      "prefecture": "富山県",
      "prefecture_kana": "トヤマケン",
      "prefecture_code": 16,
      "city": "射水市",
      "city_kana": "イミズシ",
      "town": "本江東",
      "town_kana": "ホンゴウヒガシ",
      "street": null,
      "office_name": null,
      "office_name_kana": null
    },
    {
      "postcode": "9330244",
      "prefecture": "富山県",
      "prefecture_kana": "トヤマケン",
      "prefecture_code": 16,
      "city": "射水市",
      "city_kana": "イミズシ",
      "town": "本江南",
      "town_kana": "ホンゴウミナミ",
      "street": null,
      "office_name": null,
      "office_name_kana": null
    }
  ],
  "0245": {
    "postcode": "9330245",
    "prefecture": "富山県",
    "prefecture_kana": "トヤマケン",
    "prefecture_code": 16,
    "city": "射水市",
    "city_kana": "イミズシ",
    "town": "本江利波",
    "town_kana": "ホンゴウトナミ",
    "street": null,
    "office_name": null,
    "office_name_kana": null
  },
  "0246": [
    {
      "postcode": "9330246",
      "prefecture": "富山県",
      "prefecture_kana": "トヤマケン",
      "prefecture_code": 16,
      "city": "射水市",
      "city_kana": "イミズシ",
      "town": "本江",
      "town_kana": "ホンゴウ",
      "street": null,
      "office_name": null,
      "office_name_kana": null
    },
    {
      "postcode": "9330246",
      "prefecture": "富山県",
      "prefecture_kana": "トヤマケン",
      "prefecture_code": 16,
      "city": "射水市",
      "city_kana": "イミズシ",
      "town": "本江道番",
      "town_kana": "ホンゴウミチバン",
      "street": null,
      "office_name": null,
      "office_name_kana": null
    }
  ],
  "0247": {
    "postcode": "9330247",
    "prefecture": "富山県",
    "prefecture_kana": "トヤマケン",
    "prefecture_code": 16,
    "city": "射水市",
    "city_kana": "イミズシ",
    "town": "本江中新",
    "town_kana": "ホンゴウナカシン",
    "street": null,
    "office_name": null,
    "office_name_kana": null
  },
  "0248": {
    "postcode": "9330248",
    "prefecture": "富山県",
    "prefecture_kana": "トヤマケン",
    "prefecture_code": 16,
    "city": "射水市",
    "city_kana": "イミズシ",
    "town": "本江針山",
    "town_kana": "ホンゴウハリヤマ",
    "street": null,
    "office_name": null,
    "office_name_kana": null
  },
  "0249": {
    "postcode": "9330249",
    "prefecture": "富山県",
    "prefecture_kana": "トヤマケン",
    "prefecture_code": 16,
    "city": "射水市",
    "city_kana": "イミズシ",
    "town": "本江針山新",
    "town_kana": "ホンゴウハリヤマシン",
    "street": null,
    "office_name": null,
    "office_name_kana": null
  },
  "0251": {
    "postcode": "9330251",
    "prefecture": "富山県",
    "prefecture_kana": "トヤマケン",
    "prefecture_code": 16,
    "city": "射水市",
    "city_kana": "イミズシ",
    "town": "有磯",
    "town_kana": "アリソ",
    "street": null,
    "office_name": null,
    "office_name_kana": null
  },
  "0252": {
    "postcode": "9330252",
    "prefecture": "富山県",
    "prefecture_kana": "トヤマケン",
    "prefecture_code": 16,
    "city": "射水市",
    "city_kana": "イミズシ",
    "town": "七美",
    "town_kana": "シチミ",
    "street": null,
    "office_name": null,
    "office_name_kana": null
  },
  "0253": {
    "postcode": "9330253",
    "prefecture": "富山県",
    "prefecture_kana": "トヤマケン",
    "prefecture_code": 16,
    "city": "射水市",
    "city_kana": "イミズシ",
    "town": "七美中野",
    "town_kana": "シチミナカノ",
    "street": null,
    "office_name": null,
    "office_name_kana": null
  },
  "0293": {
    "postcode": "9330293",
    "prefecture": "富山県",
    "prefecture_kana": "トヤマケン",
    "prefecture_code": 16,
    "city": "射水市",
    "city_kana": "イミズシ",
    "town": "海老江練合",
    "town_kana": "エビエネリヤ",
    "street": "１−２",
    "office_name": "富山高等専門学校　射水キャンパス",
    "office_name_kana": "トヤマコウトウセンモンガツコウ イミズキヤンパス"
  },
  "0295": {
    "postcode": "9330295",
    "prefecture": "富山県",
    "prefecture_kana": "トヤマケン",
    "prefecture_code": 16,
    "city": "射水市",
    "city_kana": "イミズシ",
    "town": "本江",
    "town_kana": "ホンゴウ",
    "street": "２７９５",
    "office_name": "東洋ガスメーター　株式会社",
    "office_name_kana": "トウヨウガスメ-タ- カブシキガイシヤ"
  },
  "0301": {
    "postcode": "9330301",
    "prefecture": "富山県",
    "prefecture_kana": "トヤマケン",
    "prefecture_code": 16,
    "city": "高岡市",
    "city_kana": "タカオカシ",
    "town": "勝木原",
    "town_kana": "ノデワラ",
    "street": null,
    "office_name": null,
    "office_name_kana": null
  },
  "0302": {
    "postcode": "9330302",
    "prefecture": "富山県",
    "prefecture_kana": "トヤマケン",
    "prefecture_code": 16,
    "city": "高岡市",
    "city_kana": "タカオカシ",
    "town": "西広谷",
    "town_kana": "ニシヒロタニ",
    "street": null,
    "office_name": null,
    "office_name_kana": null
  },
  "0303": {
    "postcode": "9330303",
    "prefecture": "富山県",
    "prefecture_kana": "トヤマケン",
    "prefecture_code": 16,
    "city": "高岡市",
    "city_kana": "タカオカシ",
    "town": "山川",
    "town_kana": "ヤマカワ",
    "street": null,
    "office_name": null,
    "office_name_kana": null
  },
  "0304": {
    "postcode": "9330304",
    "prefecture": "富山県",
    "prefecture_kana": "トヤマケン",
    "prefecture_code": 16,
    "city": "高岡市",
    "city_kana": "タカオカシ",
    "town": "境",
    "town_kana": "サカイ",
    "street": null,
    "office_name": null,
    "office_name_kana": null
  },
  "0305": {
    "postcode": "9330305",
    "prefecture": "富山県",
    "prefecture_kana": "トヤマケン",
    "prefecture_code": 16,
    "city": "高岡市",
    "city_kana": "タカオカシ",
    "town": "江道",
    "town_kana": "エンドウ",
    "street": null,
    "office_name": null,
    "office_name_kana": null
  },
  "0306": {
    "postcode": "9330306",
    "prefecture": "富山県",
    "prefecture_kana": "トヤマケン",
    "prefecture_code": 16,
    "city": "高岡市",
    "city_kana": "タカオカシ",
    "town": "五十辺",
    "town_kana": "イカラベ",
    "street": null,
    "office_name": null,
    "office_name_kana": null
  },
  "0307": {
    "postcode": "9330307",
    "prefecture": "富山県",
    "prefecture_kana": "トヤマケン",
    "prefecture_code": 16,
    "city": "高岡市",
    "city_kana": "タカオカシ",
    "town": "笹八口",
    "town_kana": "ササヤツクチ",
    "street": null,
    "office_name": null,
    "office_name_kana": null
  },
  "0308": {
    "postcode": "9330308",
    "prefecture": "富山県",
    "prefecture_kana": "トヤマケン",
    "prefecture_code": 16,
    "city": "高岡市",
    "city_kana": "タカオカシ",
    "town": "八口",
    "town_kana": "ヤツクチ",
    "street": null,
    "office_name": null,
    "office_name_kana": null
  },
  "0311": {
    "postcode": "9330311",
    "prefecture": "富山県",
    "prefecture_kana": "トヤマケン",
    "prefecture_code": 16,
    "city": "高岡市",
    "city_kana": "タカオカシ",
    "town": "大源寺",
    "town_kana": "ダイゲンジ",
    "street": null,
    "office_name": null,
    "office_name_kana": null
  },
  "0312": {
    "postcode": "9330312",
    "prefecture": "富山県",
    "prefecture_kana": "トヤマケン",
    "prefecture_code": 16,
    "city": "高岡市",
    "city_kana": "タカオカシ",
    "town": "大源寺",
    "town_kana": "ダイゲンジ",
    "street": null,
    "office_name": null,
    "office_name_kana": null
  },
  "0313": {
    "postcode": "9330313",
    "prefecture": "富山県",
    "prefecture_kana": "トヤマケン",
    "prefecture_code": 16,
    "city": "高岡市",
    "city_kana": "タカオカシ",
    "town": "福田六家",
    "town_kana": "フクタロッケ",
    "street": null,
    "office_name": null,
    "office_name_kana": null
  },
  "0314": {
    "postcode": "9330314",
    "prefecture": "富山県",
    "prefecture_kana": "トヤマケン",
    "prefecture_code": 16,
    "city": "高岡市",
    "city_kana": "タカオカシ",
    "town": "福栄町",
    "town_kana": "フクエイチョウ",
    "street": null,
    "office_name": null,
    "office_name_kana": null
  },
  "0315": {
    "postcode": "9330315",
    "prefecture": "富山県",
    "prefecture_kana": "トヤマケン",
    "prefecture_code": 16,
    "city": "高岡市",
    "city_kana": "タカオカシ",
    "town": "西園町",
    "town_kana": "ニシゾノチョウ",
    "street": null,
    "office_name": null,
    "office_name_kana": null
  },
  "0316": {
    "postcode": "9330316",
    "prefecture": "富山県",
    "prefecture_kana": "トヤマケン",
    "prefecture_code": 16,
    "city": "高岡市",
    "city_kana": "タカオカシ",
    "town": "新栄町",
    "town_kana": "シンサカエマチ",
    "street": null,
    "office_name": null,
    "office_name_kana": null
  },
  "0317": {
    "postcode": "9330317",
    "prefecture": "富山県",
    "prefecture_kana": "トヤマケン",
    "prefecture_code": 16,
    "city": "高岡市",
    "city_kana": "タカオカシ",
    "town": "蜂ケ島",
    "town_kana": "ハチガシマ",
    "street": null,
    "office_name": null,
    "office_name_kana": null
  },
  "0318": {
    "postcode": "9330318",
    "prefecture": "富山県",
    "prefecture_kana": "トヤマケン",
    "prefecture_code": 16,
    "city": "高岡市",
    "city_kana": "タカオカシ",
    "town": "池田",
    "town_kana": "イケダ",
    "street": null,
    "office_name": null,
    "office_name_kana": null
  },
  "0319": {
    "postcode": "9330319",
    "prefecture": "富山県",
    "prefecture_kana": "トヤマケン",
    "prefecture_code": 16,
    "city": "高岡市",
    "city_kana": "タカオカシ",
    "town": "荒屋敷",
    "town_kana": "アラヤシキ",
    "street": null,
    "office_name": null,
    "office_name_kana": null
  },
  "0321": {
    "postcode": "9330321",
    "prefecture": "富山県",
    "prefecture_kana": "トヤマケン",
    "prefecture_code": 16,
    "city": "高岡市",
    "city_kana": "タカオカシ",
    "town": "六家",
    "town_kana": "ロッケ",
    "street": null,
    "office_name": null,
    "office_name_kana": null
  },
  "0322": {
    "postcode": "9330322",
    "prefecture": "富山県",
    "prefecture_kana": "トヤマケン",
    "prefecture_code": 16,
    "city": "高岡市",
    "city_kana": "タカオカシ",
    "town": "樋詰",
    "town_kana": "ヒヅメ",
    "street": null,
    "office_name": null,
    "office_name_kana": null
  },
  "0323": {
    "postcode": "9330323",
    "prefecture": "富山県",
    "prefecture_kana": "トヤマケン",
    "prefecture_code": 16,
    "city": "高岡市",
    "city_kana": "タカオカシ",
    "town": "西高町",
    "town_kana": "ニシタカチョウ",
    "street": null,
    "office_name": null,
    "office_name_kana": null
  },
  "0324": [
    {
      "postcode": "9330324",
      "prefecture": "富山県",
      "prefecture_kana": "トヤマケン",
      "prefecture_code": 16,
      "city": "高岡市",
      "city_kana": "タカオカシ",
      "town": "立野",
      "town_kana": "タテノ",
      "street": null,
      "office_name": null,
      "office_name_kana": null
    },
    {
      "postcode": "9330324",
      "prefecture": "富山県",
      "prefecture_kana": "トヤマケン",
      "prefecture_code": 16,
      "city": "高岡市",
      "city_kana": "タカオカシ",
      "town": "立野高池町",
      "town_kana": "タテノタカイケチョウ",
      "street": null,
      "office_name": null,
      "office_name_kana": null
    }
  ],
  "0325": {
    "postcode": "9330325",
    "prefecture": "富山県",
    "prefecture_kana": "トヤマケン",
    "prefecture_code": 16,
    "city": "高岡市",
    "city_kana": "タカオカシ",
    "town": "立野",
    "town_kana": "タテノ",
    "street": null,
    "office_name": null,
    "office_name_kana": null
  },
  "0326": {
    "postcode": "9330326",
    "prefecture": "富山県",
    "prefecture_kana": "トヤマケン",
    "prefecture_code": 16,
    "city": "高岡市",
    "city_kana": "タカオカシ",
    "town": "立野美鳥町",
    "town_kana": "タテノミドリチョウ",
    "street": null,
    "office_name": null,
    "office_name_kana": null
  },
  "0327": {
    "postcode": "9330327",
    "prefecture": "富山県",
    "prefecture_kana": "トヤマケン",
    "prefecture_code": 16,
    "city": "高岡市",
    "city_kana": "タカオカシ",
    "town": "柴野内島",
    "town_kana": "シバノウチジマ",
    "street": null,
    "office_name": null,
    "office_name_kana": null
  },
  "0328": {
    "postcode": "9330328",
    "prefecture": "富山県",
    "prefecture_kana": "トヤマケン",
    "prefecture_code": 16,
    "city": "高岡市",
    "city_kana": "タカオカシ",
    "town": "内島",
    "town_kana": "ウチジマ",
    "street": null,
    "office_name": null,
    "office_name_kana": null
  },
  "0329": [
    {
      "postcode": "9330329",
      "prefecture": "富山県",
      "prefecture_kana": "トヤマケン",
      "prefecture_code": 16,
      "city": "高岡市",
      "city_kana": "タカオカシ",
      "town": "柴野内島",
      "town_kana": "シバノウチジマ",
      "street": null,
      "office_name": null,
      "office_name_kana": null
    },
    {
      "postcode": "9330329",
      "prefecture": "富山県",
      "prefecture_kana": "トヤマケン",
      "prefecture_code": 16,
      "city": "高岡市",
      "city_kana": "タカオカシ",
      "town": "柴野内島柴園町",
      "town_kana": "シバノウチジマシバゾノチョウ",
      "street": null,
      "office_name": null,
      "office_name_kana": null
    }
  ],
  "0331": [
    {
      "postcode": "9330331",
      "prefecture": "富山県",
      "prefecture_kana": "トヤマケン",
      "prefecture_code": 16,
      "city": "高岡市",
      "city_kana": "タカオカシ",
      "town": "中保",
      "town_kana": "ナカホ",
      "street": null,
      "office_name": null,
      "office_name_kana": null
    },
    {
      "postcode": "9330331",
      "prefecture": "富山県",
      "prefecture_kana": "トヤマケン",
      "prefecture_code": 16,
      "city": "高岡市",
      "city_kana": "タカオカシ",
      "town": "若保町",
      "town_kana": "ワカホチョウ",
      "street": null,
      "office_name": null,
      "office_name_kana": null
    }
  ],
  "0332": {
    "postcode": "9330332",
    "prefecture": "富山県",
    "prefecture_kana": "トヤマケン",
    "prefecture_code": 16,
    "city": "高岡市",
    "city_kana": "タカオカシ",
    "town": "小竹",
    "town_kana": "オダケ",
    "street": null,
    "office_name": null,
    "office_name_kana": null
  },
  "0333": {
    "postcode": "9330333",
    "prefecture": "富山県",
    "prefecture_kana": "トヤマケン",
    "prefecture_code": 16,
    "city": "高岡市",
    "city_kana": "タカオカシ",
    "town": "本保",
    "town_kana": "ホンボ",
    "street": null,
    "office_name": null,
    "office_name_kana": null
  },
  "0334": {
    "postcode": "9330334",
    "prefecture": "富山県",
    "prefecture_kana": "トヤマケン",
    "prefecture_code": 16,
    "city": "高岡市",
    "city_kana": "タカオカシ",
    "town": "三ケ",
    "town_kana": "サンガ",
    "street": null,
    "office_name": null,
    "office_name_kana": null
  },
  "0335": {
    "postcode": "9330335",
    "prefecture": "富山県",
    "prefecture_kana": "トヤマケン",
    "prefecture_code": 16,
    "city": "高岡市",
    "city_kana": "タカオカシ",
    "town": "今市",
    "town_kana": "イマイチ",
    "street": null,
    "office_name": null,
    "office_name_kana": null
  },
  "0336": {
    "postcode": "9330336",
    "prefecture": "富山県",
    "prefecture_kana": "トヤマケン",
    "prefecture_code": 16,
    "city": "高岡市",
    "city_kana": "タカオカシ",
    "town": "上開発",
    "town_kana": "カミカイホツ",
    "street": null,
    "office_name": null,
    "office_name_kana": null
  },
  "0337": {
    "postcode": "9330337",
    "prefecture": "富山県",
    "prefecture_kana": "トヤマケン",
    "prefecture_code": 16,
    "city": "高岡市",
    "city_kana": "タカオカシ",
    "town": "千鳥丘町",
    "town_kana": "チドリガオカマチ",
    "street": null,
    "office_name": null,
    "office_name_kana": null
  },
  "0338": {
    "postcode": "9330338",
    "prefecture": "富山県",
    "prefecture_kana": "トヤマケン",
    "prefecture_code": 16,
    "city": "高岡市",
    "city_kana": "タカオカシ",
    "town": "駒方",
    "town_kana": "コマガタ",
    "street": null,
    "office_name": null,
    "office_name_kana": null
  },
  "0341": {
    "postcode": "9330341",
    "prefecture": "富山県",
    "prefecture_kana": "トヤマケン",
    "prefecture_code": 16,
    "city": "高岡市",
    "city_kana": "タカオカシ",
    "town": "上渡",
    "town_kana": "カミワタリ",
    "street": null,
    "office_name": null,
    "office_name_kana": null
  },
  "0342": {
    "postcode": "9330342",
    "prefecture": "富山県",
    "prefecture_kana": "トヤマケン",
    "prefecture_code": 16,
    "city": "高岡市",
    "city_kana": "タカオカシ",
    "town": "東石堤",
    "town_kana": "ヒガシイシヅツミ",
    "street": null,
    "office_name": null,
    "office_name_kana": null
  },
  "0343": {
    "postcode": "9330343",
    "prefecture": "富山県",
    "prefecture_kana": "トヤマケン",
    "prefecture_code": 16,
    "city": "高岡市",
    "city_kana": "タカオカシ",
    "town": "宝来町",
    "town_kana": "タカラギチョウ",
    "street": null,
    "office_name": null,
    "office_name_kana": null
  },
  "0344": {
    "postcode": "9330344",
    "prefecture": "富山県",
    "prefecture_kana": "トヤマケン",
    "prefecture_code": 16,
    "city": "高岡市",
    "city_kana": "タカオカシ",
    "town": "笹川",
    "town_kana": "ササガワ",
    "street": null,
    "office_name": null,
    "office_name_kana": null
  },
  "0345": {
    "postcode": "9330345",
    "prefecture": "富山県",
    "prefecture_kana": "トヤマケン",
    "prefecture_code": 16,
    "city": "高岡市",
    "city_kana": "タカオカシ",
    "town": "平成町",
    "town_kana": "ヘイセイチョウ",
    "street": null,
    "office_name": null,
    "office_name_kana": null
  },
  "0351": {
    "postcode": "9330351",
    "prefecture": "富山県",
    "prefecture_kana": "トヤマケン",
    "prefecture_code": 16,
    "city": "高岡市",
    "city_kana": "タカオカシ",
    "town": "四日市",
    "town_kana": "ヨッカイチ",
    "street": null,
    "office_name": null,
    "office_name_kana": null
  },
  "0352": {
    "postcode": "9330352",
    "prefecture": "富山県",
    "prefecture_kana": "トヤマケン",
    "prefecture_code": 16,
    "city": "高岡市",
    "city_kana": "タカオカシ",
    "town": "十日市",
    "town_kana": "トウカイチ",
    "street": null,
    "office_name": null,
    "office_name_kana": null
  },
  "0353": {
    "postcode": "9330353",
    "prefecture": "富山県",
    "prefecture_kana": "トヤマケン",
    "prefecture_code": 16,
    "city": "高岡市",
    "city_kana": "タカオカシ",
    "town": "麻生谷",
    "town_kana": "アソウヤ",
    "street": null,
    "office_name": null,
    "office_name_kana": null
  },
  "0354": {
    "postcode": "9330354",
    "prefecture": "富山県",
    "prefecture_kana": "トヤマケン",
    "prefecture_code": 16,
    "city": "高岡市",
    "city_kana": "タカオカシ",
    "town": "六日市",
    "town_kana": "ムイカイチ",
    "street": null,
    "office_name": null,
    "office_name_kana": null
  },
  "0355": {
    "postcode": "9330355",
    "prefecture": "富山県",
    "prefecture_kana": "トヤマケン",
    "prefecture_code": 16,
    "city": "高岡市",
    "city_kana": "タカオカシ",
    "town": "石堤",
    "town_kana": "イシツツミ",
    "street": null,
    "office_name": null,
    "office_name_kana": null
  },
  "0356": {
    "postcode": "9330356",
    "prefecture": "富山県",
    "prefecture_kana": "トヤマケン",
    "prefecture_code": 16,
    "city": "高岡市",
    "city_kana": "タカオカシ",
    "town": "谷内",
    "town_kana": "ヤチ",
    "street": null,
    "office_name": null,
    "office_name_kana": null
  },
  "0357": {
    "postcode": "9330357",
    "prefecture": "富山県",
    "prefecture_kana": "トヤマケン",
    "prefecture_code": 16,
    "city": "高岡市",
    "city_kana": "タカオカシ",
    "town": "柴野",
    "town_kana": "シバノ",
    "street": null,
    "office_name": null,
    "office_name_kana": null
  },
  "0392": {
    "postcode": "9330392",
    "prefecture": "富山県",
    "prefecture_kana": "トヤマケン",
    "prefecture_code": 16,
    "city": "高岡市",
    "city_kana": "タカオカシ",
    "town": "柴野内島",
    "town_kana": "シバノウチジマ",
    "street": "９８６",
    "office_name": "三協マテリアル　（株）　高岡西工場",
    "office_name_kana": "サンキヨウマテリアル カブシキガイシヤ タカオカニシコウジヨウ"
  },
  "0393": {
    "postcode": "9330393",
    "prefecture": "富山県",
    "prefecture_kana": "トヤマケン",
    "prefecture_code": 16,
    "city": "高岡市",
    "city_kana": "タカオカシ",
    "town": "笹川",
    "town_kana": "ササガワ",
    "street": "２２６５",
    "office_name": "北陸アルミニウム　株式会社",
    "office_name_kana": "ホクリクアルミニウム カブシキガイシヤ"
  },
  "0395": {
    "postcode": "9330395",
    "prefecture": "富山県",
    "prefecture_kana": "トヤマケン",
    "prefecture_code": 16,
    "city": "高岡市",
    "city_kana": "タカオカシ",
    "town": "笹川",
    "town_kana": "ササガワ",
    "street": "２６００",
    "office_name": "株式会社　ファイネス　高岡支店",
    "office_name_kana": "カブシキガイシヤ フアイネス タカオカシテン"
  },
  "0396": {
    "postcode": "9330396",
    "prefecture": "富山県",
    "prefecture_kana": "トヤマケン",
    "prefecture_code": 16,
    "city": "高岡市",
    "city_kana": "タカオカシ",
    "town": "内島",
    "town_kana": "ウチジマ",
    "street": "３５５０番地",
    "office_name": "株式会社　ヘネフレックス",
    "office_name_kana": "カブシキガイシヤ ヘネフレツクス"
  },
  "0397": {
    "postcode": "9330397",
    "prefecture": "富山県",
    "prefecture_kana": "トヤマケン",
    "prefecture_code": 16,
    "city": "高岡市",
    "city_kana": "タカオカシ",
    "town": "内島",
    "town_kana": "ウチジマ",
    "street": "３５５０",
    "office_name": "北陸コカ・コーラボトリング　株式会社",
    "office_name_kana": "ホクリクコカ・コ-ラボトリング カブシキガイシヤ"
  },
  "0398": {
    "postcode": "9330398",
    "prefecture": "富山県",
    "prefecture_kana": "トヤマケン",
    "prefecture_code": 16,
    "city": "高岡市",
    "city_kana": "タカオカシ",
    "town": "内島",
    "town_kana": "ウチジマ",
    "street": "３５５０",
    "office_name": "株式会社　ヒスコムＨＬＣ事業本部",
    "office_name_kana": "カブシキガイシヤ ヒスコムエイチエルシ-ジギヨウホンブ"
  },
  "0801": {
    "postcode": "9330801",
    "prefecture": "富山県",
    "prefecture_kana": "トヤマケン",
    "prefecture_code": 16,
    "city": "高岡市",
    "city_kana": "タカオカシ",
    "town": "蓮花寺新町",
    "town_kana": "レンゲジシンマチ",
    "street": null,
    "office_name": null,
    "office_name_kana": null
  },
  "0802": {
    "postcode": "9330802",
    "prefecture": "富山県",
    "prefecture_kana": "トヤマケン",
    "prefecture_code": 16,
    "city": "高岡市",
    "city_kana": "タカオカシ",
    "town": "蓮花寺",
    "town_kana": "レンゲジ",
    "street": null,
    "office_name": null,
    "office_name_kana": null
  },
  "0803": {
    "postcode": "9330803",
    "prefecture": "富山県",
    "prefecture_kana": "トヤマケン",
    "prefecture_code": 16,
    "city": "高岡市",
    "city_kana": "タカオカシ",
    "town": "出来田",
    "town_kana": "デキデン",
    "street": null,
    "office_name": null,
    "office_name_kana": null
  },
  "0804": {
    "postcode": "9330804",
    "prefecture": "富山県",
    "prefecture_kana": "トヤマケン",
    "prefecture_code": 16,
    "city": "高岡市",
    "city_kana": "タカオカシ",
    "town": "問屋町",
    "town_kana": "トンヤマチ",
    "street": null,
    "office_name": null,
    "office_name_kana": null
  },
  "0805": {
    "postcode": "9330805",
    "prefecture": "富山県",
    "prefecture_kana": "トヤマケン",
    "prefecture_code": 16,
    "city": "高岡市",
    "city_kana": "タカオカシ",
    "town": "赤江町",
    "town_kana": "アカエチョウ",
    "street": null,
    "office_name": null,
    "office_name_kana": null
  },
  "0806": {
    "postcode": "9330806",
    "prefecture": "富山県",
    "prefecture_kana": "トヤマケン",
    "prefecture_code": 16,
    "city": "高岡市",
    "city_kana": "タカオカシ",
    "town": "赤祖父",
    "town_kana": "アカソフ",
    "street": null,
    "office_name": null,
    "office_name_kana": null
  },
  "0807": {
    "postcode": "9330807",
    "prefecture": "富山県",
    "prefecture_kana": "トヤマケン",
    "prefecture_code": 16,
    "city": "高岡市",
    "city_kana": "タカオカシ",
    "town": "井口本江",
    "town_kana": "イグチホンゴウ",
    "street": null,
    "office_name": null,
    "office_name_kana": null
  },
  "0808": {
    "postcode": "9330808",
    "prefecture": "富山県",
    "prefecture_kana": "トヤマケン",
    "prefecture_code": 16,
    "city": "高岡市",
    "city_kana": "タカオカシ",
    "town": "高園町",
    "town_kana": "タカゾノマチ",
    "street": null,
    "office_name": null,
    "office_name_kana": null
  },
  "0809": {
    "postcode": "9330809",
    "prefecture": "富山県",
    "prefecture_kana": "トヤマケン",
    "prefecture_code": 16,
    "city": "高岡市",
    "city_kana": "タカオカシ",
    "town": "出来田新町",
    "town_kana": "デキデンシンマチ",
    "street": null,
    "office_name": null,
    "office_name_kana": null
  },
  "0811": {
    "postcode": "9330811",
    "prefecture": "富山県",
    "prefecture_kana": "トヤマケン",
    "prefecture_code": 16,
    "city": "高岡市",
    "city_kana": "タカオカシ",
    "town": "深沢",
    "town_kana": "フカサワ",
    "street": null,
    "office_name": null,
    "office_name_kana": null
  },
  "0812": {
    "postcode": "9330812",
    "prefecture": "富山県",
    "prefecture_kana": "トヤマケン",
    "prefecture_code": 16,
    "city": "高岡市",
    "city_kana": "タカオカシ",
    "town": "明和町",
    "town_kana": "メイワマチ",
    "street": null,
    "office_name": null,
    "office_name_kana": null
  },
  "0813": {
    "postcode": "9330813",
    "prefecture": "富山県",
    "prefecture_kana": "トヤマケン",
    "prefecture_code": 16,
    "city": "高岡市",
    "city_kana": "タカオカシ",
    "town": "下伏間江",
    "town_kana": "シモフスマエ",
    "street": null,
    "office_name": null,
    "office_name_kana": null
  },
  "0814": {
    "postcode": "9330814",
    "prefecture": "富山県",
    "prefecture_kana": "トヤマケン",
    "prefecture_code": 16,
    "city": "高岡市",
    "city_kana": "タカオカシ",
    "town": "上伏間江",
    "town_kana": "カミフスマエ",
    "street": null,
    "office_name": null,
    "office_name_kana": null
  },
  "0815": {
    "postcode": "9330815",
    "prefecture": "富山県",
    "prefecture_kana": "トヤマケン",
    "prefecture_code": 16,
    "city": "高岡市",
    "city_kana": "タカオカシ",
    "town": "西広上",
    "town_kana": "ニシヒロカミ",
    "street": null,
    "office_name": null,
    "office_name_kana": null
  },
  "0816": {
    "postcode": "9330816",
    "prefecture": "富山県",
    "prefecture_kana": "トヤマケン",
    "prefecture_code": 16,
    "city": "高岡市",
    "city_kana": "タカオカシ",
    "town": "二塚",
    "town_kana": "フタヅカ",
    "street": null,
    "office_name": null,
    "office_name_kana": null
  },
  "0817": {
    "postcode": "9330817",
    "prefecture": "富山県",
    "prefecture_kana": "トヤマケン",
    "prefecture_code": 16,
    "city": "高岡市",
    "city_kana": "タカオカシ",
    "town": "東藤平蔵",
    "town_kana": "ヒガシトウヘイゾウ",
    "street": null,
    "office_name": null,
    "office_name_kana": null
  },
  "0818": {
    "postcode": "9330818",
    "prefecture": "富山県",
    "prefecture_kana": "トヤマケン",
    "prefecture_code": 16,
    "city": "高岡市",
    "city_kana": "タカオカシ",
    "town": "林新",
    "town_kana": "ハヤシシン",
    "street": null,
    "office_name": null,
    "office_name_kana": null
  },
  "0821": {
    "postcode": "9330821",
    "prefecture": "富山県",
    "prefecture_kana": "トヤマケン",
    "prefecture_code": 16,
    "city": "高岡市",
    "city_kana": "タカオカシ",
    "town": "下島町",
    "town_kana": "シモジママチ",
    "street": null,
    "office_name": null,
    "office_name_kana": null
  },
  "0822": {
    "postcode": "9330822",
    "prefecture": "富山県",
    "prefecture_kana": "トヤマケン",
    "prefecture_code": 16,
    "city": "高岡市",
    "city_kana": "タカオカシ",
    "town": "十二町島",
    "town_kana": "ジュウニチョウジマ",
    "street": null,
    "office_name": null,
    "office_name_kana": null
  },
  "0823": {
    "postcode": "9330823",
    "prefecture": "富山県",
    "prefecture_kana": "トヤマケン",
    "prefecture_code": 16,
    "city": "高岡市",
    "city_kana": "タカオカシ",
    "town": "北蔵新",
    "town_kana": "キタクラシン",
    "street": null,
    "office_name": null,
    "office_name_kana": null
  },
  "0824": {
    "postcode": "9330824",
    "prefecture": "富山県",
    "prefecture_kana": "トヤマケン",
    "prefecture_code": 16,
    "city": "高岡市",
    "city_kana": "タカオカシ",
    "town": "西藤平蔵",
    "town_kana": "ニシトウヘイゾウ",
    "street": null,
    "office_name": null,
    "office_name_kana": null
  },
  "0825": {
    "postcode": "9330825",
    "prefecture": "富山県",
    "prefecture_kana": "トヤマケン",
    "prefecture_code": 16,
    "city": "高岡市",
    "city_kana": "タカオカシ",
    "town": "佐野緑町",
    "town_kana": "サノミドリチョウ",
    "street": null,
    "office_name": null,
    "office_name_kana": null
  },
  "0826": {
    "postcode": "9330826",
    "prefecture": "富山県",
    "prefecture_kana": "トヤマケン",
    "prefecture_code": 16,
    "city": "高岡市",
    "city_kana": "タカオカシ",
    "town": "佐野",
    "town_kana": "サノ",
    "street": null,
    "office_name": null,
    "office_name_kana": null
  },
  "0827": {
    "postcode": "9330827",
    "prefecture": "富山県",
    "prefecture_kana": "トヤマケン",
    "prefecture_code": 16,
    "city": "高岡市",
    "city_kana": "タカオカシ",
    "town": "泉が丘",
    "town_kana": "イズミガオカ",
    "street": null,
    "office_name": null,
    "office_name_kana": null
  },
  "0828": {
    "postcode": "9330828",
    "prefecture": "富山県",
    "prefecture_kana": "トヤマケン",
    "prefecture_code": 16,
    "city": "高岡市",
    "city_kana": "タカオカシ",
    "town": "和田上町",
    "town_kana": "ワダカミチョウ",
    "street": null,
    "office_name": null,
    "office_name_kana": null
  },
  "0829": {
    "postcode": "9330829",
    "prefecture": "富山県",
    "prefecture_kana": "トヤマケン",
    "prefecture_code": 16,
    "city": "高岡市",
    "city_kana": "タカオカシ",
    "town": "福田",
    "town_kana": "フクタ",
    "street": null,
    "office_name": null,
    "office_name_kana": null
  },
  "0831": {
    "postcode": "9330831",
    "prefecture": "富山県",
    "prefecture_kana": "トヤマケン",
    "prefecture_code": 16,
    "city": "高岡市",
    "city_kana": "タカオカシ",
    "town": "若富町",
    "town_kana": "ワカトミチョウ",
    "street": null,
    "office_name": null,
    "office_name_kana": null
  },
  "0832": {
    "postcode": "9330832",
    "prefecture": "富山県",
    "prefecture_kana": "トヤマケン",
    "prefecture_code": 16,
    "city": "高岡市",
    "city_kana": "タカオカシ",
    "town": "和田",
    "town_kana": "ワダ",
    "street": null,
    "office_name": null,
    "office_name_kana": null
  },
  "0833": {
    "postcode": "9330833",
    "prefecture": "富山県",
    "prefecture_kana": "トヤマケン",
    "prefecture_code": 16,
    "city": "高岡市",
    "city_kana": "タカオカシ",
    "town": "荒見崎",
    "town_kana": "アラミサキ",
    "street": null,
    "office_name": null,
    "office_name_kana": null
  },
  "0834": {
    "postcode": "9330834",
    "prefecture": "富山県",
    "prefecture_kana": "トヤマケン",
    "prefecture_code": 16,
    "city": "高岡市",
    "city_kana": "タカオカシ",
    "town": "蔵野町",
    "town_kana": "クラノマチ",
    "street": null,
    "office_name": null,
    "office_name_kana": null
  },
  "0835": {
    "postcode": "9330835",
    "prefecture": "富山県",
    "prefecture_kana": "トヤマケン",
    "prefecture_code": 16,
    "city": "高岡市",
    "city_kana": "タカオカシ",
    "town": "辻",
    "town_kana": "ツジ",
    "street": null,
    "office_name": null,
    "office_name_kana": null
  },
  "0836": {
    "postcode": "9330836",
    "prefecture": "富山県",
    "prefecture_kana": "トヤマケン",
    "prefecture_code": 16,
    "city": "高岡市",
    "city_kana": "タカオカシ",
    "town": "石塚",
    "town_kana": "イシヅカ",
    "street": null,
    "office_name": null,
    "office_name_kana": null
  },
  "0837": {
    "postcode": "9330837",
    "prefecture": "富山県",
    "prefecture_kana": "トヤマケン",
    "prefecture_code": 16,
    "city": "高岡市",
    "city_kana": "タカオカシ",
    "town": "上北島",
    "town_kana": "カミキタジマ",
    "street": null,
    "office_name": null,
    "office_name_kana": null
  },
  "0838": {
    "postcode": "9330838",
    "prefecture": "富山県",
    "prefecture_kana": "トヤマケン",
    "prefecture_code": 16,
    "city": "高岡市",
    "city_kana": "タカオカシ",
    "town": "北島",
    "town_kana": "キタジマ",
    "street": null,
    "office_name": null,
    "office_name_kana": null
  },
  "0839": {
    "postcode": "9330839",
    "prefecture": "富山県",
    "prefecture_kana": "トヤマケン",
    "prefecture_code": 16,
    "city": "高岡市",
    "city_kana": "タカオカシ",
    "town": "和田西町",
    "town_kana": "ワダニシチョウ",
    "street": null,
    "office_name": null,
    "office_name_kana": null
  },
  "0841": {
    "postcode": "9330841",
    "prefecture": "富山県",
    "prefecture_kana": "トヤマケン",
    "prefecture_code": 16,
    "city": "高岡市",
    "city_kana": "タカオカシ",
    "town": "金屋町",
    "town_kana": "カナヤマチ",
    "street": null,
    "office_name": null,
    "office_name_kana": null
  },
  "0842": {
    "postcode": "9330842",
    "prefecture": "富山県",
    "prefecture_kana": "トヤマケン",
    "prefecture_code": 16,
    "city": "高岡市",
    "city_kana": "タカオカシ",
    "town": "横田町",
    "town_kana": "ヨコタマチ",
    "street": null,
    "office_name": null,
    "office_name_kana": null
  },
  "0843": {
    "postcode": "9330843",
    "prefecture": "富山県",
    "prefecture_kana": "トヤマケン",
    "prefecture_code": 16,
    "city": "高岡市",
    "city_kana": "タカオカシ",
    "town": "永楽町",
    "town_kana": "エイラクマチ",
    "street": null,
    "office_name": null,
    "office_name_kana": null
  },
  "0844": {
    "postcode": "9330844",
    "prefecture": "富山県",
    "prefecture_kana": "トヤマケン",
    "prefecture_code": 16,
    "city": "高岡市",
    "city_kana": "タカオカシ",
    "town": "羽広",
    "town_kana": "ハビロ",
    "street": null,
    "office_name": null,
    "office_name_kana": null
  },
  "0845": {
    "postcode": "9330845",
    "prefecture": "富山県",
    "prefecture_kana": "トヤマケン",
    "prefecture_code": 16,
    "city": "高岡市",
    "city_kana": "タカオカシ",
    "town": "松原町",
    "town_kana": "マツバラチョウ",
    "street": null,
    "office_name": null,
    "office_name_kana": null
  },
  "0846": {
    "postcode": "9330846",
    "prefecture": "富山県",
    "prefecture_kana": "トヤマケン",
    "prefecture_code": 16,
    "city": "高岡市",
    "city_kana": "タカオカシ",
    "town": "扇町",
    "town_kana": "オウギマチ",
    "street": null,
    "office_name": null,
    "office_name_kana": null
  },
  "0847": {
    "postcode": "9330847",
    "prefecture": "富山県",
    "prefecture_kana": "トヤマケン",
    "prefecture_code": 16,
    "city": "高岡市",
    "city_kana": "タカオカシ",
    "town": "千石町",
    "town_kana": "センゴクマチ",
    "street": null,
    "office_name": null,
    "office_name_kana": null
  },
  "0848": {
    "postcode": "9330848",
    "prefecture": "富山県",
    "prefecture_kana": "トヤマケン",
    "prefecture_code": 16,
    "city": "高岡市",
    "city_kana": "タカオカシ",
    "town": "西町",
    "town_kana": "ニシマチ",
    "street": null,
    "office_name": null,
    "office_name_kana": null
  },
  "0849": {
    "postcode": "9330849",
    "prefecture": "富山県",
    "prefecture_kana": "トヤマケン",
    "prefecture_code": 16,
    "city": "高岡市",
    "city_kana": "タカオカシ",
    "town": "横田本町",
    "town_kana": "ヨコタホンマチ",
    "street": null,
    "office_name": null,
    "office_name_kana": null
  },
  "0851": [
    {
      "postcode": "9330851",
      "prefecture": "富山県",
      "prefecture_kana": "トヤマケン",
      "prefecture_code": 16,
      "city": "高岡市",
      "city_kana": "タカオカシ",
      "town": "上関",
      "town_kana": "カミゼキ",
      "street": null,
      "office_name": null,
      "office_name_kana": null
    },
    {
      "postcode": "9330851",
      "prefecture": "富山県",
      "prefecture_kana": "トヤマケン",
      "prefecture_code": 16,
      "city": "高岡市",
      "city_kana": "タカオカシ",
      "town": "上関町",
      "town_kana": "カミゼキマチ",
      "street": null,
      "office_name": null,
      "office_name_kana": null
    }
  ],
  "0852": {
    "postcode": "9330852",
    "prefecture": "富山県",
    "prefecture_kana": "トヤマケン",
    "prefecture_code": 16,
    "city": "高岡市",
    "city_kana": "タカオカシ",
    "town": "下黒田",
    "town_kana": "シモクロダ",
    "street": null,
    "office_name": null,
    "office_name_kana": null
  },
  "0853": [
    {
      "postcode": "9330853",
      "prefecture": "富山県",
      "prefecture_kana": "トヤマケン",
      "prefecture_code": 16,
      "city": "高岡市",
      "city_kana": "タカオカシ",
      "town": "上黒田",
      "town_kana": "カミクロダ",
      "street": null,
      "office_name": null,
      "office_name_kana": null
    },
    {
      "postcode": "9330853",
      "prefecture": "富山県",
      "prefecture_kana": "トヤマケン",
      "prefecture_code": 16,
      "city": "高岡市",
      "city_kana": "タカオカシ",
      "town": "上黒田新",
      "town_kana": "カミクロダシン",
      "street": null,
      "office_name": null,
      "office_name_kana": null
    }
  ],
  "0854": {
    "postcode": "9330854",
    "prefecture": "富山県",
    "prefecture_kana": "トヤマケン",
    "prefecture_code": 16,
    "city": "高岡市",
    "city_kana": "タカオカシ",
    "town": "黒田新町",
    "town_kana": "クロダシンマチ",
    "street": null,
    "office_name": null,
    "office_name_kana": null
  },
  "0855": {
    "postcode": "9330855",
    "prefecture": "富山県",
    "prefecture_kana": "トヤマケン",
    "prefecture_code": 16,
    "city": "高岡市",
    "city_kana": "タカオカシ",
    "town": "市場通り",
    "town_kana": "イチバドオリ",
    "street": null,
    "office_name": null,
    "office_name_kana": null
  },
  "0856": {
    "postcode": "9330856",
    "prefecture": "富山県",
    "prefecture_kana": "トヤマケン",
    "prefecture_code": 16,
    "city": "高岡市",
    "city_kana": "タカオカシ",
    "town": "鐘紡町",
    "town_kana": "カネボウマチ",
    "street": null,
    "office_name": null,
    "office_name_kana": null
  },
  "0857": {
    "postcode": "9330857",
    "prefecture": "富山県",
    "prefecture_kana": "トヤマケン",
    "prefecture_code": 16,
    "city": "高岡市",
    "city_kana": "タカオカシ",
    "town": "木津",
    "town_kana": "キヅ",
    "street": null,
    "office_name": null,
    "office_name_kana": null
  },
  "0858": {
    "postcode": "9330858",
    "prefecture": "富山県",
    "prefecture_kana": "トヤマケン",
    "prefecture_code": 16,
    "city": "高岡市",
    "city_kana": "タカオカシ",
    "town": "泉町",
    "town_kana": "イズミマチ",
    "street": null,
    "office_name": null,
    "office_name_kana": null
  },
  "0860": {
    "postcode": "9330860",
    "prefecture": "富山県",
    "prefecture_kana": "トヤマケン",
    "prefecture_code": 16,
    "city": "高岡市",
    "city_kana": "タカオカシ",
    "town": "下関",
    "town_kana": "シモゼキ",
    "street": null,
    "office_name": null,
    "office_name_kana": null
  },
  "0861": {
    "postcode": "9330861",
    "prefecture": "富山県",
    "prefecture_kana": "トヤマケン",
    "prefecture_code": 16,
    "city": "高岡市",
    "city_kana": "タカオカシ",
    "town": "寺町",
    "town_kana": "テラマチ",
    "street": null,
    "office_name": null,
    "office_name_kana": null
  },
  "0862": {
    "postcode": "9330862",
    "prefecture": "富山県",
    "prefecture_kana": "トヤマケン",
    "prefecture_code": 16,
    "city": "高岡市",
    "city_kana": "タカオカシ",
    "town": "新寺町",
    "town_kana": "シンテラマチ",
    "street": null,
    "office_name": null,
    "office_name_kana": null
  },
  "0863": {
    "postcode": "9330863",
    "prefecture": "富山県",
    "prefecture_kana": "トヤマケン",
    "prefecture_code": 16,
    "city": "高岡市",
    "city_kana": "タカオカシ",
    "town": "関本町",
    "town_kana": "セキホンマチ",
    "street": null,
    "office_name": null,
    "office_name_kana": null
  },
  "0864": {
    "postcode": "9330864",
    "prefecture": "富山県",
    "prefecture_kana": "トヤマケン",
    "prefecture_code": 16,
    "city": "高岡市",
    "city_kana": "タカオカシ",
    "town": "関町",
    "town_kana": "セキマチ",
    "street": null,
    "office_name": null,
    "office_name_kana": null
  },
  "0865": {
    "postcode": "9330865",
    "prefecture": "富山県",
    "prefecture_kana": "トヤマケン",
    "prefecture_code": 16,
    "city": "高岡市",
    "city_kana": "タカオカシ",
    "town": "蓮美町",
    "town_kana": "ハスミマチ",
    "street": null,
    "office_name": null,
    "office_name_kana": null
  },
  "0866": {
    "postcode": "9330866",
    "prefecture": "富山県",
    "prefecture_kana": "トヤマケン",
    "prefecture_code": 16,
    "city": "高岡市",
    "city_kana": "タカオカシ",
    "town": "清水町",
    "town_kana": "シミズマチ",
    "street": null,
    "office_name": null,
    "office_name_kana": null
  },
  "0867": {
    "postcode": "9330867",
    "prefecture": "富山県",
    "prefecture_kana": "トヤマケン",
    "prefecture_code": 16,
    "city": "高岡市",
    "city_kana": "タカオカシ",
    "town": "大鋸屋町",
    "town_kana": "オガヤチョウ",
    "street": null,
    "office_name": null,
    "office_name_kana": null
  },
  "0868": {
    "postcode": "9330868",
    "prefecture": "富山県",
    "prefecture_kana": "トヤマケン",
    "prefecture_code": 16,
    "city": "高岡市",
    "city_kana": "タカオカシ",
    "town": "大工中町",
    "town_kana": "ダイクナカマチ",
    "street": null,
    "office_name": null,
    "office_name_kana": null
  },
  "0869": {
    "postcode": "9330869",
    "prefecture": "富山県",
    "prefecture_kana": "トヤマケン",
    "prefecture_code": 16,
    "city": "高岡市",
    "city_kana": "タカオカシ",
    "town": "関大町",
    "town_kana": "セキオオマチ",
    "street": null,
    "office_name": null,
    "office_name_kana": null
  },
  "0871": {
    "postcode": "9330871",
    "prefecture": "富山県",
    "prefecture_kana": "トヤマケン",
    "prefecture_code": 16,
    "city": "高岡市",
    "city_kana": "タカオカシ",
    "town": "駅南",
    "town_kana": "エキナン",
    "street": null,
    "office_name": null,
    "office_name_kana": null
  },
  "0872": {
    "postcode": "9330872",
    "prefecture": "富山県",
    "prefecture_kana": "トヤマケン",
    "prefecture_code": 16,
    "city": "高岡市",
    "city_kana": "タカオカシ",
    "town": "芳野",
    "town_kana": "ヨシノ",
    "street": null,
    "office_name": null,
    "office_name_kana": null
  },
  "0873": {
    "postcode": "9330873",
    "prefecture": "富山県",
    "prefecture_kana": "トヤマケン",
    "prefecture_code": 16,
    "city": "高岡市",
    "city_kana": "タカオカシ",
    "town": "南田町",
    "town_kana": "ミナミダマチ",
    "street": null,
    "office_name": null,
    "office_name_kana": null
  },
  "0874": {
    "postcode": "9330874",
    "prefecture": "富山県",
    "prefecture_kana": "トヤマケン",
    "prefecture_code": 16,
    "city": "高岡市",
    "city_kana": "タカオカシ",
    "town": "京田",
    "town_kana": "キョウデン",
    "street": null,
    "office_name": null,
    "office_name_kana": null
  },
  "0875": {
    "postcode": "9330875",
    "prefecture": "富山県",
    "prefecture_kana": "トヤマケン",
    "prefecture_code": 16,
    "city": "高岡市",
    "city_kana": "タカオカシ",
    "town": "神田新町",
    "town_kana": "カンダシンマチ",
    "street": null,
    "office_name": null,
    "office_name_kana": null
  },
  "0876": {
    "postcode": "9330876",
    "prefecture": "富山県",
    "prefecture_kana": "トヤマケン",
    "prefecture_code": 16,
    "city": "高岡市",
    "city_kana": "タカオカシ",
    "town": "神主町",
    "town_kana": "カンヌシマチ",
    "street": null,
    "office_name": null,
    "office_name_kana": null
  },
  "0877": {
    "postcode": "9330877",
    "prefecture": "富山県",
    "prefecture_kana": "トヤマケン",
    "prefecture_code": 16,
    "city": "高岡市",
    "city_kana": "タカオカシ",
    "town": "荒川町",
    "town_kana": "アラカワチョウ",
    "street": null,
    "office_name": null,
    "office_name_kana": null
  },
  "0878": {
    "postcode": "9330878",
    "prefecture": "富山県",
    "prefecture_kana": "トヤマケン",
    "prefecture_code": 16,
    "city": "高岡市",
    "city_kana": "タカオカシ",
    "town": "東上関",
    "town_kana": "ヒガシカミゼキ",
    "street": null,
    "office_name": null,
    "office_name_kana": null
  },
  "0879": {
    "postcode": "9330879",
    "prefecture": "富山県",
    "prefecture_kana": "トヤマケン",
    "prefecture_code": 16,
    "city": "高岡市",
    "city_kana": "タカオカシ",
    "town": "八丁道",
    "town_kana": "ハッチョウミチ",
    "street": null,
    "office_name": null,
    "office_name_kana": null
  },
  "0901": {
    "postcode": "9330901",
    "prefecture": "富山県",
    "prefecture_kana": "トヤマケン",
    "prefecture_code": 16,
    "city": "高岡市",
    "city_kana": "タカオカシ",
    "town": "向野本町",
    "town_kana": "ムカイノホンマチ",
    "street": null,
    "office_name": null,
    "office_name_kana": null
  },
  "0902": {
    "postcode": "9330902",
    "prefecture": "富山県",
    "prefecture_kana": "トヤマケン",
    "prefecture_code": 16,
    "city": "高岡市",
    "city_kana": "タカオカシ",
    "town": "向野町",
    "town_kana": "ムカイノマチ",
    "street": null,
    "office_name": null,
    "office_name_kana": null
  },
  "0903": {
    "postcode": "9330903",
    "prefecture": "富山県",
    "prefecture_kana": "トヤマケン",
    "prefecture_code": 16,
    "city": "高岡市",
    "city_kana": "タカオカシ",
    "town": "熊野町",
    "town_kana": "クマノマチ",
    "street": null,
    "office_name": null,
    "office_name_kana": null
  },
  "0904": {
    "postcode": "9330904",
    "prefecture": "富山県",
    "prefecture_kana": "トヤマケン",
    "prefecture_code": 16,
    "city": "高岡市",
    "city_kana": "タカオカシ",
    "town": "新成町",
    "town_kana": "シンセイマチ",
    "street": null,
    "office_name": null,
    "office_name_kana": null
  },
  "0905": {
    "postcode": "9330905",
    "prefecture": "富山県",
    "prefecture_kana": "トヤマケン",
    "prefecture_code": 16,
    "city": "高岡市",
    "city_kana": "タカオカシ",
    "town": "明野町",
    "town_kana": "アケノマチ",
    "street": null,
    "office_name": null,
    "office_name_kana": null
  },
  "0906": {
    "postcode": "9330906",
    "prefecture": "富山県",
    "prefecture_kana": "トヤマケン",
    "prefecture_code": 16,
    "city": "高岡市",
    "city_kana": "タカオカシ",
    "town": "五福町",
    "town_kana": "ゴフクマチ",
    "street": null,
    "office_name": null,
    "office_name_kana": null
  },
  "0907": {
    "postcode": "9330907",
    "prefecture": "富山県",
    "prefecture_kana": "トヤマケン",
    "prefecture_code": 16,
    "city": "高岡市",
    "city_kana": "タカオカシ",
    "town": "地子木町",
    "town_kana": "ジシキマチ",
    "street": null,
    "office_name": null,
    "office_name_kana": null
  },
  "0908": {
    "postcode": "9330908",
    "prefecture": "富山県",
    "prefecture_kana": "トヤマケン",
    "prefecture_code": 16,
    "city": "高岡市",
    "city_kana": "タカオカシ",
    "town": "木町",
    "town_kana": "キマチ",
    "street": null,
    "office_name": null,
    "office_name_kana": null
  },
  "0909": {
    "postcode": "9330909",
    "prefecture": "富山県",
    "prefecture_kana": "トヤマケン",
    "prefecture_code": 16,
    "city": "高岡市",
    "city_kana": "タカオカシ",
    "town": "開発本町",
    "town_kana": "カイホツホンマチ",
    "street": null,
    "office_name": null,
    "office_name_kana": null
  },
  "0910": {
    "postcode": "9330910",
    "prefecture": "富山県",
    "prefecture_kana": "トヤマケン",
    "prefecture_code": 16,
    "city": "高岡市",
    "city_kana": "タカオカシ",
    "town": "袋町",
    "town_kana": "フクロチョウ",
    "street": null,
    "office_name": null,
    "office_name_kana": null
  },
  "0911": {
    "postcode": "9330911",
    "prefecture": "富山県",
    "prefecture_kana": "トヤマケン",
    "prefecture_code": 16,
    "city": "高岡市",
    "city_kana": "タカオカシ",
    "town": "あわら町",
    "town_kana": "アワラマチ",
    "street": null,
    "office_name": null,
    "office_name_kana": null
  },
  "0912": {
    "postcode": "9330912",
    "prefecture": "富山県",
    "prefecture_kana": "トヤマケン",
    "prefecture_code": 16,
    "city": "高岡市",
    "city_kana": "タカオカシ",
    "town": "丸の内",
    "town_kana": "マルノウチ",
    "street": null,
    "office_name": null,
    "office_name_kana": null
  },
  "0913": {
    "postcode": "9330913",
    "prefecture": "富山県",
    "prefecture_kana": "トヤマケン",
    "prefecture_code": 16,
    "city": "高岡市",
    "city_kana": "タカオカシ",
    "town": "本町",
    "town_kana": "ホンマチ",
    "street": null,
    "office_name": null,
    "office_name_kana": null
  },
  "0914": {
    "postcode": "9330914",
    "prefecture": "富山県",
    "prefecture_kana": "トヤマケン",
    "prefecture_code": 16,
    "city": "高岡市",
    "city_kana": "タカオカシ",
    "town": "小馬出町",
    "town_kana": "コンマダシマチ",
    "street": null,
    "office_name": null,
    "office_name_kana": null
  },
  "0915": {
    "postcode": "9330915",
    "prefecture": "富山県",
    "prefecture_kana": "トヤマケン",
    "prefecture_code": 16,
    "city": "高岡市",
    "city_kana": "タカオカシ",
    "town": "千木屋町",
    "town_kana": "センギヤチョウ",
    "street": null,
    "office_name": null,
    "office_name_kana": null
  },
  "0916": {
    "postcode": "9330916",
    "prefecture": "富山県",
    "prefecture_kana": "トヤマケン",
    "prefecture_code": 16,
    "city": "高岡市",
    "city_kana": "タカオカシ",
    "town": "大町",
    "town_kana": "オオマチ",
    "street": null,
    "office_name": null,
    "office_name_kana": null
  },
  "0917": {
    "postcode": "9330917",
    "prefecture": "富山県",
    "prefecture_kana": "トヤマケン",
    "prefecture_code": 16,
    "city": "高岡市",
    "city_kana": "タカオカシ",
    "town": "京町",
    "town_kana": "キョウマチ",
    "street": null,
    "office_name": null,
    "office_name_kana": null
  },
  "0918": {
    "postcode": "9330918",
    "prefecture": "富山県",
    "prefecture_kana": "トヤマケン",
    "prefecture_code": 16,
    "city": "高岡市",
    "city_kana": "タカオカシ",
    "town": "大坪町",
    "town_kana": "オオツボマチ",
    "street": null,
    "office_name": null,
    "office_name_kana": null
  },
  "0919": {
    "postcode": "9330919",
    "prefecture": "富山県",
    "prefecture_kana": "トヤマケン",
    "prefecture_code": 16,
    "city": "高岡市",
    "city_kana": "タカオカシ",
    "town": "平米町",
    "town_kana": "ヒラマイチョウ",
    "street": null,
    "office_name": null,
    "office_name_kana": null
  },
  "0921": {
    "postcode": "9330921",
    "prefecture": "富山県",
    "prefecture_kana": "トヤマケン",
    "prefecture_code": 16,
    "city": "高岡市",
    "city_kana": "タカオカシ",
    "town": "源平町",
    "town_kana": "ゲンペイチョウ",
    "street": null,
    "office_name": null,
    "office_name_kana": null
  },
  "0922": {
    "postcode": "9330922",
    "prefecture": "富山県",
    "prefecture_kana": "トヤマケン",
    "prefecture_code": 16,
    "city": "高岡市",
    "city_kana": "タカオカシ",
    "town": "三番町",
    "town_kana": "サンバンマチ",
    "street": null,
    "office_name": null,
    "office_name_kana": null
  },
  "0923": {
    "postcode": "9330923",
    "prefecture": "富山県",
    "prefecture_kana": "トヤマケン",
    "prefecture_code": 16,
    "city": "高岡市",
    "city_kana": "タカオカシ",
    "town": "一番町",
    "town_kana": "イチバンマチ",
    "street": null,
    "office_name": null,
    "office_name_kana": null
  },
  "0924": {
    "postcode": "9330924",
    "prefecture": "富山県",
    "prefecture_kana": "トヤマケン",
    "prefecture_code": 16,
    "city": "高岡市",
    "city_kana": "タカオカシ",
    "town": "堀上町",
    "town_kana": "ホリカミチョウ",
    "street": null,
    "office_name": null,
    "office_name_kana": null
  },
  "0925": {
    "postcode": "9330925",
    "prefecture": "富山県",
    "prefecture_kana": "トヤマケン",
    "prefecture_code": 16,
    "city": "高岡市",
    "city_kana": "タカオカシ",
    "town": "白銀町",
    "town_kana": "シロガネチョウ",
    "street": null,
    "office_name": null,
    "office_name_kana": null
  },
  "0926": {
    "postcode": "9330926",
    "prefecture": "富山県",
    "prefecture_kana": "トヤマケン",
    "prefecture_code": 16,
    "city": "高岡市",
    "city_kana": "タカオカシ",
    "town": "御馬出町",
    "town_kana": "オンマダシマチ",
    "street": null,
    "office_name": null,
    "office_name_kana": null
  },
  "0927": {
    "postcode": "9330927",
    "prefecture": "富山県",
    "prefecture_kana": "トヤマケン",
    "prefecture_code": 16,
    "city": "高岡市",
    "city_kana": "タカオカシ",
    "town": "利屋町",
    "town_kana": "トギヤマチ",
    "street": null,
    "office_name": null,
    "office_name_kana": null
  },
  "0928": {
    "postcode": "9330928",
    "prefecture": "富山県",
    "prefecture_kana": "トヤマケン",
    "prefecture_code": 16,
    "city": "高岡市",
    "city_kana": "タカオカシ",
    "town": "守山町",
    "town_kana": "モリヤママチ",
    "street": null,
    "office_name": null,
    "office_name_kana": null
  },
  "0929": {
    "postcode": "9330929",
    "prefecture": "富山県",
    "prefecture_kana": "トヤマケン",
    "prefecture_code": 16,
    "city": "高岡市",
    "city_kana": "タカオカシ",
    "town": "木舟町",
    "town_kana": "キフネマチ",
    "street": null,
    "office_name": null,
    "office_name_kana": null
  },
  "0931": {
    "postcode": "9330931",
    "prefecture": "富山県",
    "prefecture_kana": "トヤマケン",
    "prefecture_code": 16,
    "city": "高岡市",
    "city_kana": "タカオカシ",
    "town": "二番町",
    "town_kana": "ニバンマチ",
    "street": null,
    "office_name": null,
    "office_name_kana": null
  },
  "0932": {
    "postcode": "9330932",
    "prefecture": "富山県",
    "prefecture_kana": "トヤマケン",
    "prefecture_code": 16,
    "city": "高岡市",
    "city_kana": "タカオカシ",
    "town": "鴨島町",
    "town_kana": "カモジママチ",
    "street": null,
    "office_name": null,
    "office_name_kana": null
  },
  "0933": {
    "postcode": "9330933",
    "prefecture": "富山県",
    "prefecture_kana": "トヤマケン",
    "prefecture_code": 16,
    "city": "高岡市",
    "city_kana": "タカオカシ",
    "town": "南幸町",
    "town_kana": "ミナミサイワイマチ",
    "street": null,
    "office_name": null,
    "office_name_kana": null
  },
  "0934": {
    "postcode": "9330934",
    "prefecture": "富山県",
    "prefecture_kana": "トヤマケン",
    "prefecture_code": 16,
    "city": "高岡市",
    "city_kana": "タカオカシ",
    "town": "博労町",
    "town_kana": "バクロウマチ",
    "street": null,
    "office_name": null,
    "office_name_kana": null
  },
  "0935": {
    "postcode": "9330935",
    "prefecture": "富山県",
    "prefecture_kana": "トヤマケン",
    "prefecture_code": 16,
    "city": "高岡市",
    "city_kana": "タカオカシ",
    "town": "博労本町",
    "town_kana": "バクロウホンマチ",
    "street": null,
    "office_name": null,
    "office_name_kana": null
  },
  "0936": {
    "postcode": "9330936",
    "prefecture": "富山県",
    "prefecture_kana": "トヤマケン",
    "prefecture_code": 16,
    "city": "高岡市",
    "city_kana": "タカオカシ",
    "town": "旅篭町",
    "town_kana": "ハタゴマチ",
    "street": null,
    "office_name": null,
    "office_name_kana": null
  },
  "0937": {
    "postcode": "9330937",
    "prefecture": "富山県",
    "prefecture_kana": "トヤマケン",
    "prefecture_code": 16,
    "city": "高岡市",
    "city_kana": "タカオカシ",
    "town": "通町",
    "town_kana": "トオリマチ",
    "street": null,
    "office_name": null,
    "office_name_kana": null
  },
  "0938": {
    "postcode": "9330938",
    "prefecture": "富山県",
    "prefecture_kana": "トヤマケン",
    "prefecture_code": 16,
    "city": "高岡市",
    "city_kana": "タカオカシ",
    "town": "風呂屋町",
    "town_kana": "フロヤチョウ",
    "street": null,
    "office_name": null,
    "office_name_kana": null
  },
  "0941": {
    "postcode": "9330941",
    "prefecture": "富山県",
    "prefecture_kana": "トヤマケン",
    "prefecture_code": 16,
    "city": "高岡市",
    "city_kana": "タカオカシ",
    "town": "内免",
    "town_kana": "ナイメン",
    "street": null,
    "office_name": null,
    "office_name_kana": null
  },
  "0942": {
    "postcode": "9330942",
    "prefecture": "富山県",
    "prefecture_kana": "トヤマケン",
    "prefecture_code": 16,
    "city": "高岡市",
    "city_kana": "タカオカシ",
    "town": "川原町",
    "town_kana": "カワラマチ",
    "street": null,
    "office_name": null,
    "office_name_kana": null
  },
  "0943": {
    "postcode": "9330943",
    "prefecture": "富山県",
    "prefecture_kana": "トヤマケン",
    "prefecture_code": 16,
    "city": "高岡市",
    "city_kana": "タカオカシ",
    "town": "川原本町",
    "town_kana": "カワラホンマチ",
    "street": null,
    "office_name": null,
    "office_name_kana": null
  },
  "0944": {
    "postcode": "9330944",
    "prefecture": "富山県",
    "prefecture_kana": "トヤマケン",
    "prefecture_code": 16,
    "city": "高岡市",
    "city_kana": "タカオカシ",
    "town": "中島町",
    "town_kana": "ナカジママチ",
    "street": null,
    "office_name": null,
    "office_name_kana": null
  },
  "0945": {
    "postcode": "9330945",
    "prefecture": "富山県",
    "prefecture_kana": "トヤマケン",
    "prefecture_code": 16,
    "city": "高岡市",
    "city_kana": "タカオカシ",
    "town": "金屋本町",
    "town_kana": "カナヤホンマチ",
    "street": null,
    "office_name": null,
    "office_name_kana": null
  },
  "0946": {
    "postcode": "9330946",
    "prefecture": "富山県",
    "prefecture_kana": "トヤマケン",
    "prefecture_code": 16,
    "city": "高岡市",
    "city_kana": "タカオカシ",
    "town": "昭和町",
    "town_kana": "ショウワマチ",
    "street": null,
    "office_name": null,
    "office_name_kana": null
  },
  "0947": {
    "postcode": "9330947",
    "prefecture": "富山県",
    "prefecture_kana": "トヤマケン",
    "prefecture_code": 16,
    "city": "高岡市",
    "city_kana": "タカオカシ",
    "town": "本郷",
    "town_kana": "ホンゴウ",
    "street": null,
    "office_name": null,
    "office_name_kana": null
  },
  "0948": {
    "postcode": "9330948",
    "prefecture": "富山県",
    "prefecture_kana": "トヤマケン",
    "prefecture_code": 16,
    "city": "高岡市",
    "city_kana": "タカオカシ",
    "town": "上四屋",
    "town_kana": "カミヨツヤ",
    "street": null,
    "office_name": null,
    "office_name_kana": null
  },
  "0949": {
    "postcode": "9330949",
    "prefecture": "富山県",
    "prefecture_kana": "トヤマケン",
    "prefecture_code": 16,
    "city": "高岡市",
    "city_kana": "タカオカシ",
    "town": "四屋",
    "town_kana": "ヨツヤ",
    "street": null,
    "office_name": null,
    "office_name_kana": null
  },
  "0951": {
    "postcode": "9330951",
    "prefecture": "富山県",
    "prefecture_kana": "トヤマケン",
    "prefecture_code": 16,
    "city": "高岡市",
    "city_kana": "タカオカシ",
    "town": "長慶寺",
    "town_kana": "チョウケイジ",
    "street": null,
    "office_name": null,
    "office_name_kana": null
  },
  "0952": {
    "postcode": "9330952",
    "prefecture": "富山県",
    "prefecture_kana": "トヤマケン",
    "prefecture_code": 16,
    "city": "高岡市",
    "city_kana": "タカオカシ",
    "town": "下窪",
    "town_kana": "シタクボ",
    "street": null,
    "office_name": null,
    "office_name_kana": null
  },
  "0953": {
    "postcode": "9330953",
    "prefecture": "富山県",
    "prefecture_kana": "トヤマケン",
    "prefecture_code": 16,
    "city": "高岡市",
    "city_kana": "タカオカシ",
    "town": "横田",
    "town_kana": "ヨコタ",
    "street": null,
    "office_name": null,
    "office_name_kana": null
  },
  "0954": {
    "postcode": "9330954",
    "prefecture": "富山県",
    "prefecture_kana": "トヤマケン",
    "prefecture_code": 16,
    "city": "高岡市",
    "city_kana": "タカオカシ",
    "town": "美幸町",
    "town_kana": "ミユキマチ",
    "street": null,
    "office_name": null,
    "office_name_kana": null
  },
  "0955": {
    "postcode": "9330955",
    "prefecture": "富山県",
    "prefecture_kana": "トヤマケン",
    "prefecture_code": 16,
    "city": "高岡市",
    "city_kana": "タカオカシ",
    "town": "瑞穂町",
    "town_kana": "ミズホマチ",
    "street": null,
    "office_name": null,
    "office_name_kana": null
  },
  "0956": {
    "postcode": "9330956",
    "prefecture": "富山県",
    "prefecture_kana": "トヤマケン",
    "prefecture_code": 16,
    "city": "高岡市",
    "city_kana": "タカオカシ",
    "town": "宮田町",
    "town_kana": "ミヤタマチ",
    "street": null,
    "office_name": null,
    "office_name_kana": null
  },
  "0957": {
    "postcode": "9330957",
    "prefecture": "富山県",
    "prefecture_kana": "トヤマケン",
    "prefecture_code": 16,
    "city": "高岡市",
    "city_kana": "タカオカシ",
    "town": "早川",
    "town_kana": "ハヤカワ",
    "street": null,
    "office_name": null,
    "office_name_kana": null
  },
  "0958": {
    "postcode": "9330958",
    "prefecture": "富山県",
    "prefecture_kana": "トヤマケン",
    "prefecture_code": 16,
    "city": "高岡市",
    "city_kana": "タカオカシ",
    "town": "波岡",
    "town_kana": "ハオカ",
    "street": null,
    "office_name": null,
    "office_name_kana": null
  },
  "0959": {
    "postcode": "9330959",
    "prefecture": "富山県",
    "prefecture_kana": "トヤマケン",
    "prefecture_code": 16,
    "city": "高岡市",
    "city_kana": "タカオカシ",
    "town": "長江",
    "town_kana": "ナガエ",
    "street": null,
    "office_name": null,
    "office_name_kana": null
  },
  "0961": {
    "postcode": "9330961",
    "prefecture": "富山県",
    "prefecture_kana": "トヤマケン",
    "prefecture_code": 16,
    "city": "高岡市",
    "city_kana": "タカオカシ",
    "town": "佐加野",
    "town_kana": "サガノ",
    "street": null,
    "office_name": null,
    "office_name_kana": null
  },
  "0962": {
    "postcode": "9330962",
    "prefecture": "富山県",
    "prefecture_kana": "トヤマケン",
    "prefecture_code": 16,
    "city": "高岡市",
    "city_kana": "タカオカシ",
    "town": "佐加野東",
    "town_kana": "サガノヒガシ",
    "street": null,
    "office_name": null,
    "office_name_kana": null
  },
  "0963": {
    "postcode": "9330963",
    "prefecture": "富山県",
    "prefecture_kana": "トヤマケン",
    "prefecture_code": 16,
    "city": "高岡市",
    "city_kana": "タカオカシ",
    "town": "上八ケ新",
    "town_kana": "カミハッカシン",
    "street": null,
    "office_name": null,
    "office_name_kana": null
  },
  "0964": {
    "postcode": "9330964",
    "prefecture": "富山県",
    "prefecture_kana": "トヤマケン",
    "prefecture_code": 16,
    "city": "高岡市",
    "city_kana": "タカオカシ",
    "town": "答野島",
    "town_kana": "トウノシマ",
    "street": null,
    "office_name": null,
    "office_name_kana": null
  },
  "0965": {
    "postcode": "9330965",
    "prefecture": "富山県",
    "prefecture_kana": "トヤマケン",
    "prefecture_code": 16,
    "city": "高岡市",
    "city_kana": "タカオカシ",
    "town": "高辻",
    "town_kana": "タカツジ",
    "street": null,
    "office_name": null,
    "office_name_kana": null
  },
  "0966": {
    "postcode": "9330966",
    "prefecture": "富山県",
    "prefecture_kana": "トヤマケン",
    "prefecture_code": 16,
    "city": "高岡市",
    "city_kana": "タカオカシ",
    "town": "月野谷",
    "town_kana": "ツキノヤ",
    "street": null,
    "office_name": null,
    "office_name_kana": null
  },
  "0967": {
    "postcode": "9330967",
    "prefecture": "富山県",
    "prefecture_kana": "トヤマケン",
    "prefecture_code": 16,
    "city": "高岡市",
    "city_kana": "タカオカシ",
    "town": "手洗野",
    "town_kana": "タライノ",
    "street": null,
    "office_name": null,
    "office_name_kana": null
  },
  "0968": {
    "postcode": "9330968",
    "prefecture": "富山県",
    "prefecture_kana": "トヤマケン",
    "prefecture_code": 16,
    "city": "高岡市",
    "city_kana": "タカオカシ",
    "town": "国吉",
    "town_kana": "クニヨシ",
    "street": null,
    "office_name": null,
    "office_name_kana": null
  },
  "0971": {
    "postcode": "9330971",
    "prefecture": "富山県",
    "prefecture_kana": "トヤマケン",
    "prefecture_code": 16,
    "city": "高岡市",
    "city_kana": "タカオカシ",
    "town": "五十里西町",
    "town_kana": "イカリニシマチ",
    "street": null,
    "office_name": null,
    "office_name_kana": null
  },
  "0972": {
    "postcode": "9330972",
    "prefecture": "富山県",
    "prefecture_kana": "トヤマケン",
    "prefecture_code": 16,
    "city": "高岡市",
    "city_kana": "タカオカシ",
    "town": "五十里東町",
    "town_kana": "イカリヒガシマチ",
    "street": null,
    "office_name": null,
    "office_name_kana": null
  },
  "0973": {
    "postcode": "9330973",
    "prefecture": "富山県",
    "prefecture_kana": "トヤマケン",
    "prefecture_code": 16,
    "city": "高岡市",
    "city_kana": "タカオカシ",
    "town": "五十里",
    "town_kana": "イカリ",
    "street": null,
    "office_name": null,
    "office_name_kana": null
  },
  "0974": {
    "postcode": "9330974",
    "prefecture": "富山県",
    "prefecture_kana": "トヤマケン",
    "prefecture_code": 16,
    "city": "高岡市",
    "city_kana": "タカオカシ",
    "town": "岩坪",
    "town_kana": "イワツボ",
    "street": null,
    "office_name": null,
    "office_name_kana": null
  },
  "0975": {
    "postcode": "9330975",
    "prefecture": "富山県",
    "prefecture_kana": "トヤマケン",
    "prefecture_code": 16,
    "city": "高岡市",
    "city_kana": "タカオカシ",
    "town": "答野出",
    "town_kana": "トウノデ",
    "street": null,
    "office_name": null,
    "office_name_kana": null
  },
  "0976": {
    "postcode": "9330976",
    "prefecture": "富山県",
    "prefecture_kana": "トヤマケン",
    "prefecture_code": 16,
    "city": "高岡市",
    "city_kana": "タカオカシ",
    "town": "島崎",
    "town_kana": "シマサキ",
    "street": null,
    "office_name": null,
    "office_name_kana": null
  },
  "0977": {
    "postcode": "9330977",
    "prefecture": "富山県",
    "prefecture_kana": "トヤマケン",
    "prefecture_code": 16,
    "city": "高岡市",
    "city_kana": "タカオカシ",
    "town": "細池",
    "town_kana": "ホソイケ",
    "street": null,
    "office_name": null,
    "office_name_kana": null
  },
  "0978": {
    "postcode": "9330978",
    "prefecture": "富山県",
    "prefecture_kana": "トヤマケン",
    "prefecture_code": 16,
    "city": "高岡市",
    "city_kana": "タカオカシ",
    "town": "頭川",
    "town_kana": "ズカワ",
    "street": null,
    "office_name": null,
    "office_name_kana": null
  },
  "0981": [
    {
      "postcode": "9330981",
      "prefecture": "富山県",
      "prefecture_kana": "トヤマケン",
      "prefecture_code": 16,
      "city": "高岡市",
      "city_kana": "タカオカシ",
      "town": "二上",
      "town_kana": "フタガミ",
      "street": null,
      "office_name": null,
      "office_name_kana": null
    },
    {
      "postcode": "9330981",
      "prefecture": "富山県",
      "prefecture_kana": "トヤマケン",
      "prefecture_code": 16,
      "city": "高岡市",
      "city_kana": "タカオカシ",
      "town": "二上新",
      "town_kana": "フタガミシン",
      "street": null,
      "office_name": null,
      "office_name_kana": null
    },
    {
      "postcode": "9330981",
      "prefecture": "富山県",
      "prefecture_kana": "トヤマケン",
      "prefecture_code": 16,
      "city": "高岡市",
      "city_kana": "タカオカシ",
      "town": "二上町",
      "town_kana": "フタガミマチ",
      "street": null,
      "office_name": null,
      "office_name_kana": null
    }
  ],
  "0982": {
    "postcode": "9330982",
    "prefecture": "富山県",
    "prefecture_kana": "トヤマケン",
    "prefecture_code": 16,
    "city": "高岡市",
    "city_kana": "タカオカシ",
    "town": "八ケ",
    "town_kana": "ハッカ",
    "street": null,
    "office_name": null,
    "office_name_kana": null
  },
  "0983": [
    {
      "postcode": "9330983",
      "prefecture": "富山県",
      "prefecture_kana": "トヤマケン",
      "prefecture_code": 16,
      "city": "高岡市",
      "city_kana": "タカオカシ",
      "town": "守護町",
      "town_kana": "シュゴマチ",
      "street": null,
      "office_name": null,
      "office_name_kana": null
    },
    {
      "postcode": "9330983",
      "prefecture": "富山県",
      "prefecture_kana": "トヤマケン",
      "prefecture_code": 16,
      "city": "高岡市",
      "city_kana": "タカオカシ",
      "town": "守護町新",
      "town_kana": "シュゴマチシン",
      "street": null,
      "office_name": null,
      "office_name_kana": null
    }
  ],
  "0984": {
    "postcode": "9330984",
    "prefecture": "富山県",
    "prefecture_kana": "トヤマケン",
    "prefecture_code": 16,
    "city": "高岡市",
    "city_kana": "タカオカシ",
    "town": "守山",
    "town_kana": "モリヤマ",
    "street": null,
    "office_name": null,
    "office_name_kana": null
  },
  "0985": {
    "postcode": "9330985",
    "prefecture": "富山県",
    "prefecture_kana": "トヤマケン",
    "prefecture_code": 16,
    "city": "高岡市",
    "city_kana": "タカオカシ",
    "town": "須田",
    "town_kana": "スダ",
    "street": null,
    "office_name": null,
    "office_name_kana": null
  },
  "0986": {
    "postcode": "9330986",
    "prefecture": "富山県",
    "prefecture_kana": "トヤマケン",
    "prefecture_code": 16,
    "city": "高岡市",
    "city_kana": "タカオカシ",
    "town": "西海老坂",
    "town_kana": "ニシエビサカ",
    "street": null,
    "office_name": null,
    "office_name_kana": null
  },
  "0987": {
    "postcode": "9330987",
    "prefecture": "富山県",
    "prefecture_kana": "トヤマケン",
    "prefecture_code": 16,
    "city": "高岡市",
    "city_kana": "タカオカシ",
    "town": "東海老坂",
    "town_kana": "ヒガシエビサカ",
    "street": null,
    "office_name": null,
    "office_name_kana": null
  },
  "8501": {
    "postcode": "9338501",
    "prefecture": "富山県",
    "prefecture_kana": "トヤマケン",
    "prefecture_code": 16,
    "city": "高岡市",
    "city_kana": "タカオカシ",
    "town": "御旅屋町",
    "town_kana": "オタヤマチ",
    "street": "１０１",
    "office_name": "株式会社　大和　高岡店",
    "office_name_kana": "カブシキガイシヤ ダイワ タカオカテン"
  },
  "8502": {
    "postcode": "9338502",
    "prefecture": "富山県",
    "prefecture_kana": "トヤマケン",
    "prefecture_code": 16,
    "city": "高岡市",
    "city_kana": "タカオカシ",
    "town": "あわら町",
    "town_kana": "アワラマチ",
    "street": "１−１",
    "office_name": "高岡市農業協同組合",
    "office_name_kana": "タカオカシノウギヨウキヨウドウクミアイ"
  },
  "8505": {
    "postcode": "9338505",
    "prefecture": "富山県",
    "prefecture_kana": "トヤマケン",
    "prefecture_code": 16,
    "city": "高岡市",
    "city_kana": "タカオカシ",
    "town": "吉久",
    "town_kana": "ヨシヒサ",
    "street": "一丁目１番１４５号",
    "office_name": "日本重化学工業　株式会社　高岡事業所",
    "office_name_kana": "ニホンジユウカガクコウギヨウ カブシキガイシヤ タカオカジギヨウシヨ"
  },
  "8506": {
    "postcode": "9338506",
    "prefecture": "富山県",
    "prefecture_kana": "トヤマケン",
    "prefecture_code": 16,
    "city": "高岡市",
    "city_kana": "タカオカシ",
    "town": "横田町",
    "town_kana": "ヨコタマチ",
    "street": "３丁目４−１",
    "office_name": "高岡西高等学校",
    "office_name_kana": "タカオカニシコウトウガツコウ"
  },
  "8507": {
    "postcode": "9338507",
    "prefecture": "富山県",
    "prefecture_kana": "トヤマケン",
    "prefecture_code": 16,
    "city": "高岡市",
    "city_kana": "タカオカシ",
    "town": "向野本町",
    "town_kana": "ムカイノホンマチ",
    "street": "３００",
    "office_name": "日本曹達　株式会社　高岡工場",
    "office_name_kana": "ニホンソ-ダ カブシキガイシヤ タカオカコウジヨウ"
  },
  "8508": {
    "postcode": "9338508",
    "prefecture": "富山県",
    "prefecture_kana": "トヤマケン",
    "prefecture_code": 16,
    "city": "高岡市",
    "city_kana": "タカオカシ",
    "town": "本郷",
    "town_kana": "ホンゴウ",
    "street": "２丁目１番１号",
    "office_name": "高岡第一高等学校",
    "office_name_kana": "タカオカダイイチコウトウガツコウ"
  },
  "8510": {
    "postcode": "9338510",
    "prefecture": "富山県",
    "prefecture_kana": "トヤマケン",
    "prefecture_code": 16,
    "city": "高岡市",
    "city_kana": "タカオカシ",
    "town": "横田",
    "town_kana": "ヨコタ",
    "street": "２８６",
    "office_name": "高岡商業高等学校",
    "office_name_kana": "タカオカシヨウギヨウコウトウガツコウ"
  },
  "8511": {
    "postcode": "9338511",
    "prefecture": "富山県",
    "prefecture_kana": "トヤマケン",
    "prefecture_code": 16,
    "city": "高岡市",
    "city_kana": "タカオカシ",
    "town": "長慶寺",
    "town_kana": "チョウケイジ",
    "street": "５３０番地",
    "office_name": "第一ファインケミカル　株式会社",
    "office_name_kana": "ダイイチフアインケミカル カブシキガイシヤ"
  },
  "8515": {
    "postcode": "9338515",
    "prefecture": "富山県",
    "prefecture_kana": "トヤマケン",
    "prefecture_code": 16,
    "city": "高岡市",
    "city_kana": "タカオカシ",
    "town": "木舟町",
    "town_kana": "キフネマチ",
    "street": "７８番１号",
    "office_name": "ＮＴＴビジネスソリューションズ　株式会社　高岡営業担当",
    "office_name_kana": "エヌテイテイビジネスソリユ-シヨンズ カブシキガイシヤ タカオカエイギヨウタントウ"
  },
  "8516": {
    "postcode": "9338516",
    "prefecture": "富山県",
    "prefecture_kana": "トヤマケン",
    "prefecture_code": 16,
    "city": "高岡市",
    "city_kana": "タカオカシ",
    "town": "荻布",
    "town_kana": "オギノ",
    "street": "６３０",
    "office_name": "日本ゼオン　（株）　高岡工場",
    "office_name_kana": "ニホンゼオン カブ タカオカコウジヨウ"
  },
  "8518": {
    "postcode": "9338518",
    "prefecture": "富山県",
    "prefecture_kana": "トヤマケン",
    "prefecture_code": 16,
    "city": "高岡市",
    "city_kana": "タカオカシ",
    "town": "中川",
    "town_kana": "ナカガワ",
    "street": "１丁目１番２０号",
    "office_name": "富山県立　高岡工芸高等学校",
    "office_name_kana": "トヤマケンリツ タカオカコウゲイコウトウガツコウ"
  },
  "8520": {
    "postcode": "9338520",
    "prefecture": "富山県",
    "prefecture_kana": "トヤマケン",
    "prefecture_code": 16,
    "city": "高岡市",
    "city_kana": "タカオカシ",
    "town": "中川園町",
    "town_kana": "ナカガワソノマチ",
    "street": "１番１号",
    "office_name": "富山県立　高岡高等学校",
    "office_name_kana": "トヤマケンリツ タカオカコウトウガツコウ"
  },
  "8523": {
    "postcode": "9338523",
    "prefecture": "富山県",
    "prefecture_kana": "トヤマケン",
    "prefecture_code": 16,
    "city": "高岡市",
    "city_kana": "タカオカシ",
    "town": "赤祖父",
    "town_kana": "アカソフ",
    "street": "２１１番地",
    "office_name": "富山県高岡厚生センター",
    "office_name_kana": "トヤマケンタカオカコウセイセンタ-"
  },
  "8525": {
    "postcode": "9338525",
    "prefecture": "富山県",
    "prefecture_kana": "トヤマケン",
    "prefecture_code": 16,
    "city": "高岡市",
    "city_kana": "タカオカシ",
    "town": "二塚",
    "town_kana": "フタヅカ",
    "street": "３８７−１",
    "office_name": "富山県　済生会高岡病院",
    "office_name_kana": "トヤマケン サイセイカイタカオカビヨウイン"
  },
  "8526": {
    "postcode": "9338526",
    "prefecture": "富山県",
    "prefecture_kana": "トヤマケン",
    "prefecture_code": 16,
    "city": "高岡市",
    "city_kana": "タカオカシ",
    "town": "二塚",
    "town_kana": "フタヅカ",
    "street": "３２８８番地",
    "office_name": "中越パルプ工業　（株）　二塚工場",
    "office_name_kana": "チユウエツパルプコウギヨウ カブシキガイシヤ フタツカコウジヨウ"
  },
  "8527": {
    "postcode": "9338527",
    "prefecture": "富山県",
    "prefecture_kana": "トヤマケン",
    "prefecture_code": 16,
    "city": "高岡市",
    "city_kana": "タカオカシ",
    "town": "上伏間江",
    "town_kana": "カミフスマエ",
    "street": "１番地",
    "office_name": "助野　株式会社",
    "office_name_kana": "スケノ カブシキガイシヤ"
  },
  "8528": {
    "postcode": "9338528",
    "prefecture": "富山県",
    "prefecture_kana": "トヤマケン",
    "prefecture_code": 16,
    "city": "高岡市",
    "city_kana": "タカオカシ",
    "town": "駅南",
    "town_kana": "エキナン",
    "street": "２丁目１番１号",
    "office_name": "（株）　マイカル　北陸高岡サティ",
    "office_name_kana": "カブシキガイシヤ マイカル ホクリクタカオカサテイ"
  },
  "8530": {
    "postcode": "9338530",
    "prefecture": "富山県",
    "prefecture_kana": "トヤマケン",
    "prefecture_code": 16,
    "city": "高岡市",
    "city_kana": "タカオカシ",
    "town": "東海老坂",
    "town_kana": "ヒガシエビサカ",
    "street": "９５０番地",
    "office_name": "富山県立　二上工業高等学校",
    "office_name_kana": "トヤマケンリツ フタガミコウギヨウコウトウガツコウ"
  },
  "8531": {
    "postcode": "9338531",
    "prefecture": "富山県",
    "prefecture_kana": "トヤマケン",
    "prefecture_code": 16,
    "city": "高岡市",
    "city_kana": "タカオカシ",
    "town": "問屋町",
    "town_kana": "トンヤマチ",
    "street": "１８番地",
    "office_name": "（株）　島屋",
    "office_name_kana": "カブシキガイシヤ シマヤ"
  },
  "8532": {
    "postcode": "9338532",
    "prefecture": "富山県",
    "prefecture_kana": "トヤマケン",
    "prefecture_code": 16,
    "city": "高岡市",
    "city_kana": "タカオカシ",
    "town": "問屋町",
    "town_kana": "トンヤマチ",
    "street": "４８番地",
    "office_name": "（株）　矢野",
    "office_name_kana": "カブシキガイシヤ ヤノ"
  },
  "8533": {
    "postcode": "9338533",
    "prefecture": "富山県",
    "prefecture_kana": "トヤマケン",
    "prefecture_code": 16,
    "city": "高岡市",
    "city_kana": "タカオカシ",
    "town": "米島",
    "town_kana": "ヨネジマ",
    "street": "２８２",
    "office_name": "中越パルプ工業　株式会社　能町工場",
    "office_name_kana": "チユウエツパルプコウギヨウ カブシキガイシヤ ノウマチコウジヨウ"
  },
  "8535": {
    "postcode": "9338535",
    "prefecture": "富山県",
    "prefecture_kana": "トヤマケン",
    "prefecture_code": 16,
    "city": "高岡市",
    "city_kana": "タカオカシ",
    "town": "問屋町",
    "town_kana": "トンヤマチ",
    "street": "５５番地",
    "office_name": "ホクアハウスウエア　株式会社",
    "office_name_kana": "ホクアハウスウエア カブシキガイシヤ"
  },
  "8537": {
    "postcode": "9338537",
    "prefecture": "富山県",
    "prefecture_kana": "トヤマケン",
    "prefecture_code": 16,
    "city": "高岡市",
    "city_kana": "タカオカシ",
    "town": "問屋町",
    "town_kana": "トンヤマチ",
    "street": "１９２番地",
    "office_name": "アリタ　（株）",
    "office_name_kana": "アリタ カブシキガイシヤ"
  },
  "8538": {
    "postcode": "9338538",
    "prefecture": "富山県",
    "prefecture_kana": "トヤマケン",
    "prefecture_code": 16,
    "city": "高岡市",
    "city_kana": "タカオカシ",
    "town": "石瀬",
    "town_kana": "イシゼ",
    "street": "２８１",
    "office_name": "学校法人　荒井学園高岡向陵高等学校",
    "office_name_kana": "ガツコウホウジン アライガクエンタカオカコウリヨウコウトウガツコウ"
  },
  "8540": {
    "postcode": "9338540",
    "prefecture": "富山県",
    "prefecture_kana": "トヤマケン",
    "prefecture_code": 16,
    "city": "高岡市",
    "city_kana": "タカオカシ",
    "town": "博労本町",
    "town_kana": "バクロウホンマチ",
    "street": "５−３０",
    "office_name": "高岡税務署",
    "office_name_kana": "タカオカゼイムシヨ"
  },
  "8543": {
    "postcode": "9338543",
    "prefecture": "富山県",
    "prefecture_kana": "トヤマケン",
    "prefecture_code": 16,
    "city": "高岡市",
    "city_kana": "タカオカシ",
    "town": "下関",
    "town_kana": "シモゼキ",
    "street": "４−５",
    "office_name": "読売新聞　北陸支社",
    "office_name_kana": "ヨミウリシンブン ホクリクシシヤ"
  },
  "8550": {
    "postcode": "9338550",
    "prefecture": "富山県",
    "prefecture_kana": "トヤマケン",
    "prefecture_code": 16,
    "city": "高岡市",
    "city_kana": "タカオカシ",
    "town": "宝町",
    "town_kana": "タカラマチ",
    "street": "４−１",
    "office_name": "高岡市民病院",
    "office_name_kana": "タカオカシミンビヨウイン"
  },
  "8558": {
    "postcode": "9338558",
    "prefecture": "富山県",
    "prefecture_kana": "トヤマケン",
    "prefecture_code": 16,
    "city": "高岡市",
    "city_kana": "タカオカシ",
    "town": "昭和町",
    "town_kana": "ショウワマチ",
    "street": "１丁目４−１",
    "office_name": "金森産業　株式会社",
    "office_name_kana": "カナモリサンギヨウ カブシキガイシヤ"
  },
  "8563": {
    "postcode": "9338563",
    "prefecture": "富山県",
    "prefecture_kana": "トヤマケン",
    "prefecture_code": 16,
    "city": "高岡市",
    "city_kana": "タカオカシ",
    "town": "問屋町",
    "town_kana": "トンヤマチ",
    "street": "１０９番地",
    "office_name": "（株）　谷道",
    "office_name_kana": "カブシキガイシヤ タニミチ"
  },
  "8566": {
    "postcode": "9338566",
    "prefecture": "富山県",
    "prefecture_kana": "トヤマケン",
    "prefecture_code": 16,
    "city": "高岡市",
    "city_kana": "タカオカシ",
    "town": "昭和町",
    "town_kana": "ショウワマチ",
    "street": "３丁目２−１２",
    "office_name": "トナミ運輸　株式会社",
    "office_name_kana": "トナミウンユ カブシキガイシヤ"
  },
  "8567": {
    "postcode": "9338567",
    "prefecture": "富山県",
    "prefecture_kana": "トヤマケン",
    "prefecture_code": 16,
    "city": "高岡市",
    "city_kana": "タカオカシ",
    "town": "丸の内",
    "town_kana": "マルノウチ",
    "street": "１−４０",
    "office_name": "高岡商工会議所",
    "office_name_kana": "タカオカシヨウコウカイギシヨ"
  },
  "8585": {
    "postcode": "9338585",
    "prefecture": "富山県",
    "prefecture_kana": "トヤマケン",
    "prefecture_code": 16,
    "city": "高岡市",
    "city_kana": "タカオカシ",
    "town": "中川園町",
    "town_kana": "ナカガワソノマチ",
    "street": "１１−２０",
    "office_name": "日本年金機構　高岡年金事務所",
    "office_name_kana": "ニツポンネンキンキコウ タカオカネンキンジムシヨ"
  },
  "8588": {
    "postcode": "9338588",
    "prefecture": "富山県",
    "prefecture_kana": "トヤマケン",
    "prefecture_code": 16,
    "city": "高岡市",
    "city_kana": "タカオカシ",
    "town": "二上町",
    "town_kana": "フタガミマチ",
    "street": "１８０番地",
    "office_name": "富山大学　高岡キャンパス",
    "office_name_kana": "トヤマダイガク タカオカキヤンパス"
  },
  "8601": {
    "postcode": "9338601",
    "prefecture": "富山県",
    "prefecture_kana": "トヤマケン",
    "prefecture_code": 16,
    "city": "高岡市",
    "city_kana": "タカオカシ",
    "town": "広小路",
    "town_kana": "ヒロコウジ",
    "street": "７−５０",
    "office_name": "高岡市役所",
    "office_name_kana": "タカオカシヤクシヨ"
  },
  "8603": {
    "postcode": "9338603",
    "prefecture": "富山県",
    "prefecture_kana": "トヤマケン",
    "prefecture_code": 16,
    "city": "高岡市",
    "city_kana": "タカオカシ",
    "town": "昭和町",
    "town_kana": "ショウワマチ",
    "street": "２丁目３−８（高岡郵便局私書箱第７１号）",
    "office_name": "株式会社　光伸製作所",
    "office_name_kana": "カブシキガイシヤ コウシンセイサクシヨ"
  },
  "8605": {
    "postcode": "9338605",
    "prefecture": "富山県",
    "prefecture_kana": "トヤマケン",
    "prefecture_code": 16,
    "city": "高岡市",
    "city_kana": "タカオカシ",
    "town": "昭和町",
    "town_kana": "ショウワマチ",
    "street": "３丁目３−１０（高岡郵便局私書箱第１２号）",
    "office_name": "富源商事　株式会社",
    "office_name_kana": "フゲンシヨウジ カブシキガイシヤ"
  },
  "8606": {
    "postcode": "9338606",
    "prefecture": "富山県",
    "prefecture_kana": "トヤマケン",
    "prefecture_code": 16,
    "city": "高岡市",
    "city_kana": "タカオカシ",
    "town": "下関町",
    "town_kana": "シモゼキマチ",
    "street": "３番１号（高岡郵便局私書箱第４２号）",
    "office_name": "株式会社　富山銀行　本店",
    "office_name_kana": "カブシキガイシヤ トヤマギンコウ ホンテン"
  },
  "8610": {
    "postcode": "9338610",
    "prefecture": "富山県",
    "prefecture_kana": "トヤマケン",
    "prefecture_code": 16,
    "city": "高岡市",
    "city_kana": "タカオカシ",
    "town": "早川",
    "town_kana": "ハヤカワ",
    "street": "７０",
    "office_name": "三協立山　株式会社",
    "office_name_kana": "サンキヨウタテヤマ カブシキガイシヤ"
  },
  "8611": {
    "postcode": "9338611",
    "prefecture": "富山県",
    "prefecture_kana": "トヤマケン",
    "prefecture_code": 16,
    "city": "高岡市",
    "city_kana": "タカオカシ",
    "town": "守山町",
    "town_kana": "モリヤママチ",
    "street": "６８（高岡郵便局私書箱第１５号）",
    "office_name": "高岡信用金庫　本店",
    "office_name_kana": "タカオカシンヨウキンコ ホンテン"
  },
  "8628": {
    "postcode": "9338628",
    "prefecture": "富山県",
    "prefecture_kana": "トヤマケン",
    "prefecture_code": 16,
    "city": "高岡市",
    "city_kana": "タカオカシ",
    "town": "二塚",
    "town_kana": "フタヅカ",
    "street": "３２２−３",
    "office_name": "株式会社　タカギセイコー",
    "office_name_kana": "カブシキガイシヤ タカギセイコ-"
  },
  "8666": {
    "postcode": "9338666",
    "prefecture": "富山県",
    "prefecture_kana": "トヤマケン",
    "prefecture_code": 16,
    "city": "高岡市",
    "city_kana": "タカオカシ",
    "town": "宮田町",
    "town_kana": "ミヤタマチ",
    "street": "９−１６（高岡郵便局私書箱第２２号）",
    "office_name": "第一物産　株式会社",
    "office_name_kana": "ダイイチブツサン カブシキガイシヤ"
  },
  "8688": {
    "postcode": "9338688",
    "prefecture": "富山県",
    "prefecture_kana": "トヤマケン",
    "prefecture_code": 16,
    "city": "高岡市",
    "city_kana": "タカオカシ",
    "town": "片原町",
    "town_kana": "カタハラマチ",
    "street": "１−１（高岡郵便局私書箱第８号）",
    "office_name": "株式会社　北陸銀行　高岡支店",
    "office_name_kana": "カブシキガイシヤ ホクリクギンコウ タカオカシテン"
  },
  "8777": {
    "postcode": "9338777",
    "prefecture": "富山県",
    "prefecture_kana": "トヤマケン",
    "prefecture_code": 16,
    "city": "高岡市",
    "city_kana": "タカオカシ",
    "town": "京田",
    "town_kana": "キョウデン",
    "street": "６２６番１",
    "office_name": "株式会社　インテック",
    "office_name_kana": "カブシキガイシヤ インテツク"
  },
  "8788": {
    "postcode": "9338788",
    "prefecture": "富山県",
    "prefecture_kana": "トヤマケン",
    "prefecture_code": 16,
    "city": "高岡市",
    "city_kana": "タカオカシ",
    "town": "昭和町",
    "town_kana": "ショウワマチ",
    "street": "３丁目２番１２号",
    "office_name": "トナミホールディングス　株式会社",
    "office_name_kana": "トナミホ-ルデイングス カブシキガイシヤ"
  }
}