{
  "0000": {
    "postcode": "9400000",
    "prefecture": "新潟県",
    "prefecture_kana": "ニイガタケン",
    "prefecture_code": 15,
    "city": "長岡市",
    "city_kana": "ナガオカシ",
    "town": "",
    "town_kana": "",
    "street": null,
    "office_name": null,
    "office_name_kana": null
  },
  "0001": {
    "postcode": "9400001",
    "prefecture": "新潟県",
    "prefecture_kana": "ニイガタケン",
    "prefecture_code": 15,
    "city": "長岡市",
    "city_kana": "ナガオカシ",
    "town": "川辺町",
    "town_kana": "カワベマチ",
    "street": null,
    "office_name": null,
    "office_name_kana": null
  },
  "0002": {
    "postcode": "9400002",
    "prefecture": "新潟県",
    "prefecture_kana": "ニイガタケン",
    "prefecture_code": 15,
    "city": "長岡市",
    "city_kana": "ナガオカシ",
    "town": "十二潟町",
    "town_kana": "ジュウニガタマチ",
    "street": null,
    "office_name": null,
    "office_name_kana": null
  },
  "0003": {
    "postcode": "9400003",
    "prefecture": "新潟県",
    "prefecture_kana": "ニイガタケン",
    "prefecture_code": 15,
    "city": "長岡市",
    "city_kana": "ナガオカシ",
    "town": "高見",
    "town_kana": "タカミ",
    "street": null,
    "office_name": null,
    "office_name_kana": null
  },
  "0004": {
    "postcode": "9400004",
    "prefecture": "新潟県",
    "prefecture_kana": "ニイガタケン",
    "prefecture_code": 15,
    "city": "長岡市",
    "city_kana": "ナガオカシ",
    "town": "高見町",
    "town_kana": "タカミマチ",
    "street": null,
    "office_name": null,
    "office_name_kana": null
  },
  "0006": {
    "postcode": "9400006",
    "prefecture": "新潟県",
    "prefecture_kana": "ニイガタケン",
    "prefecture_code": 15,
    "city": "長岡市",
    "city_kana": "ナガオカシ",
    "town": "東高見",
    "town_kana": "ヒガシタカミ",
    "street": null,
    "office_name": null,
    "office_name_kana": null
  },
  "0007": {
    "postcode": "9400007",
    "prefecture": "新潟県",
    "prefecture_kana": "ニイガタケン",
    "prefecture_code": 15,
    "city": "長岡市",
    "city_kana": "ナガオカシ",
    "town": "黒津町",
    "town_kana": "クロヅマチ",
    "street": null,
    "office_name": null,
    "office_name_kana": null
  },
  "0008": {
    "postcode": "9400008",
    "prefecture": "新潟県",
    "prefecture_kana": "ニイガタケン",
    "prefecture_code": 15,
    "city": "長岡市",
    "city_kana": "ナガオカシ",
    "town": "天神町",
    "town_kana": "テンジンマチ",
    "street": null,
    "office_name": null,
    "office_name_kana": null
  },
  "0011": {
    "postcode": "9400011",
    "prefecture": "新潟県",
    "prefecture_kana": "ニイガタケン",
    "prefecture_code": 15,
    "city": "長岡市",
    "city_kana": "ナガオカシ",
    "town": "下々条町",
    "town_kana": "シモゲジョウマチ",
    "street": null,
    "office_name": null,
    "office_name_kana": null
  },
  "0012": {
    "postcode": "9400012",
    "prefecture": "新潟県",
    "prefecture_kana": "ニイガタケン",
    "prefecture_code": 15,
    "city": "長岡市",
    "city_kana": "ナガオカシ",
    "town": "下々条",
    "town_kana": "シモゲジョウ",
    "street": null,
    "office_name": null,
    "office_name_kana": null
  },
  "0013": {
    "postcode": "9400013",
    "prefecture": "新潟県",
    "prefecture_kana": "ニイガタケン",
    "prefecture_code": 15,
    "city": "長岡市",
    "city_kana": "ナガオカシ",
    "town": "原町",
    "town_kana": "ハラマチ",
    "street": null,
    "office_name": null,
    "office_name_kana": null
  },
  "0014": {
    "postcode": "9400014",
    "prefecture": "新潟県",
    "prefecture_kana": "ニイガタケン",
    "prefecture_code": 15,
    "city": "長岡市",
    "city_kana": "ナガオカシ",
    "town": "北園町",
    "town_kana": "キタゾノマチ",
    "street": null,
    "office_name": null,
    "office_name_kana": null
  },
  "0015": {
    "postcode": "9400015",
    "prefecture": "新潟県",
    "prefecture_kana": "ニイガタケン",
    "prefecture_code": 15,
    "city": "長岡市",
    "city_kana": "ナガオカシ",
    "town": "寿",
    "town_kana": "コトブキ",
    "street": null,
    "office_name": null,
    "office_name_kana": null
  },
  "0016": {
    "postcode": "9400016",
    "prefecture": "新潟県",
    "prefecture_kana": "ニイガタケン",
    "prefecture_code": 15,
    "city": "長岡市",
    "city_kana": "ナガオカシ",
    "town": "宝",
    "town_kana": "タカラ",
    "street": null,
    "office_name": null,
    "office_name_kana": null
  },
  "0017": {
    "postcode": "9400017",
    "prefecture": "新潟県",
    "prefecture_kana": "ニイガタケン",
    "prefecture_code": 15,
    "city": "長岡市",
    "city_kana": "ナガオカシ",
    "town": "中瀬",
    "town_kana": "ナカセ",
    "street": null,
    "office_name": null,
    "office_name_kana": null
  },
  "0021": {
    "postcode": "9400021",
    "prefecture": "新潟県",
    "prefecture_kana": "ニイガタケン",
    "prefecture_code": 15,
    "city": "長岡市",
    "city_kana": "ナガオカシ",
    "town": "城岡",
    "town_kana": "ジョウオカ",
    "street": null,
    "office_name": null,
    "office_name_kana": null
  },
  "0022": {
    "postcode": "9400022",
    "prefecture": "新潟県",
    "prefecture_kana": "ニイガタケン",
    "prefecture_code": 15,
    "city": "長岡市",
    "city_kana": "ナガオカシ",
    "town": "東新町",
    "town_kana": "ヒガシアラマチ",
    "street": null,
    "office_name": null,
    "office_name_kana": null
  },
  "0023": {
    "postcode": "9400023",
    "prefecture": "新潟県",
    "prefecture_kana": "ニイガタケン",
    "prefecture_code": 15,
    "city": "長岡市",
    "city_kana": "ナガオカシ",
    "town": "新町",
    "town_kana": "アラマチ",
    "street": null,
    "office_name": null,
    "office_name_kana": null
  },
  "0024": {
    "postcode": "9400024",
    "prefecture": "新潟県",
    "prefecture_kana": "ニイガタケン",
    "prefecture_code": 15,
    "city": "長岡市",
    "city_kana": "ナガオカシ",
    "town": "西新町",
    "town_kana": "ニシアラマチ",
    "street": null,
    "office_name": null,
    "office_name_kana": null
  },
  "0025": {
    "postcode": "9400025",
    "prefecture": "新潟県",
    "prefecture_kana": "ニイガタケン",
    "prefecture_code": 15,
    "city": "長岡市",
    "city_kana": "ナガオカシ",
    "town": "泉",
    "town_kana": "イズミ",
    "street": null,
    "office_name": null,
    "office_name_kana": null
  },
  "0026": {
    "postcode": "9400026",
    "prefecture": "新潟県",
    "prefecture_kana": "ニイガタケン",
    "prefecture_code": 15,
    "city": "長岡市",
    "city_kana": "ナガオカシ",
    "town": "石内",
    "town_kana": "イシウチ",
    "street": null,
    "office_name": null,
    "office_name_kana": null
  },
  "0027": {
    "postcode": "9400027",
    "prefecture": "新潟県",
    "prefecture_kana": "ニイガタケン",
    "prefecture_code": 15,
    "city": "長岡市",
    "city_kana": "ナガオカシ",
    "town": "西蔵王",
    "town_kana": "ニシザオウ",
    "street": null,
    "office_name": null,
    "office_name_kana": null
  },
  "0028": {
    "postcode": "9400028",
    "prefecture": "新潟県",
    "prefecture_kana": "ニイガタケン",
    "prefecture_code": 15,
    "city": "長岡市",
    "city_kana": "ナガオカシ",
    "town": "蔵王",
    "town_kana": "ザオウ",
    "street": null,
    "office_name": null,
    "office_name_kana": null
  },
  "0029": {
    "postcode": "9400029",
    "prefecture": "新潟県",
    "prefecture_kana": "ニイガタケン",
    "prefecture_code": 15,
    "city": "長岡市",
    "city_kana": "ナガオカシ",
    "town": "東蔵王",
    "town_kana": "ヒガシザオウ",
    "street": null,
    "office_name": null,
    "office_name_kana": null
  },
  "0031": {
    "postcode": "9400031",
    "prefecture": "新潟県",
    "prefecture_kana": "ニイガタケン",
    "prefecture_code": 15,
    "city": "長岡市",
    "city_kana": "ナガオカシ",
    "town": "地蔵",
    "town_kana": "ジゾウ",
    "street": null,
    "office_name": null,
    "office_name_kana": null
  },
  "0032": {
    "postcode": "9400032",
    "prefecture": "新潟県",
    "prefecture_kana": "ニイガタケン",
    "prefecture_code": 15,
    "city": "長岡市",
    "city_kana": "ナガオカシ",
    "town": "干場",
    "town_kana": "ホシバ",
    "street": null,
    "office_name": null,
    "office_name_kana": null
  },
  "0033": {
    "postcode": "9400033",
    "prefecture": "新潟県",
    "prefecture_kana": "ニイガタケン",
    "prefecture_code": 15,
    "city": "長岡市",
    "city_kana": "ナガオカシ",
    "town": "今朝白",
    "town_kana": "ケサジロ",
    "street": null,
    "office_name": null,
    "office_name_kana": null
  },
  "0034": {
    "postcode": "9400034",
    "prefecture": "新潟県",
    "prefecture_kana": "ニイガタケン",
    "prefecture_code": 15,
    "city": "長岡市",
    "city_kana": "ナガオカシ",
    "town": "福住",
    "town_kana": "フクズミ",
    "street": null,
    "office_name": null,
    "office_name_kana": null
  },
  "0035": {
    "postcode": "9400035",
    "prefecture": "新潟県",
    "prefecture_kana": "ニイガタケン",
    "prefecture_code": 15,
    "city": "長岡市",
    "city_kana": "ナガオカシ",
    "town": "東神田",
    "town_kana": "ヒガシカンダ",
    "street": null,
    "office_name": null,
    "office_name_kana": null
  },
  "0036": {
    "postcode": "9400036",
    "prefecture": "新潟県",
    "prefecture_kana": "ニイガタケン",
    "prefecture_code": 15,
    "city": "長岡市",
    "city_kana": "ナガオカシ",
    "town": "愛宕",
    "town_kana": "アタゴ",
    "street": null,
    "office_name": null,
    "office_name_kana": null
  },
  "0037": {
    "postcode": "9400037",
    "prefecture": "新潟県",
    "prefecture_kana": "ニイガタケン",
    "prefecture_code": 15,
    "city": "長岡市",
    "city_kana": "ナガオカシ",
    "town": "東栄",
    "town_kana": "ヒガシサカエ",
    "street": null,
    "office_name": null,
    "office_name_kana": null
  },
  "0038": {
    "postcode": "9400038",
    "prefecture": "新潟県",
    "prefecture_kana": "ニイガタケン",
    "prefecture_code": 15,
    "city": "長岡市",
    "city_kana": "ナガオカシ",
    "town": "琴平",
    "town_kana": "コトヒラ",
    "street": null,
    "office_name": null,
    "office_name_kana": null
  },
  "0041": {
    "postcode": "9400041",
    "prefecture": "新潟県",
    "prefecture_kana": "ニイガタケン",
    "prefecture_code": 15,
    "city": "長岡市",
    "city_kana": "ナガオカシ",
    "town": "学校町",
    "town_kana": "ガッコウチョウ",
    "street": null,
    "office_name": null,
    "office_name_kana": null
  },
  "0042": {
    "postcode": "9400042",
    "prefecture": "新潟県",
    "prefecture_kana": "ニイガタケン",
    "prefecture_code": 15,
    "city": "長岡市",
    "city_kana": "ナガオカシ",
    "town": "前田",
    "town_kana": "マエダ",
    "street": null,
    "office_name": null,
    "office_name_kana": null
  },
  "0043": {
    "postcode": "9400043",
    "prefecture": "新潟県",
    "prefecture_kana": "ニイガタケン",
    "prefecture_code": 15,
    "city": "長岡市",
    "city_kana": "ナガオカシ",
    "town": "土合",
    "town_kana": "ドアイ",
    "street": null,
    "office_name": null,
    "office_name_kana": null
  },
  "0044": {
    "postcode": "9400044",
    "prefecture": "新潟県",
    "prefecture_kana": "ニイガタケン",
    "prefecture_code": 15,
    "city": "長岡市",
    "city_kana": "ナガオカシ",
    "town": "住吉",
    "town_kana": "スミヨシ",
    "street": null,
    "office_name": null,
    "office_name_kana": null
  },
  "0045": {
    "postcode": "9400045",
    "prefecture": "新潟県",
    "prefecture_kana": "ニイガタケン",
    "prefecture_code": 15,
    "city": "長岡市",
    "city_kana": "ナガオカシ",
    "town": "金房",
    "town_kana": "カネフサ",
    "street": null,
    "office_name": null,
    "office_name_kana": null
  },
  "0046": {
    "postcode": "9400046",
    "prefecture": "新潟県",
    "prefecture_kana": "ニイガタケン",
    "prefecture_code": 15,
    "city": "長岡市",
    "city_kana": "ナガオカシ",
    "town": "四郎丸",
    "town_kana": "シロウマル",
    "street": null,
    "office_name": null,
    "office_name_kana": null
  },
  "0047": {
    "postcode": "9400047",
    "prefecture": "新潟県",
    "prefecture_kana": "ニイガタケン",
    "prefecture_code": 15,
    "city": "長岡市",
    "city_kana": "ナガオカシ",
    "town": "弓町",
    "town_kana": "ユミチョウ",
    "street": null,
    "office_name": null,
    "office_name_kana": null
  },
  "0048": {
    "postcode": "9400048",
    "prefecture": "新潟県",
    "prefecture_kana": "ニイガタケン",
    "prefecture_code": 15,
    "city": "長岡市",
    "city_kana": "ナガオカシ",
    "town": "台町",
    "town_kana": "ダイマチ",
    "street": null,
    "office_name": null,
    "office_name_kana": null
  },
  "0051": {
    "postcode": "9400051",
    "prefecture": "新潟県",
    "prefecture_kana": "ニイガタケン",
    "prefecture_code": 15,
    "city": "長岡市",
    "city_kana": "ナガオカシ",
    "town": "西神田町",
    "town_kana": "ニシカンダマチ",
    "street": null,
    "office_name": null,
    "office_name_kana": null
  },
  "0052": {
    "postcode": "9400052",
    "prefecture": "新潟県",
    "prefecture_kana": "ニイガタケン",
    "prefecture_code": 15,
    "city": "長岡市",
    "city_kana": "ナガオカシ",
    "town": "神田町",
    "town_kana": "カンダマチ",
    "street": null,
    "office_name": null,
    "office_name_kana": null
  },
  "0053": {
    "postcode": "9400053",
    "prefecture": "新潟県",
    "prefecture_kana": "ニイガタケン",
    "prefecture_code": 15,
    "city": "長岡市",
    "city_kana": "ナガオカシ",
    "town": "長町",
    "town_kana": "ナガチョウ",
    "street": null,
    "office_name": null,
    "office_name_kana": null
  },
  "0054": {
    "postcode": "9400054",
    "prefecture": "新潟県",
    "prefecture_kana": "ニイガタケン",
    "prefecture_code": 15,
    "city": "長岡市",
    "city_kana": "ナガオカシ",
    "town": "稽古町",
    "town_kana": "ケイコチョウ",
    "street": null,
    "office_name": null,
    "office_name_kana": null
  },
  "0055": {
    "postcode": "9400055",
    "prefecture": "新潟県",
    "prefecture_kana": "ニイガタケン",
    "prefecture_code": 15,
    "city": "長岡市",
    "city_kana": "ナガオカシ",
    "town": "袋町",
    "town_kana": "フクロマチ",
    "street": null,
    "office_name": null,
    "office_name_kana": null
  },
  "0056": {
    "postcode": "9400056",
    "prefecture": "新潟県",
    "prefecture_kana": "ニイガタケン",
    "prefecture_code": 15,
    "city": "長岡市",
    "city_kana": "ナガオカシ",
    "town": "呉服町",
    "town_kana": "ゴフクマチ",
    "street": null,
    "office_name": null,
    "office_name_kana": null
  },
  "0061": {
    "postcode": "9400061",
    "prefecture": "新潟県",
    "prefecture_kana": "ニイガタケン",
    "prefecture_code": 15,
    "city": "長岡市",
    "city_kana": "ナガオカシ",
    "town": "城内町",
    "town_kana": "ジョウナイチョウ",
    "street": null,
    "office_name": null,
    "office_name_kana": null
  },
  "0062": {
    "postcode": "9400062",
    "prefecture": "新潟県",
    "prefecture_kana": "ニイガタケン",
    "prefecture_code": 15,
    "city": "長岡市",
    "city_kana": "ナガオカシ",
    "town": "大手通",
    "town_kana": "オオテドオリ",
    "street": null,
    "office_name": null,
    "office_name_kana": null
  },
  "0063": {
    "postcode": "9400063",
    "prefecture": "新潟県",
    "prefecture_kana": "ニイガタケン",
    "prefecture_code": 15,
    "city": "長岡市",
    "city_kana": "ナガオカシ",
    "town": "旭町",
    "town_kana": "アサヒマチ",
    "street": null,
    "office_name": null,
    "office_name_kana": null
  },
  "0064": {
    "postcode": "9400064",
    "prefecture": "新潟県",
    "prefecture_kana": "ニイガタケン",
    "prefecture_code": 15,
    "city": "長岡市",
    "city_kana": "ナガオカシ",
    "town": "殿町",
    "town_kana": "トノマチ",
    "street": null,
    "office_name": null,
    "office_name_kana": null
  },
  "0065": {
    "postcode": "9400065",
    "prefecture": "新潟県",
    "prefecture_kana": "ニイガタケン",
    "prefecture_code": 15,
    "city": "長岡市",
    "city_kana": "ナガオカシ",
    "town": "坂之上町",
    "town_kana": "サカノウエマチ",
    "street": null,
    "office_name": null,
    "office_name_kana": null
  },
  "0066": {
    "postcode": "9400066",
    "prefecture": "新潟県",
    "prefecture_kana": "ニイガタケン",
    "prefecture_code": 15,
    "city": "長岡市",
    "city_kana": "ナガオカシ",
    "town": "東坂之上町",
    "town_kana": "ヒガシサカノウエマチ",
    "street": null,
    "office_name": null,
    "office_name_kana": null
  },
  "0067": {
    "postcode": "9400067",
    "prefecture": "新潟県",
    "prefecture_kana": "ニイガタケン",
    "prefecture_code": 15,
    "city": "長岡市",
    "city_kana": "ナガオカシ",
    "town": "関東町",
    "town_kana": "カントウマチ",
    "street": null,
    "office_name": null,
    "office_name_kana": null
  },
  "0071": {
    "postcode": "9400071",
    "prefecture": "新潟県",
    "prefecture_kana": "ニイガタケン",
    "prefecture_code": 15,
    "city": "長岡市",
    "city_kana": "ナガオカシ",
    "town": "表町",
    "town_kana": "オモテマチ",
    "street": null,
    "office_name": null,
    "office_name_kana": null
  },
  "0072": {
    "postcode": "9400072",
    "prefecture": "新潟県",
    "prefecture_kana": "ニイガタケン",
    "prefecture_code": 15,
    "city": "長岡市",
    "city_kana": "ナガオカシ",
    "town": "柳原町",
    "town_kana": "ヤナギハラマチ",
    "street": null,
    "office_name": null,
    "office_name_kana": null
  },
  "0073": {
    "postcode": "9400073",
    "prefecture": "新潟県",
    "prefecture_kana": "ニイガタケン",
    "prefecture_code": 15,
    "city": "長岡市",
    "city_kana": "ナガオカシ",
    "town": "船江町",
    "town_kana": "フナエチョウ",
    "street": null,
    "office_name": null,
    "office_name_kana": null
  },
  "0074": {
    "postcode": "9400074",
    "prefecture": "新潟県",
    "prefecture_kana": "ニイガタケン",
    "prefecture_code": 15,
    "city": "長岡市",
    "city_kana": "ナガオカシ",
    "town": "上田町",
    "town_kana": "ウエダマチ",
    "street": null,
    "office_name": null,
    "office_name_kana": null
  },
  "0075": {
    "postcode": "9400075",
    "prefecture": "新潟県",
    "prefecture_kana": "ニイガタケン",
    "prefecture_code": 15,
    "city": "長岡市",
    "city_kana": "ナガオカシ",
    "town": "渡里町",
    "town_kana": "ワタリマチ",
    "street": null,
    "office_name": null,
    "office_name_kana": null
  },
  "0076": {
    "postcode": "9400076",
    "prefecture": "新潟県",
    "prefecture_kana": "ニイガタケン",
    "prefecture_code": 15,
    "city": "長岡市",
    "city_kana": "ナガオカシ",
    "town": "本町",
    "town_kana": "ホンチョウ",
    "street": null,
    "office_name": null,
    "office_name_kana": null
  },
  "0081": {
    "postcode": "9400081",
    "prefecture": "新潟県",
    "prefecture_kana": "ニイガタケン",
    "prefecture_code": 15,
    "city": "長岡市",
    "city_kana": "ナガオカシ",
    "town": "南町",
    "town_kana": "ミナミマチ",
    "street": null,
    "office_name": null,
    "office_name_kana": null
  },
  "0082": {
    "postcode": "9400082",
    "prefecture": "新潟県",
    "prefecture_kana": "ニイガタケン",
    "prefecture_code": 15,
    "city": "長岡市",
    "city_kana": "ナガオカシ",
    "town": "千歳",
    "town_kana": "センザイ",
    "street": null,
    "office_name": null,
    "office_name_kana": null
  },
  "0083": {
    "postcode": "9400083",
    "prefecture": "新潟県",
    "prefecture_kana": "ニイガタケン",
    "prefecture_code": 15,
    "city": "長岡市",
    "city_kana": "ナガオカシ",
    "town": "宮原",
    "town_kana": "ミヤバラ",
    "street": null,
    "office_name": null,
    "office_name_kana": null
  },
  "0084": {
    "postcode": "9400084",
    "prefecture": "新潟県",
    "prefecture_kana": "ニイガタケン",
    "prefecture_code": 15,
    "city": "長岡市",
    "city_kana": "ナガオカシ",
    "town": "幸町",
    "town_kana": "サイワイチョウ",
    "street": null,
    "office_name": null,
    "office_name_kana": null
  },
  "0085": {
    "postcode": "9400085",
    "prefecture": "新潟県",
    "prefecture_kana": "ニイガタケン",
    "prefecture_code": 15,
    "city": "長岡市",
    "city_kana": "ナガオカシ",
    "town": "草生津",
    "town_kana": "クソウヅ",
    "street": null,
    "office_name": null,
    "office_name_kana": null
  },
  "0086": {
    "postcode": "9400086",
    "prefecture": "新潟県",
    "prefecture_kana": "ニイガタケン",
    "prefecture_code": 15,
    "city": "長岡市",
    "city_kana": "ナガオカシ",
    "town": "西千手",
    "town_kana": "ニシセンジュ",
    "street": null,
    "office_name": null,
    "office_name_kana": null
  },
  "0087": {
    "postcode": "9400087",
    "prefecture": "新潟県",
    "prefecture_kana": "ニイガタケン",
    "prefecture_code": 15,
    "city": "長岡市",
    "city_kana": "ナガオカシ",
    "town": "千手",
    "town_kana": "センジュ",
    "street": null,
    "office_name": null,
    "office_name_kana": null
  },
  "0088": {
    "postcode": "9400088",
    "prefecture": "新潟県",
    "prefecture_kana": "ニイガタケン",
    "prefecture_code": 15,
    "city": "長岡市",
    "city_kana": "ナガオカシ",
    "town": "柏町",
    "town_kana": "カシワチョウ",
    "street": null,
    "office_name": null,
    "office_name_kana": null
  },
  "0091": {
    "postcode": "9400091",
    "prefecture": "新潟県",
    "prefecture_kana": "ニイガタケン",
    "prefecture_code": 15,
    "city": "長岡市",
    "city_kana": "ナガオカシ",
    "town": "松葉",
    "town_kana": "マツバ",
    "street": null,
    "office_name": null,
    "office_name_kana": null
  },
  "0092": {
    "postcode": "9400092",
    "prefecture": "新潟県",
    "prefecture_kana": "ニイガタケン",
    "prefecture_code": 15,
    "city": "長岡市",
    "city_kana": "ナガオカシ",
    "town": "昭和",
    "town_kana": "ショウワ",
    "street": null,
    "office_name": null,
    "office_name_kana": null
  },
  "0093": {
    "postcode": "9400093",
    "prefecture": "新潟県",
    "prefecture_kana": "ニイガタケン",
    "prefecture_code": 15,
    "city": "長岡市",
    "city_kana": "ナガオカシ",
    "town": "水道町",
    "town_kana": "スイドウチョウ",
    "street": null,
    "office_name": null,
    "office_name_kana": null
  },
  "0094": {
    "postcode": "9400094",
    "prefecture": "新潟県",
    "prefecture_kana": "ニイガタケン",
    "prefecture_code": 15,
    "city": "長岡市",
    "city_kana": "ナガオカシ",
    "town": "中島",
    "town_kana": "ナカジマ",
    "street": null,
    "office_name": null,
    "office_name_kana": null
  },
  "0095": {
    "postcode": "9400095",
    "prefecture": "新潟県",
    "prefecture_kana": "ニイガタケン",
    "prefecture_code": 15,
    "city": "長岡市",
    "city_kana": "ナガオカシ",
    "town": "日赤町",
    "town_kana": "ニッセキチョウ",
    "street": null,
    "office_name": null,
    "office_name_kana": null
  },
  "0096": {
    "postcode": "9400096",
    "prefecture": "新潟県",
    "prefecture_kana": "ニイガタケン",
    "prefecture_code": 15,
    "city": "長岡市",
    "city_kana": "ナガオカシ",
    "town": "春日",
    "town_kana": "カスガ",
    "street": null,
    "office_name": null,
    "office_name_kana": null
  },
  "0097": {
    "postcode": "9400097",
    "prefecture": "新潟県",
    "prefecture_kana": "ニイガタケン",
    "prefecture_code": 15,
    "city": "長岡市",
    "city_kana": "ナガオカシ",
    "town": "山田",
    "town_kana": "ヤマダ",
    "street": null,
    "office_name": null,
    "office_name_kana": null
  },
  "0098": {
    "postcode": "9400098",
    "prefecture": "新潟県",
    "prefecture_kana": "ニイガタケン",
    "prefecture_code": 15,
    "city": "長岡市",
    "city_kana": "ナガオカシ",
    "town": "信濃",
    "town_kana": "シナノ",
    "street": null,
    "office_name": null,
    "office_name_kana": null
  },
  "0101": {
    "postcode": "9400101",
    "prefecture": "新潟県",
    "prefecture_kana": "ニイガタケン",
    "prefecture_code": 15,
    "city": "長岡市",
    "city_kana": "ナガオカシ",
    "town": "文納",
    "town_kana": "ブンノウ",
    "street": null,
    "office_name": null,
    "office_name_kana": null
  },
  "0102": {
    "postcode": "9400102",
    "prefecture": "新潟県",
    "prefecture_kana": "ニイガタケン",
    "prefecture_code": 15,
    "city": "長岡市",
    "city_kana": "ナガオカシ",
    "town": "人面",
    "town_kana": "ヒトヅラ",
    "street": null,
    "office_name": null,
    "office_name_kana": null
  },
  "0103": {
    "postcode": "9400103",
    "prefecture": "新潟県",
    "prefecture_kana": "ニイガタケン",
    "prefecture_code": 15,
    "city": "長岡市",
    "city_kana": "ナガオカシ",
    "town": "二ツ郷屋",
    "town_kana": "フタツゴウヤ",
    "street": null,
    "office_name": null,
    "office_name_kana": null
  },
  "0104": {
    "postcode": "9400104",
    "prefecture": "新潟県",
    "prefecture_kana": "ニイガタケン",
    "prefecture_code": 15,
    "city": "長岡市",
    "city_kana": "ナガオカシ",
    "town": "山屋",
    "town_kana": "ヤマヤ",
    "street": null,
    "office_name": null,
    "office_name_kana": null
  },
  "0105": {
    "postcode": "9400105",
    "prefecture": "新潟県",
    "prefecture_kana": "ニイガタケン",
    "prefecture_code": 15,
    "city": "長岡市",
    "city_kana": "ナガオカシ",
    "town": "明戸",
    "town_kana": "アケト",
    "street": null,
    "office_name": null,
    "office_name_kana": null
  },
  "0106": {
    "postcode": "9400106",
    "prefecture": "新潟県",
    "prefecture_kana": "ニイガタケン",
    "prefecture_code": 15,
    "city": "長岡市",
    "city_kana": "ナガオカシ",
    "town": "水沢",
    "town_kana": "ミズサワ",
    "street": null,
    "office_name": null,
    "office_name_kana": null
  },
  "0111": {
    "postcode": "9400111",
    "prefecture": "新潟県",
    "prefecture_kana": "ニイガタケン",
    "prefecture_code": 15,
    "city": "長岡市",
    "city_kana": "ナガオカシ",
    "town": "下塩",
    "town_kana": "シモジオ",
    "street": null,
    "office_name": null,
    "office_name_kana": null
  },
  "0112": {
    "postcode": "9400112",
    "prefecture": "新潟県",
    "prefecture_kana": "ニイガタケン",
    "prefecture_code": 15,
    "city": "長岡市",
    "city_kana": "ナガオカシ",
    "town": "二日町",
    "town_kana": "フツカマチ",
    "street": null,
    "office_name": null,
    "office_name_kana": null
  },
  "0113": {
    "postcode": "9400113",
    "prefecture": "新潟県",
    "prefecture_kana": "ニイガタケン",
    "prefecture_code": 15,
    "city": "長岡市",
    "city_kana": "ナガオカシ",
    "town": "熊袋",
    "town_kana": "クマノフクロ",
    "street": null,
    "office_name": null,
    "office_name_kana": null
  },
  "0114": {
    "postcode": "9400114",
    "prefecture": "新潟県",
    "prefecture_kana": "ニイガタケン",
    "prefecture_code": 15,
    "city": "長岡市",
    "city_kana": "ナガオカシ",
    "town": "山口",
    "town_kana": "ヤマグチ",
    "street": null,
    "office_name": null,
    "office_name_kana": null
  },
  "0115": {
    "postcode": "9400115",
    "prefecture": "新潟県",
    "prefecture_kana": "ニイガタケン",
    "prefecture_code": 15,
    "city": "長岡市",
    "city_kana": "ナガオカシ",
    "town": "下樫出",
    "town_kana": "シモカシイデ",
    "street": null,
    "office_name": null,
    "office_name_kana": null
  },
  "0116": {
    "postcode": "9400116",
    "prefecture": "新潟県",
    "prefecture_kana": "ニイガタケン",
    "prefecture_code": 15,
    "city": "長岡市",
    "city_kana": "ナガオカシ",
    "town": "上樫出",
    "town_kana": "カミカシイデ",
    "street": null,
    "office_name": null,
    "office_name_kana": null
  },
  "0121": {
    "postcode": "9400121",
    "prefecture": "新潟県",
    "prefecture_kana": "ニイガタケン",
    "prefecture_code": 15,
    "city": "長岡市",
    "city_kana": "ナガオカシ",
    "town": "九川",
    "town_kana": "クカワ",
    "street": null,
    "office_name": null,
    "office_name_kana": null
  },
  "0122": {
    "postcode": "9400122",
    "prefecture": "新潟県",
    "prefecture_kana": "ニイガタケン",
    "prefecture_code": 15,
    "city": "長岡市",
    "city_kana": "ナガオカシ",
    "town": "塩中",
    "town_kana": "シオナカ",
    "street": null,
    "office_name": null,
    "office_name_kana": null
  },
  "0123": {
    "postcode": "9400123",
    "prefecture": "新潟県",
    "prefecture_kana": "ニイガタケン",
    "prefecture_code": 15,
    "city": "長岡市",
    "city_kana": "ナガオカシ",
    "town": "梅野俣",
    "town_kana": "ウメノマタ",
    "street": null,
    "office_name": null,
    "office_name_kana": null
  },
  "0124": {
    "postcode": "9400124",
    "prefecture": "新潟県",
    "prefecture_kana": "ニイガタケン",
    "prefecture_code": 15,
    "city": "長岡市",
    "city_kana": "ナガオカシ",
    "town": "平中野俣",
    "town_kana": "ヒラナカノマタ",
    "street": null,
    "office_name": null,
    "office_name_kana": null
  },
  "0125": {
    "postcode": "9400125",
    "prefecture": "新潟県",
    "prefecture_kana": "ニイガタケン",
    "prefecture_code": 15,
    "city": "長岡市",
    "city_kana": "ナガオカシ",
    "town": "葎谷",
    "town_kana": "ムグラダニ",
    "street": null,
    "office_name": null,
    "office_name_kana": null
  },
  "0126": {
    "postcode": "9400126",
    "prefecture": "新潟県",
    "prefecture_kana": "ニイガタケン",
    "prefecture_code": 15,
    "city": "長岡市",
    "city_kana": "ナガオカシ",
    "town": "山葵谷",
    "town_kana": "ワサビダニ",
    "street": null,
    "office_name": null,
    "office_name_kana": null
  },
  "0127": {
    "postcode": "9400127",
    "prefecture": "新潟県",
    "prefecture_kana": "ニイガタケン",
    "prefecture_code": 15,
    "city": "長岡市",
    "city_kana": "ナガオカシ",
    "town": "滝之口",
    "town_kana": "タキノクチ",
    "street": null,
    "office_name": null,
    "office_name_kana": null
  },
  "0128": {
    "postcode": "9400128",
    "prefecture": "新潟県",
    "prefecture_kana": "ニイガタケン",
    "prefecture_code": 15,
    "city": "長岡市",
    "city_kana": "ナガオカシ",
    "town": "上塩",
    "town_kana": "カミシオ",
    "street": null,
    "office_name": null,
    "office_name_kana": null
  },
  "0129": {
    "postcode": "9400129",
    "prefecture": "新潟県",
    "prefecture_kana": "ニイガタケン",
    "prefecture_code": 15,
    "city": "長岡市",
    "city_kana": "ナガオカシ",
    "town": "塩新町",
    "town_kana": "シオアラマチ",
    "street": null,
    "office_name": null,
    "office_name_kana": null
  },
  "0131": {
    "postcode": "9400131",
    "prefecture": "新潟県",
    "prefecture_kana": "ニイガタケン",
    "prefecture_code": 15,
    "city": "長岡市",
    "city_kana": "ナガオカシ",
    "town": "吉水",
    "town_kana": "ヨシミズ",
    "street": null,
    "office_name": null,
    "office_name_kana": null
  },
  "0132": {
    "postcode": "9400132",
    "prefecture": "新潟県",
    "prefecture_kana": "ニイガタケン",
    "prefecture_code": 15,
    "city": "長岡市",
    "city_kana": "ナガオカシ",
    "town": "栃尾原",
    "town_kana": "トチオハラ",
    "street": null,
    "office_name": null,
    "office_name_kana": null
  },
  "0133": {
    "postcode": "9400133",
    "prefecture": "新潟県",
    "prefecture_kana": "ニイガタケン",
    "prefecture_code": 15,
    "city": "長岡市",
    "city_kana": "ナガオカシ",
    "town": "巻渕",
    "town_kana": "マキフチ",
    "street": null,
    "office_name": null,
    "office_name_kana": null
  },
  "0134": {
    "postcode": "9400134",
    "prefecture": "新潟県",
    "prefecture_kana": "ニイガタケン",
    "prefecture_code": 15,
    "city": "長岡市",
    "city_kana": "ナガオカシ",
    "town": "栃尾原町",
    "town_kana": "トチオハラマチ",
    "street": null,
    "office_name": null,
    "office_name_kana": null
  },
  "0135": {
    "postcode": "9400135",
    "prefecture": "新潟県",
    "prefecture_kana": "ニイガタケン",
    "prefecture_code": 15,
    "city": "長岡市",
    "city_kana": "ナガオカシ",
    "town": "金沢",
    "town_kana": "カナザワ",
    "street": null,
    "office_name": null,
    "office_name_kana": null
  },
  "0136": {
    "postcode": "9400136",
    "prefecture": "新潟県",
    "prefecture_kana": "ニイガタケン",
    "prefecture_code": 15,
    "city": "長岡市",
    "city_kana": "ナガオカシ",
    "town": "東が丘",
    "town_kana": "ヒガシガオカ",
    "street": null,
    "office_name": null,
    "office_name_kana": null
  },
  "0137": {
    "postcode": "9400137",
    "prefecture": "新潟県",
    "prefecture_kana": "ニイガタケン",
    "prefecture_code": 15,
    "city": "長岡市",
    "city_kana": "ナガオカシ",
    "town": "平",
    "town_kana": "タイラ",
    "street": null,
    "office_name": null,
    "office_name_kana": null
  },
  "0141": {
    "postcode": "9400141",
    "prefecture": "新潟県",
    "prefecture_kana": "ニイガタケン",
    "prefecture_code": 15,
    "city": "長岡市",
    "city_kana": "ナガオカシ",
    "town": "栃尾島田",
    "town_kana": "トチオシマダ",
    "street": null,
    "office_name": null,
    "office_name_kana": null
  },
  "0142": {
    "postcode": "9400142",
    "prefecture": "新潟県",
    "prefecture_kana": "ニイガタケン",
    "prefecture_code": 15,
    "city": "長岡市",
    "city_kana": "ナガオカシ",
    "town": "本所",
    "town_kana": "ホンジョ",
    "street": null,
    "office_name": null,
    "office_name_kana": null
  },
  "0143": {
    "postcode": "9400143",
    "prefecture": "新潟県",
    "prefecture_kana": "ニイガタケン",
    "prefecture_code": 15,
    "city": "長岡市",
    "city_kana": "ナガオカシ",
    "town": "入塩川",
    "town_kana": "イリシオガワ",
    "street": null,
    "office_name": null,
    "office_name_kana": null
  },
  "0144": {
    "postcode": "9400144",
    "prefecture": "新潟県",
    "prefecture_kana": "ニイガタケン",
    "prefecture_code": 15,
    "city": "長岡市",
    "city_kana": "ナガオカシ",
    "town": "菅畑",
    "town_kana": "スガバタケ",
    "street": null,
    "office_name": null,
    "office_name_kana": null
  },
  "0145": {
    "postcode": "9400145",
    "prefecture": "新潟県",
    "prefecture_kana": "ニイガタケン",
    "prefecture_code": 15,
    "city": "長岡市",
    "city_kana": "ナガオカシ",
    "town": "栃堀",
    "town_kana": "トチボリ",
    "street": null,
    "office_name": null,
    "office_name_kana": null
  },
  "0146": {
    "postcode": "9400146",
    "prefecture": "新潟県",
    "prefecture_kana": "ニイガタケン",
    "prefecture_code": 15,
    "city": "長岡市",
    "city_kana": "ナガオカシ",
    "town": "小向",
    "town_kana": "コムカイ",
    "street": null,
    "office_name": null,
    "office_name_kana": null
  },
  "0147": {
    "postcode": "9400147",
    "prefecture": "新潟県",
    "prefecture_kana": "ニイガタケン",
    "prefecture_code": 15,
    "city": "長岡市",
    "city_kana": "ナガオカシ",
    "town": "赤谷",
    "town_kana": "アカタニ",
    "street": null,
    "office_name": null,
    "office_name_kana": null
  },
  "0148": {
    "postcode": "9400148",
    "prefecture": "新潟県",
    "prefecture_kana": "ニイガタケン",
    "prefecture_code": 15,
    "city": "長岡市",
    "city_kana": "ナガオカシ",
    "town": "大川戸",
    "town_kana": "オオカワド",
    "street": null,
    "office_name": null,
    "office_name_kana": null
  },
  "0149": {
    "postcode": "9400149",
    "prefecture": "新潟県",
    "prefecture_kana": "ニイガタケン",
    "prefecture_code": 15,
    "city": "長岡市",
    "city_kana": "ナガオカシ",
    "town": "栃倉",
    "town_kana": "トチクラ",
    "street": null,
    "office_name": null,
    "office_name_kana": null
  },
  "0151": {
    "postcode": "9400151",
    "prefecture": "新潟県",
    "prefecture_kana": "ニイガタケン",
    "prefecture_code": 15,
    "city": "長岡市",
    "city_kana": "ナガオカシ",
    "town": "吹谷",
    "town_kana": "フキダニ",
    "street": null,
    "office_name": null,
    "office_name_kana": null
  },
  "0152": {
    "postcode": "9400152",
    "prefecture": "新潟県",
    "prefecture_kana": "ニイガタケン",
    "prefecture_code": 15,
    "city": "長岡市",
    "city_kana": "ナガオカシ",
    "town": "来伝",
    "town_kana": "ライデン",
    "street": null,
    "office_name": null,
    "office_name_kana": null
  },
  "0153": {
    "postcode": "9400153",
    "prefecture": "新潟県",
    "prefecture_kana": "ニイガタケン",
    "prefecture_code": 15,
    "city": "長岡市",
    "city_kana": "ナガオカシ",
    "town": "寒沢",
    "town_kana": "カンザワ",
    "street": null,
    "office_name": null,
    "office_name_kana": null
  },
  "0154": {
    "postcode": "9400154",
    "prefecture": "新潟県",
    "prefecture_kana": "ニイガタケン",
    "prefecture_code": 15,
    "city": "長岡市",
    "city_kana": "ナガオカシ",
    "town": "松尾",
    "town_kana": "マツオ",
    "street": null,
    "office_name": null,
    "office_name_kana": null
  },
  "0155": {
    "postcode": "9400155",
    "prefecture": "新潟県",
    "prefecture_kana": "ニイガタケン",
    "prefecture_code": 15,
    "city": "長岡市",
    "city_kana": "ナガオカシ",
    "town": "栗山沢",
    "town_kana": "クリヤマザワ",
    "street": null,
    "office_name": null,
    "office_name_kana": null
  },
  "0201": {
    "postcode": "9400201",
    "prefecture": "新潟県",
    "prefecture_kana": "ニイガタケン",
    "prefecture_code": 15,
    "city": "長岡市",
    "city_kana": "ナガオカシ",
    "town": "鴉ケ島",
    "town_kana": "カラスガシマ",
    "street": null,
    "office_name": null,
    "office_name_kana": null
  },
  "0202": {
    "postcode": "9400202",
    "prefecture": "新潟県",
    "prefecture_kana": "ニイガタケン",
    "prefecture_code": 15,
    "city": "長岡市",
    "city_kana": "ナガオカシ",
    "town": "栃尾岩野外新田",
    "town_kana": "トチオイワノソトシンデン",
    "street": null,
    "office_name": null,
    "office_name_kana": null
  },
  "0203": {
    "postcode": "9400203",
    "prefecture": "新潟県",
    "prefecture_kana": "ニイガタケン",
    "prefecture_code": 15,
    "city": "長岡市",
    "city_kana": "ナガオカシ",
    "town": "楡原",
    "town_kana": "ニレバラ",
    "street": null,
    "office_name": null,
    "office_name_kana": null
  },
  "0204": {
    "postcode": "9400204",
    "prefecture": "新潟県",
    "prefecture_kana": "ニイガタケン",
    "prefecture_code": 15,
    "city": "長岡市",
    "city_kana": "ナガオカシ",
    "town": "新栄町",
    "town_kana": "シンサカエチョウ",
    "street": null,
    "office_name": null,
    "office_name_kana": null
  },
  "0205": {
    "postcode": "9400205",
    "prefecture": "新潟県",
    "prefecture_kana": "ニイガタケン",
    "prefecture_code": 15,
    "city": "長岡市",
    "city_kana": "ナガオカシ",
    "town": "栄町",
    "town_kana": "サカエチョウ",
    "street": null,
    "office_name": null,
    "office_name_kana": null
  },
  "0211": {
    "postcode": "9400211",
    "prefecture": "新潟県",
    "prefecture_kana": "ニイガタケン",
    "prefecture_code": 15,
    "city": "長岡市",
    "city_kana": "ナガオカシ",
    "town": "小貫",
    "town_kana": "コツナギ",
    "street": null,
    "office_name": null,
    "office_name_kana": null
  },
  "0212": {
    "postcode": "9400212",
    "prefecture": "新潟県",
    "prefecture_kana": "ニイガタケン",
    "prefecture_code": 15,
    "city": "長岡市",
    "city_kana": "ナガオカシ",
    "town": "土ケ谷",
    "town_kana": "ツチガヤ",
    "street": null,
    "office_name": null,
    "office_name_kana": null
  },
  "0213": {
    "postcode": "9400213",
    "prefecture": "新潟県",
    "prefecture_kana": "ニイガタケン",
    "prefecture_code": 15,
    "city": "長岡市",
    "city_kana": "ナガオカシ",
    "town": "栃尾山田町",
    "town_kana": "トチオヤマダチョウ",
    "street": null,
    "office_name": null,
    "office_name_kana": null
  },
  "0214": {
    "postcode": "9400214",
    "prefecture": "新潟県",
    "prefecture_kana": "ニイガタケン",
    "prefecture_code": 15,
    "city": "長岡市",
    "city_kana": "ナガオカシ",
    "town": "栃尾山田",
    "town_kana": "トチオヤマダ",
    "street": null,
    "office_name": null,
    "office_name_kana": null
  },
  "0215": {
    "postcode": "9400215",
    "prefecture": "新潟県",
    "prefecture_kana": "ニイガタケン",
    "prefecture_code": 15,
    "city": "長岡市",
    "city_kana": "ナガオカシ",
    "town": "栃尾町",
    "town_kana": "トチオマチ",
    "street": null,
    "office_name": null,
    "office_name_kana": null
  },
  "0216": {
    "postcode": "9400216",
    "prefecture": "新潟県",
    "prefecture_kana": "ニイガタケン",
    "prefecture_code": 15,
    "city": "長岡市",
    "city_kana": "ナガオカシ",
    "town": "栃尾新町",
    "town_kana": "トチオアラマチ",
    "street": null,
    "office_name": null,
    "office_name_kana": null
  },
  "0217": {
    "postcode": "9400217",
    "prefecture": "新潟県",
    "prefecture_kana": "ニイガタケン",
    "prefecture_code": 15,
    "city": "長岡市",
    "city_kana": "ナガオカシ",
    "town": "栃尾大町",
    "town_kana": "トチオオオマチ",
    "street": null,
    "office_name": null,
    "office_name_kana": null
  },
  "0218": {
    "postcode": "9400218",
    "prefecture": "新潟県",
    "prefecture_kana": "ニイガタケン",
    "prefecture_code": 15,
    "city": "長岡市",
    "city_kana": "ナガオカシ",
    "town": "栃尾表町",
    "town_kana": "トチオオモテマチ",
    "street": null,
    "office_name": null,
    "office_name_kana": null
  },
  "0221": {
    "postcode": "9400221",
    "prefecture": "新潟県",
    "prefecture_kana": "ニイガタケン",
    "prefecture_code": 15,
    "city": "長岡市",
    "city_kana": "ナガオカシ",
    "town": "金町",
    "town_kana": "カネマチ",
    "street": null,
    "office_name": null,
    "office_name_kana": null
  },
  "0222": {
    "postcode": "9400222",
    "prefecture": "新潟県",
    "prefecture_kana": "ニイガタケン",
    "prefecture_code": 15,
    "city": "長岡市",
    "city_kana": "ナガオカシ",
    "town": "中央公園",
    "town_kana": "チュウオウコウエン",
    "street": null,
    "office_name": null,
    "office_name_kana": null
  },
  "0223": {
    "postcode": "9400223",
    "prefecture": "新潟県",
    "prefecture_kana": "ニイガタケン",
    "prefecture_code": 15,
    "city": "長岡市",
    "city_kana": "ナガオカシ",
    "town": "栃尾本町",
    "town_kana": "トチオホンチョウ",
    "street": null,
    "office_name": null,
    "office_name_kana": null
  },
  "0224": {
    "postcode": "9400224",
    "prefecture": "新潟県",
    "prefecture_kana": "ニイガタケン",
    "prefecture_code": 15,
    "city": "長岡市",
    "city_kana": "ナガオカシ",
    "town": "東町",
    "town_kana": "アズマチョウ",
    "street": null,
    "office_name": null,
    "office_name_kana": null
  },
  "0225": {
    "postcode": "9400225",
    "prefecture": "新潟県",
    "prefecture_kana": "ニイガタケン",
    "prefecture_code": 15,
    "city": "長岡市",
    "city_kana": "ナガオカシ",
    "town": "仲子町",
    "town_kana": "ナカゴチョウ",
    "street": null,
    "office_name": null,
    "office_name_kana": null
  },
  "0226": {
    "postcode": "9400226",
    "prefecture": "新潟県",
    "prefecture_kana": "ニイガタケン",
    "prefecture_code": 15,
    "city": "長岡市",
    "city_kana": "ナガオカシ",
    "town": "滝の下町",
    "town_kana": "タキノシタマチ",
    "street": null,
    "office_name": null,
    "office_name_kana": null
  },
  "0227": {
    "postcode": "9400227",
    "prefecture": "新潟県",
    "prefecture_kana": "ニイガタケン",
    "prefecture_code": 15,
    "city": "長岡市",
    "city_kana": "ナガオカシ",
    "town": "谷内",
    "town_kana": "ヤチ",
    "street": null,
    "office_name": null,
    "office_name_kana": null
  },
  "0231": {
    "postcode": "9400231",
    "prefecture": "新潟県",
    "prefecture_kana": "ニイガタケン",
    "prefecture_code": 15,
    "city": "長岡市",
    "city_kana": "ナガオカシ",
    "town": "栃尾旭町",
    "town_kana": "トチオアサヒチョウ",
    "street": null,
    "office_name": null,
    "office_name_kana": null
  },
  "0232": {
    "postcode": "9400232",
    "prefecture": "新潟県",
    "prefecture_kana": "ニイガタケン",
    "prefecture_code": 15,
    "city": "長岡市",
    "city_kana": "ナガオカシ",
    "town": "天下島",
    "town_kana": "アマガシマ",
    "street": null,
    "office_name": null,
    "office_name_kana": null
  },
  "0233": {
    "postcode": "9400233",
    "prefecture": "新潟県",
    "prefecture_kana": "ニイガタケン",
    "prefecture_code": 15,
    "city": "長岡市",
    "city_kana": "ナガオカシ",
    "town": "栃尾宮沢",
    "town_kana": "トチオミヤザワ",
    "street": null,
    "office_name": null,
    "office_name_kana": null
  },
  "0234": {
    "postcode": "9400234",
    "prefecture": "新潟県",
    "prefecture_kana": "ニイガタケン",
    "prefecture_code": 15,
    "city": "長岡市",
    "city_kana": "ナガオカシ",
    "town": "栃尾泉",
    "town_kana": "トチオイズミ",
    "street": null,
    "office_name": null,
    "office_name_kana": null
  },
  "0235": {
    "postcode": "9400235",
    "prefecture": "新潟県",
    "prefecture_kana": "ニイガタケン",
    "prefecture_code": 15,
    "city": "長岡市",
    "city_kana": "ナガオカシ",
    "town": "栃尾大野",
    "town_kana": "トチオオオノ",
    "street": null,
    "office_name": null,
    "office_name_kana": null
  },
  "0236": {
    "postcode": "9400236",
    "prefecture": "新潟県",
    "prefecture_kana": "ニイガタケン",
    "prefecture_code": 15,
    "city": "長岡市",
    "city_kana": "ナガオカシ",
    "town": "栃尾大野町",
    "town_kana": "トチオオオノマチ",
    "street": null,
    "office_name": null,
    "office_name_kana": null
  },
  "0237": {
    "postcode": "9400237",
    "prefecture": "新潟県",
    "prefecture_kana": "ニイガタケン",
    "prefecture_code": 15,
    "city": "長岡市",
    "city_kana": "ナガオカシ",
    "town": "上の原町",
    "town_kana": "ウエノハラマチ",
    "street": null,
    "office_name": null,
    "office_name_kana": null
  },
  "0241": {
    "postcode": "9400241",
    "prefecture": "新潟県",
    "prefecture_kana": "ニイガタケン",
    "prefecture_code": 15,
    "city": "長岡市",
    "city_kana": "ナガオカシ",
    "town": "北荷頃",
    "town_kana": "キタニゴロ",
    "street": null,
    "office_name": null,
    "office_name_kana": null
  },
  "0242": {
    "postcode": "9400242",
    "prefecture": "新潟県",
    "prefecture_kana": "ニイガタケン",
    "prefecture_code": 15,
    "city": "長岡市",
    "city_kana": "ナガオカシ",
    "town": "一之貝",
    "town_kana": "イチノカイ",
    "street": null,
    "office_name": null,
    "office_name_kana": null
  },
  "0243": {
    "postcode": "9400243",
    "prefecture": "新潟県",
    "prefecture_kana": "ニイガタケン",
    "prefecture_code": 15,
    "city": "長岡市",
    "city_kana": "ナガオカシ",
    "town": "軽井沢",
    "town_kana": "カルイザワ",
    "street": null,
    "office_name": null,
    "office_name_kana": null
  },
  "0244": {
    "postcode": "9400244",
    "prefecture": "新潟県",
    "prefecture_kana": "ニイガタケン",
    "prefecture_code": 15,
    "city": "長岡市",
    "city_kana": "ナガオカシ",
    "town": "比礼",
    "town_kana": "ヒレイ",
    "street": null,
    "office_name": null,
    "office_name_kana": null
  },
  "0245": {
    "postcode": "9400245",
    "prefecture": "新潟県",
    "prefecture_kana": "ニイガタケン",
    "prefecture_code": 15,
    "city": "長岡市",
    "city_kana": "ナガオカシ",
    "town": "本津川",
    "town_kana": "ホンツガワ",
    "street": null,
    "office_name": null,
    "office_name_kana": null
  },
  "0251": {
    "postcode": "9400251",
    "prefecture": "新潟県",
    "prefecture_kana": "ニイガタケン",
    "prefecture_code": 15,
    "city": "長岡市",
    "city_kana": "ナガオカシ",
    "town": "田之口",
    "town_kana": "タノクチ",
    "street": null,
    "office_name": null,
    "office_name_kana": null
  },
  "0252": {
    "postcode": "9400252",
    "prefecture": "新潟県",
    "prefecture_kana": "ニイガタケン",
    "prefecture_code": 15,
    "city": "長岡市",
    "city_kana": "ナガオカシ",
    "town": "西野俣",
    "town_kana": "ニシノマタ",
    "street": null,
    "office_name": null,
    "office_name_kana": null
  },
  "0253": {
    "postcode": "9400253",
    "prefecture": "新潟県",
    "prefecture_kana": "ニイガタケン",
    "prefecture_code": 15,
    "city": "長岡市",
    "city_kana": "ナガオカシ",
    "town": "中",
    "town_kana": "ナカ",
    "street": null,
    "office_name": null,
    "office_name_kana": null
  },
  "0254": {
    "postcode": "9400254",
    "prefecture": "新潟県",
    "prefecture_kana": "ニイガタケン",
    "prefecture_code": 15,
    "city": "長岡市",
    "city_kana": "ナガオカシ",
    "town": "木山沢",
    "town_kana": "キヤマザワ",
    "street": null,
    "office_name": null,
    "office_name_kana": null
  },
  "0255": {
    "postcode": "9400255",
    "prefecture": "新潟県",
    "prefecture_kana": "ニイガタケン",
    "prefecture_code": 15,
    "city": "長岡市",
    "city_kana": "ナガオカシ",
    "town": "東中野俣",
    "town_kana": "ヒガシナカノマタ",
    "street": null,
    "office_name": null,
    "office_name_kana": null
  },
  "0256": {
    "postcode": "9400256",
    "prefecture": "新潟県",
    "prefecture_kana": "ニイガタケン",
    "prefecture_code": 15,
    "city": "長岡市",
    "city_kana": "ナガオカシ",
    "town": "西中野俣",
    "town_kana": "ニシナカノマタ",
    "street": null,
    "office_name": null,
    "office_name_kana": null
  },
  "0257": {
    "postcode": "9400257",
    "prefecture": "新潟県",
    "prefecture_kana": "ニイガタケン",
    "prefecture_code": 15,
    "city": "長岡市",
    "city_kana": "ナガオカシ",
    "town": "森上",
    "town_kana": "モリアゲ",
    "street": null,
    "office_name": null,
    "office_name_kana": null
  },
  "0258": {
    "postcode": "9400258",
    "prefecture": "新潟県",
    "prefecture_kana": "ニイガタケン",
    "prefecture_code": 15,
    "city": "長岡市",
    "city_kana": "ナガオカシ",
    "town": "半蔵金",
    "town_kana": "ハンゾウガネ",
    "street": null,
    "office_name": null,
    "office_name_kana": null
  },
  "0292": {
    "postcode": "9400292",
    "prefecture": "新潟県",
    "prefecture_kana": "ニイガタケン",
    "prefecture_code": 15,
    "city": "長岡市",
    "city_kana": "ナガオカシ",
    "town": "金沢",
    "town_kana": "カナザワ",
    "street": "３丁目１−１",
    "office_name": "鈴倉インダストリー　株式会社",
    "office_name_kana": "スズクラインダストリ- カブシキガイシヤ"
  },
  "0293": {
    "postcode": "9400293",
    "prefecture": "新潟県",
    "prefecture_kana": "ニイガタケン",
    "prefecture_code": 15,
    "city": "長岡市",
    "city_kana": "ナガオカシ",
    "town": "金沢",
    "town_kana": "カナザワ",
    "street": "１丁目２−１",
    "office_name": "新潟県立　栃尾高等学校",
    "office_name_kana": "ニイガタケンリツ トチオコウトウガツコウ"
  },
  "0294": {
    "postcode": "9400294",
    "prefecture": "新潟県",
    "prefecture_kana": "ニイガタケン",
    "prefecture_code": 15,
    "city": "長岡市",
    "city_kana": "ナガオカシ",
    "town": "栄町",
    "town_kana": "サカエチョウ",
    "street": "２丁目１−５０",
    "office_name": "栃尾郷病院",
    "office_name_kana": "トチオゴウビヨウイン"
  },
  "0295": {
    "postcode": "9400295",
    "prefecture": "新潟県",
    "prefecture_kana": "ニイガタケン",
    "prefecture_code": 15,
    "city": "長岡市",
    "city_kana": "ナガオカシ",
    "town": "谷内",
    "town_kana": "ヤチ",
    "street": "２丁目５番９号",
    "office_name": "栃尾商工会",
    "office_name_kana": "トチオシヨウコウカイ"
  },
  "0296": {
    "postcode": "9400296",
    "prefecture": "新潟県",
    "prefecture_kana": "ニイガタケン",
    "prefecture_code": 15,
    "city": "長岡市",
    "city_kana": "ナガオカシ",
    "town": "栄町",
    "town_kana": "サカエチョウ",
    "street": "３丁目３−２１",
    "office_name": "ＪＡ越後ながおか　栃尾中央店",
    "office_name_kana": "ジエイエイエチゴナガオカ トチオチユウオウテン"
  },
  "0297": {
    "postcode": "9400297",
    "prefecture": "新潟県",
    "prefecture_kana": "ニイガタケン",
    "prefecture_code": 15,
    "city": "長岡市",
    "city_kana": "ナガオカシ",
    "town": "金町",
    "town_kana": "カネマチ",
    "street": "２丁目１−５",
    "office_name": "長岡市　福祉事務所",
    "office_name_kana": "ナガオカシ フクシジムシヨ"
  },
  "0298": {
    "postcode": "9400298",
    "prefecture": "新潟県",
    "prefecture_kana": "ニイガタケン",
    "prefecture_code": 15,
    "city": "長岡市",
    "city_kana": "ナガオカシ",
    "town": "金町",
    "town_kana": "カネマチ",
    "street": "２丁目１−５",
    "office_name": "長岡市役所　栃尾支所",
    "office_name_kana": "ナガオカシヤクシヨ トチオシシヨ"
  },
  "0801": {
    "postcode": "9400801",
    "prefecture": "新潟県",
    "prefecture_kana": "ニイガタケン",
    "prefecture_code": 15,
    "city": "長岡市",
    "city_kana": "ナガオカシ",
    "town": "亀崎町",
    "town_kana": "カメザキマチ",
    "street": null,
    "office_name": null,
    "office_name_kana": null
  },
  "0802": {
    "postcode": "9400802",
    "prefecture": "新潟県",
    "prefecture_kana": "ニイガタケン",
    "prefecture_code": 15,
    "city": "長岡市",
    "city_kana": "ナガオカシ",
    "town": "桂町",
    "town_kana": "カツラマチ",
    "street": null,
    "office_name": null,
    "office_name_kana": null
  },
  "0803": {
    "postcode": "9400803",
    "prefecture": "新潟県",
    "prefecture_kana": "ニイガタケン",
    "prefecture_code": 15,
    "city": "長岡市",
    "city_kana": "ナガオカシ",
    "town": "加津保町",
    "town_kana": "カツボマチ",
    "street": null,
    "office_name": null,
    "office_name_kana": null
  },
  "0804": {
    "postcode": "9400804",
    "prefecture": "新潟県",
    "prefecture_kana": "ニイガタケン",
    "prefecture_code": 15,
    "city": "長岡市",
    "city_kana": "ナガオカシ",
    "town": "水穴町",
    "town_kana": "ミズアナマチ",
    "street": null,
    "office_name": null,
    "office_name_kana": null
  },
  "0805": {
    "postcode": "9400805",
    "prefecture": "新潟県",
    "prefecture_kana": "ニイガタケン",
    "prefecture_code": 15,
    "city": "長岡市",
    "city_kana": "ナガオカシ",
    "town": "浦瀬町",
    "town_kana": "ウラセマチ",
    "street": null,
    "office_name": null,
    "office_name_kana": null
  },
  "0806": {
    "postcode": "9400806",
    "prefecture": "新潟県",
    "prefecture_kana": "ニイガタケン",
    "prefecture_code": 15,
    "city": "長岡市",
    "city_kana": "ナガオカシ",
    "town": "麻生田町",
    "town_kana": "アソウダマチ",
    "street": null,
    "office_name": null,
    "office_name_kana": null
  },
  "0811": {
    "postcode": "9400811",
    "prefecture": "新潟県",
    "prefecture_kana": "ニイガタケン",
    "prefecture_code": 15,
    "city": "長岡市",
    "city_kana": "ナガオカシ",
    "town": "宮路町",
    "town_kana": "ミヤジマチ",
    "street": null,
    "office_name": null,
    "office_name_kana": null
  },
  "0812": {
    "postcode": "9400812",
    "prefecture": "新潟県",
    "prefecture_kana": "ニイガタケン",
    "prefecture_code": 15,
    "city": "長岡市",
    "city_kana": "ナガオカシ",
    "town": "乙吉町",
    "town_kana": "オトヨシマチ",
    "street": null,
    "office_name": null,
    "office_name_kana": null
  },
  "0813": {
    "postcode": "9400813",
    "prefecture": "新潟県",
    "prefecture_kana": "ニイガタケン",
    "prefecture_code": 15,
    "city": "長岡市",
    "city_kana": "ナガオカシ",
    "town": "川中",
    "town_kana": "カワナカ",
    "street": null,
    "office_name": null,
    "office_name_kana": null
  },
  "0814": {
    "postcode": "9400814",
    "prefecture": "新潟県",
    "prefecture_kana": "ニイガタケン",
    "prefecture_code": 15,
    "city": "長岡市",
    "city_kana": "ナガオカシ",
    "town": "成願寺町",
    "town_kana": "ジョウガンジマチ",
    "street": null,
    "office_name": null,
    "office_name_kana": null
  },
  "0816": {
    "postcode": "9400816",
    "prefecture": "新潟県",
    "prefecture_kana": "ニイガタケン",
    "prefecture_code": 15,
    "city": "長岡市",
    "city_kana": "ナガオカシ",
    "town": "東片貝町",
    "town_kana": "ヒガシカタカイマチ",
    "street": null,
    "office_name": null,
    "office_name_kana": null
  },
  "0817": {
    "postcode": "9400817",
    "prefecture": "新潟県",
    "prefecture_kana": "ニイガタケン",
    "prefecture_code": 15,
    "city": "長岡市",
    "city_kana": "ナガオカシ",
    "town": "西片貝町",
    "town_kana": "ニシカタカイマチ",
    "street": null,
    "office_name": null,
    "office_name_kana": null
  },
  "0819": {
    "postcode": "9400819",
    "prefecture": "新潟県",
    "prefecture_kana": "ニイガタケン",
    "prefecture_code": 15,
    "city": "長岡市",
    "city_kana": "ナガオカシ",
    "town": "千代栄町",
    "town_kana": "チヨエマチ",
    "street": null,
    "office_name": null,
    "office_name_kana": null
  },
  "0821": {
    "postcode": "9400821",
    "prefecture": "新潟県",
    "prefecture_kana": "ニイガタケン",
    "prefecture_code": 15,
    "city": "長岡市",
    "city_kana": "ナガオカシ",
    "town": "栖吉町",
    "town_kana": "スヨシマチ",
    "street": null,
    "office_name": null,
    "office_name_kana": null
  },
  "0822": {
    "postcode": "9400822",
    "prefecture": "新潟県",
    "prefecture_kana": "ニイガタケン",
    "prefecture_code": 15,
    "city": "長岡市",
    "city_kana": "ナガオカシ",
    "town": "柿町",
    "town_kana": "カギマチ",
    "street": null,
    "office_name": null,
    "office_name_kana": null
  },
  "0824": {
    "postcode": "9400824",
    "prefecture": "新潟県",
    "prefecture_kana": "ニイガタケン",
    "prefecture_code": 15,
    "city": "長岡市",
    "city_kana": "ナガオカシ",
    "town": "高町",
    "town_kana": "タカマチ",
    "street": null,
    "office_name": null,
    "office_name_kana": null
  },
  "0825": {
    "postcode": "9400825",
    "prefecture": "新潟県",
    "prefecture_kana": "ニイガタケン",
    "prefecture_code": 15,
    "city": "長岡市",
    "city_kana": "ナガオカシ",
    "town": "高畑町",
    "town_kana": "タカバタケマチ",
    "street": null,
    "office_name": null,
    "office_name_kana": null
  },
  "0826": {
    "postcode": "9400826",
    "prefecture": "新潟県",
    "prefecture_kana": "ニイガタケン",
    "prefecture_code": 15,
    "city": "長岡市",
    "city_kana": "ナガオカシ",
    "town": "長倉町",
    "town_kana": "ナガクラマチ",
    "street": null,
    "office_name": null,
    "office_name_kana": null
  },
  "0827": {
    "postcode": "9400827",
    "prefecture": "新潟県",
    "prefecture_kana": "ニイガタケン",
    "prefecture_code": 15,
    "city": "長岡市",
    "city_kana": "ナガオカシ",
    "town": "悠久町",
    "town_kana": "ユウキュウチョウ",
    "street": null,
    "office_name": null,
    "office_name_kana": null
  },
  "0828": {
    "postcode": "9400828",
    "prefecture": "新潟県",
    "prefecture_kana": "ニイガタケン",
    "prefecture_code": 15,
    "city": "長岡市",
    "city_kana": "ナガオカシ",
    "town": "御山町",
    "town_kana": "オヤマチョウ",
    "street": null,
    "office_name": null,
    "office_name_kana": null
  },
  "0829": {
    "postcode": "9400829",
    "prefecture": "新潟県",
    "prefecture_kana": "ニイガタケン",
    "prefecture_code": 15,
    "city": "長岡市",
    "city_kana": "ナガオカシ",
    "town": "長倉",
    "town_kana": "ナガクラ",
    "street": null,
    "office_name": null,
    "office_name_kana": null
  },
  "0831": {
    "postcode": "9400831",
    "prefecture": "新潟県",
    "prefecture_kana": "ニイガタケン",
    "prefecture_code": 15,
    "city": "長岡市",
    "city_kana": "ナガオカシ",
    "town": "上条町",
    "town_kana": "ジョウジョウマチ",
    "street": null,
    "office_name": null,
    "office_name_kana": null
  },
  "0832": {
    "postcode": "9400832",
    "prefecture": "新潟県",
    "prefecture_kana": "ニイガタケン",
    "prefecture_code": 15,
    "city": "長岡市",
    "city_kana": "ナガオカシ",
    "town": "曙",
    "town_kana": "アケボノ",
    "street": null,
    "office_name": null,
    "office_name_kana": null
  },
  "0833": {
    "postcode": "9400833",
    "prefecture": "新潟県",
    "prefecture_kana": "ニイガタケン",
    "prefecture_code": 15,
    "city": "長岡市",
    "city_kana": "ナガオカシ",
    "town": "笹崎",
    "town_kana": "ササザキ",
    "street": null,
    "office_name": null,
    "office_name_kana": null
  },
  "0834": {
    "postcode": "9400834",
    "prefecture": "新潟県",
    "prefecture_kana": "ニイガタケン",
    "prefecture_code": 15,
    "city": "長岡市",
    "city_kana": "ナガオカシ",
    "town": "末広",
    "town_kana": "スエヒロ",
    "street": null,
    "office_name": null,
    "office_name_kana": null
  },
  "0835": {
    "postcode": "9400835",
    "prefecture": "新潟県",
    "prefecture_kana": "ニイガタケン",
    "prefecture_code": 15,
    "city": "長岡市",
    "city_kana": "ナガオカシ",
    "town": "錦",
    "town_kana": "ニシキ",
    "street": null,
    "office_name": null,
    "office_name_kana": null
  },
  "0836": {
    "postcode": "9400836",
    "prefecture": "新潟県",
    "prefecture_kana": "ニイガタケン",
    "prefecture_code": 15,
    "city": "長岡市",
    "city_kana": "ナガオカシ",
    "town": "豊田町",
    "town_kana": "トヨダマチ",
    "street": null,
    "office_name": null,
    "office_name_kana": null
  },
  "0840": {
    "postcode": "9400840",
    "prefecture": "新潟県",
    "prefecture_kana": "ニイガタケン",
    "prefecture_code": 15,
    "city": "長岡市",
    "city_kana": "ナガオカシ",
    "town": "旭岡",
    "town_kana": "アサヒオカ",
    "street": null,
    "office_name": null,
    "office_name_kana": null
  },
  "0841": {
    "postcode": "9400841",
    "prefecture": "新潟県",
    "prefecture_kana": "ニイガタケン",
    "prefecture_code": 15,
    "city": "長岡市",
    "city_kana": "ナガオカシ",
    "town": "花園南",
    "town_kana": "ハナゾノミナミ",
    "street": null,
    "office_name": null,
    "office_name_kana": null
  },
  "0842": {
    "postcode": "9400842",
    "prefecture": "新潟県",
    "prefecture_kana": "ニイガタケン",
    "prefecture_code": 15,
    "city": "長岡市",
    "city_kana": "ナガオカシ",
    "town": "鉢伏町",
    "town_kana": "ハチブセマチ",
    "street": null,
    "office_name": null,
    "office_name_kana": null
  },
  "0843": {
    "postcode": "9400843",
    "prefecture": "新潟県",
    "prefecture_kana": "ニイガタケン",
    "prefecture_code": 15,
    "city": "長岡市",
    "city_kana": "ナガオカシ",
    "town": "東大町",
    "town_kana": "ヒガシオオマチ",
    "street": null,
    "office_name": null,
    "office_name_kana": null
  },
  "0844": {
    "postcode": "9400844",
    "prefecture": "新潟県",
    "prefecture_kana": "ニイガタケン",
    "prefecture_code": 15,
    "city": "長岡市",
    "city_kana": "ナガオカシ",
    "town": "大町",
    "town_kana": "オオマチ",
    "street": null,
    "office_name": null,
    "office_name_kana": null
  },
  "0845": {
    "postcode": "9400845",
    "prefecture": "新潟県",
    "prefecture_kana": "ニイガタケン",
    "prefecture_code": 15,
    "city": "長岡市",
    "city_kana": "ナガオカシ",
    "town": "花園",
    "town_kana": "ハナゾノ",
    "street": null,
    "office_name": null,
    "office_name_kana": null
  },
  "0846": {
    "postcode": "9400846",
    "prefecture": "新潟県",
    "prefecture_kana": "ニイガタケン",
    "prefecture_code": 15,
    "city": "長岡市",
    "city_kana": "ナガオカシ",
    "town": "花園東",
    "town_kana": "ハナゾノヒガシ",
    "street": null,
    "office_name": null,
    "office_name_kana": null
  },
  "0847": {
    "postcode": "9400847",
    "prefecture": "新潟県",
    "prefecture_kana": "ニイガタケン",
    "prefecture_code": 15,
    "city": "長岡市",
    "city_kana": "ナガオカシ",
    "town": "土合町",
    "town_kana": "ドアイマチ",
    "street": null,
    "office_name": null,
    "office_name_kana": null
  },
  "0848": {
    "postcode": "9400848",
    "prefecture": "新潟県",
    "prefecture_kana": "ニイガタケン",
    "prefecture_code": 15,
    "city": "長岡市",
    "city_kana": "ナガオカシ",
    "town": "長倉南町",
    "town_kana": "ナガクラミナミマチ",
    "street": null,
    "office_name": null,
    "office_name_kana": null
  },
  "0849": {
    "postcode": "9400849",
    "prefecture": "新潟県",
    "prefecture_kana": "ニイガタケン",
    "prefecture_code": 15,
    "city": "長岡市",
    "city_kana": "ナガオカシ",
    "town": "長倉西町",
    "town_kana": "ナガクラニシマチ",
    "street": null,
    "office_name": null,
    "office_name_kana": null
  },
  "0851": {
    "postcode": "9400851",
    "prefecture": "新潟県",
    "prefecture_kana": "ニイガタケン",
    "prefecture_code": 15,
    "city": "長岡市",
    "city_kana": "ナガオカシ",
    "town": "若草町",
    "town_kana": "ワカクサマチ",
    "street": null,
    "office_name": null,
    "office_name_kana": null
  },
  "0852": {
    "postcode": "9400852",
    "prefecture": "新潟県",
    "prefecture_kana": "ニイガタケン",
    "prefecture_code": 15,
    "city": "長岡市",
    "city_kana": "ナガオカシ",
    "town": "中貫町",
    "town_kana": "ナカヌキマチ",
    "street": null,
    "office_name": null,
    "office_name_kana": null
  },
  "0853": {
    "postcode": "9400853",
    "prefecture": "新潟県",
    "prefecture_kana": "ニイガタケン",
    "prefecture_code": 15,
    "city": "長岡市",
    "city_kana": "ナガオカシ",
    "town": "中沢",
    "town_kana": "ナカザワ",
    "street": null,
    "office_name": null,
    "office_name_kana": null
  },
  "0854": {
    "postcode": "9400854",
    "prefecture": "新潟県",
    "prefecture_kana": "ニイガタケン",
    "prefecture_code": 15,
    "city": "長岡市",
    "city_kana": "ナガオカシ",
    "town": "中沢町",
    "town_kana": "ナカザワマチ",
    "street": null,
    "office_name": null,
    "office_name_kana": null
  },
  "0856": {
    "postcode": "9400856",
    "prefecture": "新潟県",
    "prefecture_kana": "ニイガタケン",
    "prefecture_code": 15,
    "city": "長岡市",
    "city_kana": "ナガオカシ",
    "town": "美沢",
    "town_kana": "ミサワ",
    "street": null,
    "office_name": null,
    "office_name_kana": null
  },
  "0857": {
    "postcode": "9400857",
    "prefecture": "新潟県",
    "prefecture_kana": "ニイガタケン",
    "prefecture_code": 15,
    "city": "長岡市",
    "city_kana": "ナガオカシ",
    "town": "沖田",
    "town_kana": "オキタ",
    "street": null,
    "office_name": null,
    "office_name_kana": null
  },
  "0861": {
    "postcode": "9400861",
    "prefecture": "新潟県",
    "prefecture_kana": "ニイガタケン",
    "prefecture_code": 15,
    "city": "長岡市",
    "city_kana": "ナガオカシ",
    "town": "川崎町",
    "town_kana": "カワサキマチ",
    "street": null,
    "office_name": null,
    "office_name_kana": null
  },
  "0864": {
    "postcode": "9400864",
    "prefecture": "新潟県",
    "prefecture_kana": "ニイガタケン",
    "prefecture_code": 15,
    "city": "長岡市",
    "city_kana": "ナガオカシ",
    "town": "川崎",
    "town_kana": "カワサキ",
    "street": null,
    "office_name": null,
    "office_name_kana": null
  },
  "0865": {
    "postcode": "9400865",
    "prefecture": "新潟県",
    "prefecture_kana": "ニイガタケン",
    "prefecture_code": 15,
    "city": "長岡市",
    "city_kana": "ナガオカシ",
    "town": "四郎丸町",
    "town_kana": "シロウマルマチ",
    "street": null,
    "office_name": null,
    "office_name_kana": null
  },
  "0866": {
    "postcode": "9400866",
    "prefecture": "新潟県",
    "prefecture_kana": "ニイガタケン",
    "prefecture_code": 15,
    "city": "長岡市",
    "city_kana": "ナガオカシ",
    "town": "美園",
    "town_kana": "ミソノ",
    "street": null,
    "office_name": null,
    "office_name_kana": null
  },
  "0867": {
    "postcode": "9400867",
    "prefecture": "新潟県",
    "prefecture_kana": "ニイガタケン",
    "prefecture_code": 15,
    "city": "長岡市",
    "city_kana": "ナガオカシ",
    "town": "豊",
    "town_kana": "ユタカ",
    "street": null,
    "office_name": null,
    "office_name_kana": null
  },
  "0868": {
    "postcode": "9400868",
    "prefecture": "新潟県",
    "prefecture_kana": "ニイガタケン",
    "prefecture_code": 15,
    "city": "長岡市",
    "city_kana": "ナガオカシ",
    "town": "堀金",
    "town_kana": "ホリガネ",
    "street": null,
    "office_name": null,
    "office_name_kana": null
  },
  "0871": {
    "postcode": "9400871",
    "prefecture": "新潟県",
    "prefecture_kana": "ニイガタケン",
    "prefecture_code": 15,
    "city": "長岡市",
    "city_kana": "ナガオカシ",
    "town": "北陽",
    "town_kana": "ホクヨウ",
    "street": null,
    "office_name": null,
    "office_name_kana": null
  },
  "0872": {
    "postcode": "9400872",
    "prefecture": "新潟県",
    "prefecture_kana": "ニイガタケン",
    "prefecture_code": 15,
    "city": "長岡市",
    "city_kana": "ナガオカシ",
    "town": "稲葉町",
    "town_kana": "イナバマチ",
    "street": null,
    "office_name": null,
    "office_name_kana": null
  },
  "0873": {
    "postcode": "9400873",
    "prefecture": "新潟県",
    "prefecture_kana": "ニイガタケン",
    "prefecture_code": 15,
    "city": "長岡市",
    "city_kana": "ナガオカシ",
    "town": "永田町",
    "town_kana": "ナガタマチ",
    "street": null,
    "office_name": null,
    "office_name_kana": null
  },
  "0874": {
    "postcode": "9400874",
    "prefecture": "新潟県",
    "prefecture_kana": "ニイガタケン",
    "prefecture_code": 15,
    "city": "長岡市",
    "city_kana": "ナガオカシ",
    "town": "永田",
    "town_kana": "ナガタ",
    "street": null,
    "office_name": null,
    "office_name_kana": null
  },
  "0875": {
    "postcode": "9400875",
    "prefecture": "新潟県",
    "prefecture_kana": "ニイガタケン",
    "prefecture_code": 15,
    "city": "長岡市",
    "city_kana": "ナガオカシ",
    "town": "新保",
    "town_kana": "ニイボ",
    "street": null,
    "office_name": null,
    "office_name_kana": null
  },
  "0876": {
    "postcode": "9400876",
    "prefecture": "新潟県",
    "prefecture_kana": "ニイガタケン",
    "prefecture_code": 15,
    "city": "長岡市",
    "city_kana": "ナガオカシ",
    "town": "新保町",
    "town_kana": "ニイボマチ",
    "street": null,
    "office_name": null,
    "office_name_kana": null
  },
  "0877": {
    "postcode": "9400877",
    "prefecture": "新潟県",
    "prefecture_kana": "ニイガタケン",
    "prefecture_code": 15,
    "city": "長岡市",
    "city_kana": "ナガオカシ",
    "town": "稲保",
    "town_kana": "イナホ",
    "street": null,
    "office_name": null,
    "office_name_kana": null
  },
  "0878": {
    "postcode": "9400878",
    "prefecture": "新潟県",
    "prefecture_kana": "ニイガタケン",
    "prefecture_code": 15,
    "city": "長岡市",
    "city_kana": "ナガオカシ",
    "town": "稲保南",
    "town_kana": "イナホミナミ",
    "street": null,
    "office_name": null,
    "office_name_kana": null
  },
  "0881": {
    "postcode": "9400881",
    "prefecture": "新潟県",
    "prefecture_kana": "ニイガタケン",
    "prefecture_code": 15,
    "city": "長岡市",
    "city_kana": "ナガオカシ",
    "town": "富島町",
    "town_kana": "トミジママチ",
    "street": null,
    "office_name": null,
    "office_name_kana": null
  },
  "0882": {
    "postcode": "9400882",
    "prefecture": "新潟県",
    "prefecture_kana": "ニイガタケン",
    "prefecture_code": 15,
    "city": "長岡市",
    "city_kana": "ナガオカシ",
    "town": "宮下町",
    "town_kana": "ミヤシタマチ",
    "street": null,
    "office_name": null,
    "office_name_kana": null
  },
  "0883": {
    "postcode": "9400883",
    "prefecture": "新潟県",
    "prefecture_kana": "ニイガタケン",
    "prefecture_code": 15,
    "city": "長岡市",
    "city_kana": "ナガオカシ",
    "town": "小曽根町",
    "town_kana": "コゾネマチ",
    "street": null,
    "office_name": null,
    "office_name_kana": null
  },
  "0884": {
    "postcode": "9400884",
    "prefecture": "新潟県",
    "prefecture_kana": "ニイガタケン",
    "prefecture_code": 15,
    "city": "長岡市",
    "city_kana": "ナガオカシ",
    "town": "亀貝町",
    "town_kana": "カメガイマチ",
    "street": null,
    "office_name": null,
    "office_name_kana": null
  },
  "0891": {
    "postcode": "9400891",
    "prefecture": "新潟県",
    "prefecture_kana": "ニイガタケン",
    "prefecture_code": 15,
    "city": "長岡市",
    "city_kana": "ナガオカシ",
    "town": "四ツ屋町",
    "town_kana": "ヨツヤマチ",
    "street": null,
    "office_name": null,
    "office_name_kana": null
  },
  "0892": {
    "postcode": "9400892",
    "prefecture": "新潟県",
    "prefecture_kana": "ニイガタケン",
    "prefecture_code": 15,
    "city": "長岡市",
    "city_kana": "ナガオカシ",
    "town": "百束町",
    "town_kana": "ヒャクソクマチ",
    "street": null,
    "office_name": null,
    "office_name_kana": null
  },
  "0893": {
    "postcode": "9400893",
    "prefecture": "新潟県",
    "prefecture_kana": "ニイガタケン",
    "prefecture_code": 15,
    "city": "長岡市",
    "city_kana": "ナガオカシ",
    "town": "福井町",
    "town_kana": "フクイマチ",
    "street": null,
    "office_name": null,
    "office_name_kana": null
  },
  "0894": {
    "postcode": "9400894",
    "prefecture": "新潟県",
    "prefecture_kana": "ニイガタケン",
    "prefecture_code": 15,
    "city": "長岡市",
    "city_kana": "ナガオカシ",
    "town": "七軒町",
    "town_kana": "シチケンマチ",
    "street": null,
    "office_name": null,
    "office_name_kana": null
  },
  "0895": {
    "postcode": "9400895",
    "prefecture": "新潟県",
    "prefecture_kana": "ニイガタケン",
    "prefecture_code": 15,
    "city": "長岡市",
    "city_kana": "ナガオカシ",
    "town": "大黒町",
    "town_kana": "ダイコクマチ",
    "street": null,
    "office_name": null,
    "office_name_kana": null
  },
  "0896": {
    "postcode": "9400896",
    "prefecture": "新潟県",
    "prefecture_kana": "ニイガタケン",
    "prefecture_code": 15,
    "city": "長岡市",
    "city_kana": "ナガオカシ",
    "town": "福島町",
    "town_kana": "フクシママチ",
    "street": null,
    "office_name": null,
    "office_name_kana": null
  },
  "0897": {
    "postcode": "9400897",
    "prefecture": "新潟県",
    "prefecture_kana": "ニイガタケン",
    "prefecture_code": 15,
    "city": "長岡市",
    "city_kana": "ナガオカシ",
    "town": "新組町",
    "town_kana": "シングミマチ",
    "street": null,
    "office_name": null,
    "office_name_kana": null
  },
  "0898": {
    "postcode": "9400898",
    "prefecture": "新潟県",
    "prefecture_kana": "ニイガタケン",
    "prefecture_code": 15,
    "city": "長岡市",
    "city_kana": "ナガオカシ",
    "town": "新組南町",
    "town_kana": "シングミミナミマチ",
    "street": null,
    "office_name": null,
    "office_name_kana": null
  },
  "1101": {
    "postcode": "9401101",
    "prefecture": "新潟県",
    "prefecture_kana": "ニイガタケン",
    "prefecture_code": 15,
    "city": "長岡市",
    "city_kana": "ナガオカシ",
    "town": "沢田",
    "town_kana": "サワダ",
    "street": null,
    "office_name": null,
    "office_name_kana": null
  },
  "1102": {
    "postcode": "9401102",
    "prefecture": "新潟県",
    "prefecture_kana": "ニイガタケン",
    "prefecture_code": 15,
    "city": "長岡市",
    "city_kana": "ナガオカシ",
    "town": "東宮内町",
    "town_kana": "ヒガシミヤウチマチ",
    "street": null,
    "office_name": null,
    "office_name_kana": null
  },
  "1103": {
    "postcode": "9401103",
    "prefecture": "新潟県",
    "prefecture_kana": "ニイガタケン",
    "prefecture_code": 15,
    "city": "長岡市",
    "city_kana": "ナガオカシ",
    "town": "曲新町",
    "town_kana": "マガリアラマチ",
    "street": null,
    "office_name": null,
    "office_name_kana": null
  },
  "1104": {
    "postcode": "9401104",
    "prefecture": "新潟県",
    "prefecture_kana": "ニイガタケン",
    "prefecture_code": 15,
    "city": "長岡市",
    "city_kana": "ナガオカシ",
    "town": "摂田屋町",
    "town_kana": "セッタヤマチ",
    "street": null,
    "office_name": null,
    "office_name_kana": null
  },
  "1105": {
    "postcode": "9401105",
    "prefecture": "新潟県",
    "prefecture_kana": "ニイガタケン",
    "prefecture_code": 15,
    "city": "長岡市",
    "city_kana": "ナガオカシ",
    "town": "摂田屋",
    "town_kana": "セッタヤ",
    "street": null,
    "office_name": null,
    "office_name_kana": null
  },
  "1106": {
    "postcode": "9401106",
    "prefecture": "新潟県",
    "prefecture_kana": "ニイガタケン",
    "prefecture_code": 15,
    "city": "長岡市",
    "city_kana": "ナガオカシ",
    "town": "宮内",
    "town_kana": "ミヤウチ",
    "street": null,
    "office_name": null,
    "office_name_kana": null
  },
  "1111": {
    "postcode": "9401111",
    "prefecture": "新潟県",
    "prefecture_kana": "ニイガタケン",
    "prefecture_code": 15,
    "city": "長岡市",
    "city_kana": "ナガオカシ",
    "town": "町田町",
    "town_kana": "マチダマチ",
    "street": null,
    "office_name": null,
    "office_name_kana": null
  },
  "1112": {
    "postcode": "9401112",
    "prefecture": "新潟県",
    "prefecture_kana": "ニイガタケン",
    "prefecture_code": 15,
    "city": "長岡市",
    "city_kana": "ナガオカシ",
    "town": "青木町",
    "town_kana": "アオキマチ",
    "street": null,
    "office_name": null,
    "office_name_kana": null
  },
  "1113": {
    "postcode": "9401113",
    "prefecture": "新潟県",
    "prefecture_kana": "ニイガタケン",
    "prefecture_code": 15,
    "city": "長岡市",
    "city_kana": "ナガオカシ",
    "town": "鷺巣町",
    "town_kana": "サギノスマチ",
    "street": null,
    "office_name": null,
    "office_name_kana": null
  },
  "1114": {
    "postcode": "9401114",
    "prefecture": "新潟県",
    "prefecture_kana": "ニイガタケン",
    "prefecture_code": 15,
    "city": "長岡市",
    "city_kana": "ナガオカシ",
    "town": "釜沢町",
    "town_kana": "カマザワマチ",
    "street": null,
    "office_name": null,
    "office_name_kana": null
  },
  "1115": {
    "postcode": "9401115",
    "prefecture": "新潟県",
    "prefecture_kana": "ニイガタケン",
    "prefecture_code": 15,
    "city": "長岡市",
    "city_kana": "ナガオカシ",
    "town": "村松町",
    "town_kana": "ムラマツマチ",
    "street": null,
    "office_name": null,
    "office_name_kana": null
  },
  "1116": {
    "postcode": "9401116",
    "prefecture": "新潟県",
    "prefecture_kana": "ニイガタケン",
    "prefecture_code": 15,
    "city": "長岡市",
    "city_kana": "ナガオカシ",
    "town": "竹町",
    "town_kana": "タケマチ",
    "street": null,
    "office_name": null,
    "office_name_kana": null
  },
  "1117": {
    "postcode": "9401117",
    "prefecture": "新潟県",
    "prefecture_kana": "ニイガタケン",
    "prefecture_code": 15,
    "city": "長岡市",
    "city_kana": "ナガオカシ",
    "town": "横枕町",
    "town_kana": "ヨコマクラマチ",
    "street": null,
    "office_name": null,
    "office_name_kana": null
  },
  "1121": {
    "postcode": "9401121",
    "prefecture": "新潟県",
    "prefecture_kana": "ニイガタケン",
    "prefecture_code": 15,
    "city": "長岡市",
    "city_kana": "ナガオカシ",
    "town": "濁沢町",
    "town_kana": "ニゴリサワマチ",
    "street": null,
    "office_name": null,
    "office_name_kana": null
  },
  "1122": {
    "postcode": "9401122",
    "prefecture": "新潟県",
    "prefecture_kana": "ニイガタケン",
    "prefecture_code": 15,
    "city": "長岡市",
    "city_kana": "ナガオカシ",
    "town": "蓬平町",
    "town_kana": "ヨモギヒラマチ",
    "street": null,
    "office_name": null,
    "office_name_kana": null
  },
  "1123": {
    "postcode": "9401123",
    "prefecture": "新潟県",
    "prefecture_kana": "ニイガタケン",
    "prefecture_code": 15,
    "city": "長岡市",
    "city_kana": "ナガオカシ",
    "town": "竹之高地町",
    "town_kana": "タケノコウチマチ",
    "street": null,
    "office_name": null,
    "office_name_kana": null
  },
  "1131": {
    "postcode": "9401131",
    "prefecture": "新潟県",
    "prefecture_kana": "ニイガタケン",
    "prefecture_code": 15,
    "city": "長岡市",
    "city_kana": "ナガオカシ",
    "town": "十日町",
    "town_kana": "トオカマチ",
    "street": null,
    "office_name": null,
    "office_name_kana": null
  },
  "1132": {
    "postcode": "9401132",
    "prefecture": "新潟県",
    "prefecture_kana": "ニイガタケン",
    "prefecture_code": 15,
    "city": "長岡市",
    "city_kana": "ナガオカシ",
    "town": "渡沢町",
    "town_kana": "ワタザワマチ",
    "street": null,
    "office_name": null,
    "office_name_kana": null
  },
  "1133": {
    "postcode": "9401133",
    "prefecture": "新潟県",
    "prefecture_kana": "ニイガタケン",
    "prefecture_code": 15,
    "city": "長岡市",
    "city_kana": "ナガオカシ",
    "town": "六日市町",
    "town_kana": "ムイカイチマチ",
    "street": null,
    "office_name": null,
    "office_name_kana": null
  },
  "1134": {
    "postcode": "9401134",
    "prefecture": "新潟県",
    "prefecture_kana": "ニイガタケン",
    "prefecture_code": 15,
    "city": "長岡市",
    "city_kana": "ナガオカシ",
    "town": "妙見町",
    "town_kana": "ミョウケンマチ",
    "street": null,
    "office_name": null,
    "office_name_kana": null
  },
  "1135": {
    "postcode": "9401135",
    "prefecture": "新潟県",
    "prefecture_kana": "ニイガタケン",
    "prefecture_code": 15,
    "city": "長岡市",
    "city_kana": "ナガオカシ",
    "town": "中潟町",
    "town_kana": "ナカガタマチ",
    "street": null,
    "office_name": null,
    "office_name_kana": null
  },
  "1136": {
    "postcode": "9401136",
    "prefecture": "新潟県",
    "prefecture_kana": "ニイガタケン",
    "prefecture_code": 15,
    "city": "長岡市",
    "city_kana": "ナガオカシ",
    "town": "三俵野町",
    "town_kana": "サンビョウノマチ",
    "street": null,
    "office_name": null,
    "office_name_kana": null
  },
  "1137": {
    "postcode": "9401137",
    "prefecture": "新潟県",
    "prefecture_kana": "ニイガタケン",
    "prefecture_code": 15,
    "city": "長岡市",
    "city_kana": "ナガオカシ",
    "town": "大川原町",
    "town_kana": "オオガワラマチ",
    "street": null,
    "office_name": null,
    "office_name_kana": null
  },
  "1138": {
    "postcode": "9401138",
    "prefecture": "新潟県",
    "prefecture_kana": "ニイガタケン",
    "prefecture_code": 15,
    "city": "長岡市",
    "city_kana": "ナガオカシ",
    "town": "滝谷町",
    "town_kana": "タキヤマチ",
    "street": null,
    "office_name": null,
    "office_name_kana": null
  },
  "1139": {
    "postcode": "9401139",
    "prefecture": "新潟県",
    "prefecture_kana": "ニイガタケン",
    "prefecture_code": 15,
    "city": "長岡市",
    "city_kana": "ナガオカシ",
    "town": "高島町",
    "town_kana": "タカシママチ",
    "street": null,
    "office_name": null,
    "office_name_kana": null
  },
  "1140": {
    "postcode": "9401140",
    "prefecture": "新潟県",
    "prefecture_kana": "ニイガタケン",
    "prefecture_code": 15,
    "city": "長岡市",
    "city_kana": "ナガオカシ",
    "town": "上前島",
    "town_kana": "カミマエジマ",
    "street": null,
    "office_name": null,
    "office_name_kana": null
  },
  "1141": {
    "postcode": "9401141",
    "prefecture": "新潟県",
    "prefecture_kana": "ニイガタケン",
    "prefecture_code": 15,
    "city": "長岡市",
    "city_kana": "ナガオカシ",
    "town": "定明町",
    "town_kana": "ジョウミョウマチ",
    "street": null,
    "office_name": null,
    "office_name_kana": null
  },
  "1142": {
    "postcode": "9401142",
    "prefecture": "新潟県",
    "prefecture_kana": "ニイガタケン",
    "prefecture_code": 15,
    "city": "長岡市",
    "city_kana": "ナガオカシ",
    "town": "豊詰町",
    "town_kana": "トヨヅメマチ",
    "street": null,
    "office_name": null,
    "office_name_kana": null
  },
  "1143": {
    "postcode": "9401143",
    "prefecture": "新潟県",
    "prefecture_kana": "ニイガタケン",
    "prefecture_code": 15,
    "city": "長岡市",
    "city_kana": "ナガオカシ",
    "town": "片田町",
    "town_kana": "カタダマチ",
    "street": null,
    "office_name": null,
    "office_name_kana": null
  },
  "1144": {
    "postcode": "9401144",
    "prefecture": "新潟県",
    "prefecture_kana": "ニイガタケン",
    "prefecture_code": 15,
    "city": "長岡市",
    "city_kana": "ナガオカシ",
    "town": "上前島町",
    "town_kana": "カミマエジママチ",
    "street": null,
    "office_name": null,
    "office_name_kana": null
  },
  "1145": {
    "postcode": "9401145",
    "prefecture": "新潟県",
    "prefecture_kana": "ニイガタケン",
    "prefecture_code": 15,
    "city": "長岡市",
    "city_kana": "ナガオカシ",
    "town": "青島町",
    "town_kana": "アオシママチ",
    "street": null,
    "office_name": null,
    "office_name_kana": null
  },
  "1146": {
    "postcode": "9401146",
    "prefecture": "新潟県",
    "prefecture_kana": "ニイガタケン",
    "prefecture_code": 15,
    "city": "長岡市",
    "city_kana": "ナガオカシ",
    "town": "下条町",
    "town_kana": "ゲジョウマチ",
    "street": null,
    "office_name": null,
    "office_name_kana": null
  },
  "1147": {
    "postcode": "9401147",
    "prefecture": "新潟県",
    "prefecture_kana": "ニイガタケン",
    "prefecture_code": 15,
    "city": "長岡市",
    "city_kana": "ナガオカシ",
    "town": "前島町",
    "town_kana": "マエジママチ",
    "street": null,
    "office_name": null,
    "office_name_kana": null
  },
  "1148": {
    "postcode": "9401148",
    "prefecture": "新潟県",
    "prefecture_kana": "ニイガタケン",
    "prefecture_code": 15,
    "city": "長岡市",
    "city_kana": "ナガオカシ",
    "town": "青山町",
    "town_kana": "アオヤママチ",
    "street": null,
    "office_name": null,
    "office_name_kana": null
  },
  "1149": {
    "postcode": "9401149",
    "prefecture": "新潟県",
    "prefecture_kana": "ニイガタケン",
    "prefecture_code": 15,
    "city": "長岡市",
    "city_kana": "ナガオカシ",
    "town": "青山新町",
    "town_kana": "アオヤマシンマチ",
    "street": null,
    "office_name": null,
    "office_name_kana": null
  },
  "1151": {
    "postcode": "9401151",
    "prefecture": "新潟県",
    "prefecture_kana": "ニイガタケン",
    "prefecture_code": 15,
    "city": "長岡市",
    "city_kana": "ナガオカシ",
    "town": "三和",
    "town_kana": "サンワ",
    "street": null,
    "office_name": null,
    "office_name_kana": null
  },
  "1152": {
    "postcode": "9401152",
    "prefecture": "新潟県",
    "prefecture_kana": "ニイガタケン",
    "prefecture_code": 15,
    "city": "長岡市",
    "city_kana": "ナガオカシ",
    "town": "三和町",
    "town_kana": "サンワマチ",
    "street": null,
    "office_name": null,
    "office_name_kana": null
  },
  "1153": {
    "postcode": "9401153",
    "prefecture": "新潟県",
    "prefecture_kana": "ニイガタケン",
    "prefecture_code": 15,
    "city": "長岡市",
    "city_kana": "ナガオカシ",
    "town": "要町",
    "town_kana": "カナメチョウ",
    "street": null,
    "office_name": null,
    "office_name_kana": null
  },
  "1154": {
    "postcode": "9401154",
    "prefecture": "新潟県",
    "prefecture_kana": "ニイガタケン",
    "prefecture_code": 15,
    "city": "長岡市",
    "city_kana": "ナガオカシ",
    "town": "宮栄",
    "town_kana": "ミヤサカエ",
    "street": null,
    "office_name": null,
    "office_name_kana": null
  },
  "1155": {
    "postcode": "9401155",
    "prefecture": "新潟県",
    "prefecture_kana": "ニイガタケン",
    "prefecture_code": 15,
    "city": "長岡市",
    "city_kana": "ナガオカシ",
    "town": "宮内町",
    "town_kana": "ミヤウチマチ",
    "street": null,
    "office_name": null,
    "office_name_kana": null
  },
  "1161": [
    {
      "postcode": "9401161",
      "prefecture": "新潟県",
      "prefecture_kana": "ニイガタケン",
      "prefecture_code": 15,
      "city": "長岡市",
      "city_kana": "ナガオカシ",
      "town": "左近",
      "town_kana": "サコン",
      "street": null,
      "office_name": null,
      "office_name_kana": null
    },
    {
      "postcode": "9401161",
      "prefecture": "新潟県",
      "prefecture_kana": "ニイガタケン",
      "prefecture_code": 15,
      "city": "長岡市",
      "city_kana": "ナガオカシ",
      "town": "左近町",
      "town_kana": "サコンマチ",
      "street": null,
      "office_name": null,
      "office_name_kana": null
    }
  ],
  "1162": {
    "postcode": "9401162",
    "prefecture": "新潟県",
    "prefecture_kana": "ニイガタケン",
    "prefecture_code": 15,
    "city": "長岡市",
    "city_kana": "ナガオカシ",
    "town": "西宮内",
    "town_kana": "ニシミヤウチ",
    "street": null,
    "office_name": null,
    "office_name_kana": null
  },
  "1163": [
    {
      "postcode": "9401163",
      "prefecture": "新潟県",
      "prefecture_kana": "ニイガタケン",
      "prefecture_code": 15,
      "city": "長岡市",
      "city_kana": "ナガオカシ",
      "town": "平島",
      "town_kana": "ヘイジマ",
      "street": null,
      "office_name": null,
      "office_name_kana": null
    },
    {
      "postcode": "9401163",
      "prefecture": "新潟県",
      "prefecture_kana": "ニイガタケン",
      "prefecture_code": 15,
      "city": "長岡市",
      "city_kana": "ナガオカシ",
      "town": "平島町",
      "town_kana": "ヘイジママチ",
      "street": null,
      "office_name": null,
      "office_name_kana": null
    }
  ],
  "1164": {
    "postcode": "9401164",
    "prefecture": "新潟県",
    "prefecture_kana": "ニイガタケン",
    "prefecture_code": 15,
    "city": "長岡市",
    "city_kana": "ナガオカシ",
    "town": "南陽",
    "town_kana": "ナンヨウ",
    "street": null,
    "office_name": null,
    "office_name_kana": null
  },
  "1165": {
    "postcode": "9401165",
    "prefecture": "新潟県",
    "prefecture_kana": "ニイガタケン",
    "prefecture_code": 15,
    "city": "長岡市",
    "city_kana": "ナガオカシ",
    "town": "水梨町",
    "town_kana": "ミズナシマチ",
    "street": null,
    "office_name": null,
    "office_name_kana": null
  },
  "1166": {
    "postcode": "9401166",
    "prefecture": "新潟県",
    "prefecture_kana": "ニイガタケン",
    "prefecture_code": 15,
    "city": "長岡市",
    "city_kana": "ナガオカシ",
    "town": "今井",
    "town_kana": "イマイ",
    "street": null,
    "office_name": null,
    "office_name_kana": null
  },
  "1167": {
    "postcode": "9401167",
    "prefecture": "新潟県",
    "prefecture_kana": "ニイガタケン",
    "prefecture_code": 15,
    "city": "長岡市",
    "city_kana": "ナガオカシ",
    "town": "大宮町",
    "town_kana": "オオミヤマチ",
    "street": null,
    "office_name": null,
    "office_name_kana": null
  },
  "1171": [
    {
      "postcode": "9401171",
      "prefecture": "新潟県",
      "prefecture_kana": "ニイガタケン",
      "prefecture_code": 15,
      "city": "長岡市",
      "city_kana": "ナガオカシ",
      "town": "岩野",
      "town_kana": "イワノ",
      "street": null,
      "office_name": null,
      "office_name_kana": null
    },
    {
      "postcode": "9401171",
      "prefecture": "新潟県",
      "prefecture_kana": "ニイガタケン",
      "prefecture_code": 15,
      "city": "長岡市",
      "city_kana": "ナガオカシ",
      "town": "岩野仲島",
      "town_kana": "イワノナカジマ",
      "street": null,
      "office_name": null,
      "office_name_kana": null
    }
  ],
  "1172": {
    "postcode": "9401172",
    "prefecture": "新潟県",
    "prefecture_kana": "ニイガタケン",
    "prefecture_code": 15,
    "city": "長岡市",
    "city_kana": "ナガオカシ",
    "town": "釜ケ島",
    "town_kana": "カマガシマ",
    "street": null,
    "office_name": null,
    "office_name_kana": null
  },
  "1193": {
    "postcode": "9401193",
    "prefecture": "新潟県",
    "prefecture_kana": "ニイガタケン",
    "prefecture_code": 15,
    "city": "長岡市",
    "city_kana": "ナガオカシ",
    "town": "町田町",
    "town_kana": "マチダマチ",
    "street": "５７５",
    "office_name": "長岡保養園",
    "office_name_kana": "ナガオカホヨウエン"
  },
  "1194": {
    "postcode": "9401194",
    "prefecture": "新潟県",
    "prefecture_kana": "ニイガタケン",
    "prefecture_code": 15,
    "city": "長岡市",
    "city_kana": "ナガオカシ",
    "town": "南陽",
    "town_kana": "ナンヨウ",
    "street": "１丁目１０２７番地１",
    "office_name": "株式会社　ヤヨイサンフーズ　長岡工場",
    "office_name_kana": "カブシキガイシヤ ヤヨイサンフ-ズ ナガオカコウジヨウ"
  },
  "1195": {
    "postcode": "9401195",
    "prefecture": "新潟県",
    "prefecture_kana": "ニイガタケン",
    "prefecture_code": 15,
    "city": "長岡市",
    "city_kana": "ナガオカシ",
    "town": "摂田屋町",
    "town_kana": "セッタヤマチ",
    "street": "２７０４番地１",
    "office_name": "ＴＤＫラムダ　株式会社　長岡テクニカルセンター",
    "office_name_kana": "テイ-デイ-ケイラムダ カブシキガイシヤ ナガオカテクニカルセンタ-"
  },
  "1196": {
    "postcode": "9401196",
    "prefecture": "新潟県",
    "prefecture_kana": "ニイガタケン",
    "prefecture_code": 15,
    "city": "長岡市",
    "city_kana": "ナガオカシ",
    "town": "南陽",
    "town_kana": "ナンヨウ",
    "street": "１丁目１０２７番地４",
    "office_name": "株式会社　新潟味のれん本舗",
    "office_name_kana": "カブシキガイシヤ ニイガタアジノレンホンポ"
  },
  "1198": {
    "postcode": "9401198",
    "prefecture": "新潟県",
    "prefecture_kana": "ニイガタケン",
    "prefecture_code": 15,
    "city": "長岡市",
    "city_kana": "ナガオカシ",
    "town": "曲新町",
    "town_kana": "マガリアラマチ",
    "street": "３丁目１３−１",
    "office_name": "新潟県立　長岡農業高等学校",
    "office_name_kana": "ニイガタケンリツ ナガオカノウギヨウコウトウガツコウ"
  },
  "2001": {
    "postcode": "9402001",
    "prefecture": "新潟県",
    "prefecture_kana": "ニイガタケン",
    "prefecture_code": 15,
    "city": "長岡市",
    "city_kana": "ナガオカシ",
    "town": "槇下町",
    "town_kana": "マキシタマチ",
    "street": null,
    "office_name": null,
    "office_name_kana": null
  },
  "2002": {
    "postcode": "9402002",
    "prefecture": "新潟県",
    "prefecture_kana": "ニイガタケン",
    "prefecture_code": 15,
    "city": "長岡市",
    "city_kana": "ナガオカシ",
    "town": "槇山町",
    "town_kana": "マキヤママチ",
    "street": null,
    "office_name": null,
    "office_name_kana": null
  },
  "2003": {
    "postcode": "9402003",
    "prefecture": "新潟県",
    "prefecture_kana": "ニイガタケン",
    "prefecture_code": 15,
    "city": "長岡市",
    "city_kana": "ナガオカシ",
    "town": "渡場町",
    "town_kana": "ワタリバマチ",
    "street": null,
    "office_name": null,
    "office_name_kana": null
  },
  "2004": {
    "postcode": "9402004",
    "prefecture": "新潟県",
    "prefecture_kana": "ニイガタケン",
    "prefecture_code": 15,
    "city": "長岡市",
    "city_kana": "ナガオカシ",
    "town": "上野町",
    "town_kana": "カミノマチ",
    "street": null,
    "office_name": null,
    "office_name_kana": null
  },
  "2005": {
    "postcode": "9402005",
    "prefecture": "新潟県",
    "prefecture_kana": "ニイガタケン",
    "prefecture_code": 15,
    "city": "長岡市",
    "city_kana": "ナガオカシ",
    "town": "巻島",
    "town_kana": "マキジマ",
    "street": null,
    "office_name": null,
    "office_name_kana": null
  },
  "2011": {
    "postcode": "9402011",
    "prefecture": "新潟県",
    "prefecture_kana": "ニイガタケン",
    "prefecture_code": 15,
    "city": "長岡市",
    "city_kana": "ナガオカシ",
    "town": "藤沢",
    "town_kana": "フジサワ",
    "street": null,
    "office_name": null,
    "office_name_kana": null
  },
  "2012": {
    "postcode": "9402012",
    "prefecture": "新潟県",
    "prefecture_kana": "ニイガタケン",
    "prefecture_code": 15,
    "city": "長岡市",
    "city_kana": "ナガオカシ",
    "town": "荻野",
    "town_kana": "オギノ",
    "street": null,
    "office_name": null,
    "office_name_kana": null
  },
  "2013": {
    "postcode": "9402013",
    "prefecture": "新潟県",
    "prefecture_kana": "ニイガタケン",
    "prefecture_code": 15,
    "city": "長岡市",
    "city_kana": "ナガオカシ",
    "town": "下柳",
    "town_kana": "シモヤナギ",
    "street": null,
    "office_name": null,
    "office_name_kana": null
  },
  "2014": {
    "postcode": "9402014",
    "prefecture": "新潟県",
    "prefecture_kana": "ニイガタケン",
    "prefecture_code": 15,
    "city": "長岡市",
    "city_kana": "ナガオカシ",
    "town": "堤町",
    "town_kana": "ツツミチョウ",
    "street": null,
    "office_name": null,
    "office_name_kana": null
  },
  "2015": {
    "postcode": "9402015",
    "prefecture": "新潟県",
    "prefecture_kana": "ニイガタケン",
    "prefecture_code": 15,
    "city": "長岡市",
    "city_kana": "ナガオカシ",
    "town": "江陽",
    "town_kana": "コウヨウ",
    "street": null,
    "office_name": null,
    "office_name_kana": null
  },
  "2021": {
    "postcode": "9402021",
    "prefecture": "新潟県",
    "prefecture_kana": "ニイガタケン",
    "prefecture_code": 15,
    "city": "長岡市",
    "city_kana": "ナガオカシ",
    "town": "宮関",
    "town_kana": "ミヤゼキ",
    "street": null,
    "office_name": null,
    "office_name_kana": null
  },
  "2022": {
    "postcode": "9402022",
    "prefecture": "新潟県",
    "prefecture_kana": "ニイガタケン",
    "prefecture_code": 15,
    "city": "長岡市",
    "city_kana": "ナガオカシ",
    "town": "鉄工町",
    "town_kana": "テッコウチョウ",
    "street": null,
    "office_name": null,
    "office_name_kana": null
  },
  "2023": {
    "postcode": "9402023",
    "prefecture": "新潟県",
    "prefecture_kana": "ニイガタケン",
    "prefecture_code": 15,
    "city": "長岡市",
    "city_kana": "ナガオカシ",
    "town": "蓮潟",
    "town_kana": "ハスガタ",
    "street": null,
    "office_name": null,
    "office_name_kana": null
  },
  "2024": {
    "postcode": "9402024",
    "prefecture": "新潟県",
    "prefecture_kana": "ニイガタケン",
    "prefecture_code": 15,
    "city": "長岡市",
    "city_kana": "ナガオカシ",
    "town": "堺町",
    "town_kana": "サカイマチ",
    "street": null,
    "office_name": null,
    "office_name_kana": null
  },
  "2025": {
    "postcode": "9402025",
    "prefecture": "新潟県",
    "prefecture_kana": "ニイガタケン",
    "prefecture_code": 15,
    "city": "長岡市",
    "city_kana": "ナガオカシ",
    "town": "高瀬町",
    "town_kana": "タカセマチ",
    "street": null,
    "office_name": null,
    "office_name_kana": null
  },
  "2026": {
    "postcode": "9402026",
    "prefecture": "新潟県",
    "prefecture_kana": "ニイガタケン",
    "prefecture_code": 15,
    "city": "長岡市",
    "city_kana": "ナガオカシ",
    "town": "堺東町",
    "town_kana": "サカイヒガシマチ",
    "street": null,
    "office_name": null,
    "office_name_kana": null
  },
  "2031": {
    "postcode": "9402031",
    "prefecture": "新潟県",
    "prefecture_kana": "ニイガタケン",
    "prefecture_code": 15,
    "city": "長岡市",
    "city_kana": "ナガオカシ",
    "town": "宝地町",
    "town_kana": "ホウジマチ",
    "street": null,
    "office_name": null,
    "office_name_kana": null
  },
  "2032": {
    "postcode": "9402032",
    "prefecture": "新潟県",
    "prefecture_kana": "ニイガタケン",
    "prefecture_code": 15,
    "city": "長岡市",
    "city_kana": "ナガオカシ",
    "town": "石動町",
    "town_kana": "イスルギマチ",
    "street": null,
    "office_name": null,
    "office_name_kana": null
  },
  "2033": {
    "postcode": "9402033",
    "prefecture": "新潟県",
    "prefecture_kana": "ニイガタケン",
    "prefecture_code": 15,
    "city": "長岡市",
    "city_kana": "ナガオカシ",
    "town": "上除町",
    "town_kana": "カミノゾキマチ",
    "street": null,
    "office_name": null,
    "office_name_kana": null
  },
  "2034": {
    "postcode": "9402034",
    "prefecture": "新潟県",
    "prefecture_kana": "ニイガタケン",
    "prefecture_code": 15,
    "city": "長岡市",
    "city_kana": "ナガオカシ",
    "town": "上除町西",
    "town_kana": "カミノゾキマチニシ",
    "street": null,
    "office_name": null,
    "office_name_kana": null
  },
  "2035": {
    "postcode": "9402035",
    "prefecture": "新潟県",
    "prefecture_kana": "ニイガタケン",
    "prefecture_code": 15,
    "city": "長岡市",
    "city_kana": "ナガオカシ",
    "town": "関原町",
    "town_kana": "セキハラマチ",
    "street": null,
    "office_name": null,
    "office_name_kana": null
  },
  "2036": {
    "postcode": "9402036",
    "prefecture": "新潟県",
    "prefecture_kana": "ニイガタケン",
    "prefecture_code": 15,
    "city": "長岡市",
    "city_kana": "ナガオカシ",
    "town": "五反田町",
    "town_kana": "ゴタンダマチ",
    "street": null,
    "office_name": null,
    "office_name_kana": null
  },
  "2037": {
    "postcode": "9402037",
    "prefecture": "新潟県",
    "prefecture_kana": "ニイガタケン",
    "prefecture_code": 15,
    "city": "長岡市",
    "city_kana": "ナガオカシ",
    "town": "関原西町",
    "town_kana": "セキハラニシマチ",
    "street": null,
    "office_name": null,
    "office_name_kana": null
  },
  "2038": {
    "postcode": "9402038",
    "prefecture": "新潟県",
    "prefecture_kana": "ニイガタケン",
    "prefecture_code": 15,
    "city": "長岡市",
    "city_kana": "ナガオカシ",
    "town": "関原東町",
    "town_kana": "セキハラヒガシマチ",
    "street": null,
    "office_name": null,
    "office_name_kana": null
  },
  "2039": {
    "postcode": "9402039",
    "prefecture": "新潟県",
    "prefecture_kana": "ニイガタケン",
    "prefecture_code": 15,
    "city": "長岡市",
    "city_kana": "ナガオカシ",
    "town": "関原南",
    "town_kana": "セキハラミナミ",
    "street": null,
    "office_name": null,
    "office_name_kana": null
  },
  "2041": {
    "postcode": "9402041",
    "prefecture": "新潟県",
    "prefecture_kana": "ニイガタケン",
    "prefecture_code": 15,
    "city": "長岡市",
    "city_kana": "ナガオカシ",
    "town": "白鳥町",
    "town_kana": "シロトリマチ",
    "street": null,
    "office_name": null,
    "office_name_kana": null
  },
  "2042": {
    "postcode": "9402042",
    "prefecture": "新潟県",
    "prefecture_kana": "ニイガタケン",
    "prefecture_code": 15,
    "city": "長岡市",
    "city_kana": "ナガオカシ",
    "town": "宮本町",
    "town_kana": "ミヤモトマチ",
    "street": null,
    "office_name": null,
    "office_name_kana": null
  },
  "2043": {
    "postcode": "9402043",
    "prefecture": "新潟県",
    "prefecture_kana": "ニイガタケン",
    "prefecture_code": 15,
    "city": "長岡市",
    "city_kana": "ナガオカシ",
    "town": "宮本東方町",
    "town_kana": "ミヤモトヒガシカタマチ",
    "street": null,
    "office_name": null,
    "office_name_kana": null
  },
  "2044": {
    "postcode": "9402044",
    "prefecture": "新潟県",
    "prefecture_kana": "ニイガタケン",
    "prefecture_code": 15,
    "city": "長岡市",
    "city_kana": "ナガオカシ",
    "town": "宮本堀之内町",
    "town_kana": "ミヤモトホリノウチマチ",
    "street": null,
    "office_name": null,
    "office_name_kana": null
  },
  "2045": {
    "postcode": "9402045",
    "prefecture": "新潟県",
    "prefecture_kana": "ニイガタケン",
    "prefecture_code": 15,
    "city": "長岡市",
    "city_kana": "ナガオカシ",
    "town": "西陵町",
    "town_kana": "セイリョウマチ",
    "street": null,
    "office_name": null,
    "office_name_kana": null
  },
  "2046": {
    "postcode": "9402046",
    "prefecture": "新潟県",
    "prefecture_kana": "ニイガタケン",
    "prefecture_code": 15,
    "city": "長岡市",
    "city_kana": "ナガオカシ",
    "town": "雲出町",
    "town_kana": "クモイデマチ",
    "street": null,
    "office_name": null,
    "office_name_kana": null
  },
  "2051": {
    "postcode": "9402051",
    "prefecture": "新潟県",
    "prefecture_kana": "ニイガタケン",
    "prefecture_code": 15,
    "city": "長岡市",
    "city_kana": "ナガオカシ",
    "town": "高野町",
    "town_kana": "タカノマチ",
    "street": null,
    "office_name": null,
    "office_name_kana": null
  },
  "2052": {
    "postcode": "9402052",
    "prefecture": "新潟県",
    "prefecture_kana": "ニイガタケン",
    "prefecture_code": 15,
    "city": "長岡市",
    "city_kana": "ナガオカシ",
    "town": "福戸町",
    "town_kana": "フクトマチ",
    "street": null,
    "office_name": null,
    "office_name_kana": null
  },
  "2053": {
    "postcode": "9402053",
    "prefecture": "新潟県",
    "prefecture_kana": "ニイガタケン",
    "prefecture_code": 15,
    "city": "長岡市",
    "city_kana": "ナガオカシ",
    "town": "福道町",
    "town_kana": "フクミチマチ",
    "street": null,
    "office_name": null,
    "office_name_kana": null
  },
  "2054": {
    "postcode": "9402054",
    "prefecture": "新潟県",
    "prefecture_kana": "ニイガタケン",
    "prefecture_code": 15,
    "city": "長岡市",
    "city_kana": "ナガオカシ",
    "town": "南新保町",
    "town_kana": "ミナミシンボマチ",
    "street": null,
    "office_name": null,
    "office_name_kana": null
  },
  "2055": {
    "postcode": "9402055",
    "prefecture": "新潟県",
    "prefecture_kana": "ニイガタケン",
    "prefecture_code": 15,
    "city": "長岡市",
    "city_kana": "ナガオカシ",
    "town": "雨池町",
    "town_kana": "アマイケマチ",
    "street": null,
    "office_name": null,
    "office_name_kana": null
  },
  "2056": {
    "postcode": "9402056",
    "prefecture": "新潟県",
    "prefecture_kana": "ニイガタケン",
    "prefecture_code": 15,
    "city": "長岡市",
    "city_kana": "ナガオカシ",
    "town": "王番田町",
    "town_kana": "オウバデンマチ",
    "street": null,
    "office_name": null,
    "office_name_kana": null
  },
  "2057": {
    "postcode": "9402057",
    "prefecture": "新潟県",
    "prefecture_kana": "ニイガタケン",
    "prefecture_code": 15,
    "city": "長岡市",
    "city_kana": "ナガオカシ",
    "town": "寺宝町",
    "town_kana": "ジホウマチ",
    "street": null,
    "office_name": null,
    "office_name_kana": null
  },
  "2058": {
    "postcode": "9402058",
    "prefecture": "新潟県",
    "prefecture_kana": "ニイガタケン",
    "prefecture_code": 15,
    "city": "長岡市",
    "city_kana": "ナガオカシ",
    "town": "河根川町",
    "town_kana": "カワネガワマチ",
    "street": null,
    "office_name": null,
    "office_name_kana": null
  },
  "2059": {
    "postcode": "9402059",
    "prefecture": "新潟県",
    "prefecture_kana": "ニイガタケン",
    "prefecture_code": 15,
    "city": "長岡市",
    "city_kana": "ナガオカシ",
    "town": "大荒戸町",
    "town_kana": "オオアラトマチ",
    "street": null,
    "office_name": null,
    "office_name_kana": null
  },
  "2081": {
    "postcode": "9402081",
    "prefecture": "新潟県",
    "prefecture_kana": "ニイガタケン",
    "prefecture_code": 15,
    "city": "長岡市",
    "city_kana": "ナガオカシ",
    "town": "三ツ郷屋町",
    "town_kana": null,
    "street": "３７１−１",
    "office_name": "長岡西病院",
    "office_name_kana": "ナガオカニシビヨウイン"
  },
  "2082": {
    "postcode": "9402082",
    "prefecture": "新潟県",
    "prefecture_kana": "ニイガタケン",
    "prefecture_code": 15,
    "city": "長岡市",
    "city_kana": "ナガオカシ",
    "town": "宮本東方町",
    "town_kana": "ミヤモトヒガシカタマチ",
    "street": "字三ツ又１９５０−１",
    "office_name": "（財）　公園緑地管理　越後公園管理センター",
    "office_name_kana": "ザイ コウエンリヨクチカンリ エチゴコウエンカンリセンタ-"
  },
  "2083": {
    "postcode": "9402083",
    "prefecture": "新潟県",
    "prefecture_kana": "ニイガタケン",
    "prefecture_code": 15,
    "city": "長岡市",
    "city_kana": "ナガオカシ",
    "town": "千秋",
    "town_kana": "センシュウ",
    "street": "３丁目２７８−１４",
    "office_name": "新潟県立　近代美術館",
    "office_name_kana": "ニイガタケンリツ キンダイビジユツカン"
  },
  "2085": {
    "postcode": "9402085",
    "prefecture": "新潟県",
    "prefecture_kana": "ニイガタケン",
    "prefecture_code": 15,
    "city": "長岡市",
    "city_kana": "ナガオカシ",
    "town": "千秋",
    "town_kana": "センシュウ",
    "street": "２丁目２９７−１",
    "office_name": "長岡赤十字病院",
    "office_name_kana": "ナガオカセキジユウジビヨウイン"
  },
  "2088": {
    "postcode": "9402088",
    "prefecture": "新潟県",
    "prefecture_kana": "ニイガタケン",
    "prefecture_code": 15,
    "city": "長岡市",
    "city_kana": "ナガオカシ",
    "town": "千秋",
    "town_kana": "センシュウ",
    "street": "４丁目１９７",
    "office_name": "長岡造形大学",
    "office_name_kana": "ナガオカゾウケイダイガク"
  },
  "2093": {
    "postcode": "9402093",
    "prefecture": "新潟県",
    "prefecture_kana": "ニイガタケン",
    "prefecture_code": 15,
    "city": "長岡市",
    "city_kana": "ナガオカシ",
    "town": "千秋",
    "town_kana": "センシュウ",
    "street": "２丁目２７８番地",
    "office_name": "リバーサイド千秋　アピタ・モール",
    "office_name_kana": "リバ-サイドセンシユウ アピタ・モ-ル"
  },
  "2101": {
    "postcode": "9402101",
    "prefecture": "新潟県",
    "prefecture_kana": "ニイガタケン",
    "prefecture_code": 15,
    "city": "長岡市",
    "city_kana": "ナガオカシ",
    "town": "寺島町",
    "town_kana": "テラジママチ",
    "street": null,
    "office_name": null,
    "office_name_kana": null
  },
  "2102": {
    "postcode": "9402102",
    "prefecture": "新潟県",
    "prefecture_kana": "ニイガタケン",
    "prefecture_code": 15,
    "city": "長岡市",
    "city_kana": "ナガオカシ",
    "town": "小沢町",
    "town_kana": "コザワマチ",
    "street": null,
    "office_name": null,
    "office_name_kana": null
  },
  "2103": {
    "postcode": "9402103",
    "prefecture": "新潟県",
    "prefecture_kana": "ニイガタケン",
    "prefecture_code": 15,
    "city": "長岡市",
    "city_kana": "ナガオカシ",
    "town": "古正寺町",
    "town_kana": "コショウジマチ",
    "street": null,
    "office_name": null,
    "office_name_kana": null
  },
  "2104": {
    "postcode": "9402104",
    "prefecture": "新潟県",
    "prefecture_kana": "ニイガタケン",
    "prefecture_code": 15,
    "city": "長岡市",
    "city_kana": "ナガオカシ",
    "town": "大島新町",
    "town_kana": "オオジマシンマチ",
    "street": null,
    "office_name": null,
    "office_name_kana": null
  },
  "2105": {
    "postcode": "9402105",
    "prefecture": "新潟県",
    "prefecture_kana": "ニイガタケン",
    "prefecture_code": 15,
    "city": "長岡市",
    "city_kana": "ナガオカシ",
    "town": "緑町",
    "town_kana": "ミドリチョウ",
    "street": null,
    "office_name": null,
    "office_name_kana": null
  },
  "2106": {
    "postcode": "9402106",
    "prefecture": "新潟県",
    "prefecture_kana": "ニイガタケン",
    "prefecture_code": 15,
    "city": "長岡市",
    "city_kana": "ナガオカシ",
    "town": "古正寺",
    "town_kana": "コショウジ",
    "street": null,
    "office_name": null,
    "office_name_kana": null
  },
  "2108": {
    "postcode": "9402108",
    "prefecture": "新潟県",
    "prefecture_kana": "ニイガタケン",
    "prefecture_code": 15,
    "city": "長岡市",
    "city_kana": "ナガオカシ",
    "town": "千秋",
    "town_kana": "センシュウ",
    "street": null,
    "office_name": null,
    "office_name_kana": null
  },
  "2111": {
    "postcode": "9402111",
    "prefecture": "新潟県",
    "prefecture_kana": "ニイガタケン",
    "prefecture_code": 15,
    "city": "長岡市",
    "city_kana": "ナガオカシ",
    "town": "三ツ郷屋",
    "town_kana": "ミツゴウヤ",
    "street": null,
    "office_name": null,
    "office_name_kana": null
  },
  "2112": {
    "postcode": "9402112",
    "prefecture": "新潟県",
    "prefecture_kana": "ニイガタケン",
    "prefecture_code": 15,
    "city": "長岡市",
    "city_kana": "ナガオカシ",
    "town": "大島本町",
    "town_kana": "オオジマホンチョウ",
    "street": null,
    "office_name": null,
    "office_name_kana": null
  },
  "2113": {
    "postcode": "9402113",
    "prefecture": "新潟県",
    "prefecture_kana": "ニイガタケン",
    "prefecture_code": 15,
    "city": "長岡市",
    "city_kana": "ナガオカシ",
    "town": "大山",
    "town_kana": "オオヤマ",
    "street": null,
    "office_name": null,
    "office_name_kana": null
  },
  "2114": {
    "postcode": "9402114",
    "prefecture": "新潟県",
    "prefecture_kana": "ニイガタケン",
    "prefecture_code": 15,
    "city": "長岡市",
    "city_kana": "ナガオカシ",
    "town": "北山",
    "town_kana": "キタヤマ",
    "street": null,
    "office_name": null,
    "office_name_kana": null
  },
  "2115": {
    "postcode": "9402115",
    "prefecture": "新潟県",
    "prefecture_kana": "ニイガタケン",
    "prefecture_code": 15,
    "city": "長岡市",
    "city_kana": "ナガオカシ",
    "town": "下山",
    "town_kana": "シモヤマ",
    "street": null,
    "office_name": null,
    "office_name_kana": null
  },
  "2116": {
    "postcode": "9402116",
    "prefecture": "新潟県",
    "prefecture_kana": "ニイガタケン",
    "prefecture_code": 15,
    "city": "長岡市",
    "city_kana": "ナガオカシ",
    "town": "南七日町",
    "town_kana": "ミナミナノカマチ",
    "street": null,
    "office_name": null,
    "office_name_kana": null
  },
  "2117": {
    "postcode": "9402117",
    "prefecture": "新潟県",
    "prefecture_kana": "ニイガタケン",
    "prefecture_code": 15,
    "city": "長岡市",
    "city_kana": "ナガオカシ",
    "town": "石動南町",
    "town_kana": "イスルギミナミマチ",
    "street": null,
    "office_name": null,
    "office_name_kana": null
  },
  "2121": {
    "postcode": "9402121",
    "prefecture": "新潟県",
    "prefecture_kana": "ニイガタケン",
    "prefecture_code": 15,
    "city": "長岡市",
    "city_kana": "ナガオカシ",
    "town": "喜多町",
    "town_kana": "キタマチ",
    "street": null,
    "office_name": null,
    "office_name_kana": null
  },
  "2122": {
    "postcode": "9402122",
    "prefecture": "新潟県",
    "prefecture_kana": "ニイガタケン",
    "prefecture_code": 15,
    "city": "長岡市",
    "city_kana": "ナガオカシ",
    "town": "福山町",
    "town_kana": "フクヤママチ",
    "street": null,
    "office_name": null,
    "office_name_kana": null
  },
  "2123": {
    "postcode": "9402123",
    "prefecture": "新潟県",
    "prefecture_kana": "ニイガタケン",
    "prefecture_code": 15,
    "city": "長岡市",
    "city_kana": "ナガオカシ",
    "town": "七日町",
    "town_kana": "ナノカマチ",
    "street": null,
    "office_name": null,
    "office_name_kana": null
  },
  "2124": {
    "postcode": "9402124",
    "prefecture": "新潟県",
    "prefecture_kana": "ニイガタケン",
    "prefecture_code": 15,
    "city": "長岡市",
    "city_kana": "ナガオカシ",
    "town": "希望が丘",
    "town_kana": "キボウガオカ",
    "street": null,
    "office_name": null,
    "office_name_kana": null
  },
  "2125": {
    "postcode": "9402125",
    "prefecture": "新潟県",
    "prefecture_kana": "ニイガタケン",
    "prefecture_code": 15,
    "city": "長岡市",
    "city_kana": "ナガオカシ",
    "town": "希望が丘南",
    "town_kana": "キボウガオカミナミ",
    "street": null,
    "office_name": null,
    "office_name_kana": null
  },
  "2126": {
    "postcode": "9402126",
    "prefecture": "新潟県",
    "prefecture_kana": "ニイガタケン",
    "prefecture_code": 15,
    "city": "長岡市",
    "city_kana": "ナガオカシ",
    "town": "西津町",
    "town_kana": "ニシヅマチ",
    "street": null,
    "office_name": null,
    "office_name_kana": null
  },
  "2127": {
    "postcode": "9402127",
    "prefecture": "新潟県",
    "prefecture_kana": "ニイガタケン",
    "prefecture_code": 15,
    "city": "長岡市",
    "city_kana": "ナガオカシ",
    "town": "新産",
    "town_kana": "シンサン",
    "street": null,
    "office_name": null,
    "office_name_kana": null
  },
  "2128": {
    "postcode": "9402128",
    "prefecture": "新潟県",
    "prefecture_kana": "ニイガタケン",
    "prefecture_code": 15,
    "city": "長岡市",
    "city_kana": "ナガオカシ",
    "town": "新産東町",
    "town_kana": "シンサンヒガシマチ",
    "street": null,
    "office_name": null,
    "office_name_kana": null
  },
  "2131": {
    "postcode": "9402131",
    "prefecture": "新潟県",
    "prefecture_kana": "ニイガタケン",
    "prefecture_code": 15,
    "city": "長岡市",
    "city_kana": "ナガオカシ",
    "town": "才津東町",
    "town_kana": "サイヅヒガシマチ",
    "street": null,
    "office_name": null,
    "office_name_kana": null
  },
  "2132": {
    "postcode": "9402132",
    "prefecture": "新潟県",
    "prefecture_kana": "ニイガタケン",
    "prefecture_code": 15,
    "city": "長岡市",
    "city_kana": "ナガオカシ",
    "town": "才津南町",
    "town_kana": "サイヅミナミマチ",
    "street": null,
    "office_name": null,
    "office_name_kana": null
  },
  "2133": {
    "postcode": "9402133",
    "prefecture": "新潟県",
    "prefecture_kana": "ニイガタケン",
    "prefecture_code": 15,
    "city": "長岡市",
    "city_kana": "ナガオカシ",
    "town": "才津西町",
    "town_kana": "サイヅニシマチ",
    "street": null,
    "office_name": null,
    "office_name_kana": null
  },
  "2134": {
    "postcode": "9402134",
    "prefecture": "新潟県",
    "prefecture_kana": "ニイガタケン",
    "prefecture_code": 15,
    "city": "長岡市",
    "city_kana": "ナガオカシ",
    "town": "親沢町",
    "town_kana": "オヤザワマチ",
    "street": null,
    "office_name": null,
    "office_name_kana": null
  },
  "2135": {
    "postcode": "9402135",
    "prefecture": "新潟県",
    "prefecture_kana": "ニイガタケン",
    "prefecture_code": 15,
    "city": "長岡市",
    "city_kana": "ナガオカシ",
    "town": "深沢町",
    "town_kana": "フカサワマチ",
    "street": null,
    "office_name": null,
    "office_name_kana": null
  },
  "2136": {
    "postcode": "9402136",
    "prefecture": "新潟県",
    "prefecture_kana": "ニイガタケン",
    "prefecture_code": 15,
    "city": "長岡市",
    "city_kana": "ナガオカシ",
    "town": "上富岡",
    "town_kana": "カミトミオカ",
    "street": null,
    "office_name": null,
    "office_name_kana": null
  },
  "2137": {
    "postcode": "9402137",
    "prefecture": "新潟県",
    "prefecture_kana": "ニイガタケン",
    "prefecture_code": 15,
    "city": "長岡市",
    "city_kana": "ナガオカシ",
    "town": "上富岡町",
    "town_kana": "カミトミオカマチ",
    "street": null,
    "office_name": null,
    "office_name_kana": null
  },
  "2138": {
    "postcode": "9402138",
    "prefecture": "新潟県",
    "prefecture_kana": "ニイガタケン",
    "prefecture_code": 15,
    "city": "長岡市",
    "city_kana": "ナガオカシ",
    "town": "日越",
    "town_kana": "ヒゴシ",
    "street": null,
    "office_name": null,
    "office_name_kana": null
  },
  "2141": {
    "postcode": "9402141",
    "prefecture": "新潟県",
    "prefecture_kana": "ニイガタケン",
    "prefecture_code": 15,
    "city": "長岡市",
    "city_kana": "ナガオカシ",
    "town": "藤橋",
    "town_kana": "フジハシ",
    "street": null,
    "office_name": null,
    "office_name_kana": null
  },
  "2142": {
    "postcode": "9402142",
    "prefecture": "新潟県",
    "prefecture_kana": "ニイガタケン",
    "prefecture_code": 15,
    "city": "長岡市",
    "city_kana": "ナガオカシ",
    "town": "長峰町",
    "town_kana": "ナガミネマチ",
    "street": null,
    "office_name": null,
    "office_name_kana": null
  },
  "2143": {
    "postcode": "9402143",
    "prefecture": "新潟県",
    "prefecture_kana": "ニイガタケン",
    "prefecture_code": 15,
    "city": "長岡市",
    "city_kana": "ナガオカシ",
    "town": "高寺町",
    "town_kana": "タカテラマチ",
    "street": null,
    "office_name": null,
    "office_name_kana": null
  },
  "2144": {
    "postcode": "9402144",
    "prefecture": "新潟県",
    "prefecture_kana": "ニイガタケン",
    "prefecture_code": 15,
    "city": "長岡市",
    "city_kana": "ナガオカシ",
    "town": "高頭町",
    "town_kana": "タカトウマチ",
    "street": null,
    "office_name": null,
    "office_name_kana": null
  },
  "2145": {
    "postcode": "9402145",
    "prefecture": "新潟県",
    "prefecture_kana": "ニイガタケン",
    "prefecture_code": 15,
    "city": "長岡市",
    "city_kana": "ナガオカシ",
    "town": "青葉台",
    "town_kana": "アオバダイ",
    "street": null,
    "office_name": null,
    "office_name_kana": null
  },
  "2146": {
    "postcode": "9402146",
    "prefecture": "新潟県",
    "prefecture_kana": "ニイガタケン",
    "prefecture_code": 15,
    "city": "長岡市",
    "city_kana": "ナガオカシ",
    "town": "大積町",
    "town_kana": "オオヅミマチ",
    "street": null,
    "office_name": null,
    "office_name_kana": null
  },
  "2147": {
    "postcode": "9402147",
    "prefecture": "新潟県",
    "prefecture_kana": "ニイガタケン",
    "prefecture_code": 15,
    "city": "長岡市",
    "city_kana": "ナガオカシ",
    "town": "新陽",
    "town_kana": "シンヨウ",
    "street": null,
    "office_name": null,
    "office_name_kana": null
  },
  "2148": {
    "postcode": "9402148",
    "prefecture": "新潟県",
    "prefecture_kana": "ニイガタケン",
    "prefecture_code": 15,
    "city": "長岡市",
    "city_kana": "ナガオカシ",
    "town": "陽光台",
    "town_kana": "ヨウコウダイ",
    "street": null,
    "office_name": null,
    "office_name_kana": null
  },
  "2151": {
    "postcode": "9402151",
    "prefecture": "新潟県",
    "prefecture_kana": "ニイガタケン",
    "prefecture_code": 15,
    "city": "長岡市",
    "city_kana": "ナガオカシ",
    "town": "大積灰下町",
    "town_kana": "オオヅミハイゲマチ",
    "street": null,
    "office_name": null,
    "office_name_kana": null
  },
  "2152": {
    "postcode": "9402152",
    "prefecture": "新潟県",
    "prefecture_kana": "ニイガタケン",
    "prefecture_code": 15,
    "city": "長岡市",
    "city_kana": "ナガオカシ",
    "town": "大積高鳥町",
    "town_kana": "オオヅミタカトリマチ",
    "street": null,
    "office_name": null,
    "office_name_kana": null
  },
  "2153": {
    "postcode": "9402153",
    "prefecture": "新潟県",
    "prefecture_kana": "ニイガタケン",
    "prefecture_code": 15,
    "city": "長岡市",
    "city_kana": "ナガオカシ",
    "town": "大積千本町",
    "town_kana": "オオヅミセンボンマチ",
    "street": null,
    "office_name": null,
    "office_name_kana": null
  },
  "2154": {
    "postcode": "9402154",
    "prefecture": "新潟県",
    "prefecture_kana": "ニイガタケン",
    "prefecture_code": 15,
    "city": "長岡市",
    "city_kana": "ナガオカシ",
    "town": "大積田代町",
    "town_kana": "オオヅミタシロマチ",
    "street": null,
    "office_name": null,
    "office_name_kana": null
  },
  "2155": {
    "postcode": "9402155",
    "prefecture": "新潟県",
    "prefecture_kana": "ニイガタケン",
    "prefecture_code": 15,
    "city": "長岡市",
    "city_kana": "ナガオカシ",
    "town": "大積熊上町",
    "town_kana": "オオヅミクマガミマチ",
    "street": null,
    "office_name": null,
    "office_name_kana": null
  },
  "2156": {
    "postcode": "9402156",
    "prefecture": "新潟県",
    "prefecture_kana": "ニイガタケン",
    "prefecture_code": 15,
    "city": "長岡市",
    "city_kana": "ナガオカシ",
    "town": "大積折渡町",
    "town_kana": "オオヅミオリワタリマチ",
    "street": null,
    "office_name": null,
    "office_name_kana": null
  },
  "2157": {
    "postcode": "9402157",
    "prefecture": "新潟県",
    "prefecture_kana": "ニイガタケン",
    "prefecture_code": 15,
    "city": "長岡市",
    "city_kana": "ナガオカシ",
    "town": "大積三島谷町",
    "town_kana": "オオヅミミシマダニマチ",
    "street": null,
    "office_name": null,
    "office_name_kana": null
  },
  "2158": {
    "postcode": "9402158",
    "prefecture": "新潟県",
    "prefecture_kana": "ニイガタケン",
    "prefecture_code": 15,
    "city": "長岡市",
    "city_kana": "ナガオカシ",
    "town": "大積善間町",
    "town_kana": "オオヅミゼンママチ",
    "street": null,
    "office_name": null,
    "office_name_kana": null
  },
  "2181": {
    "postcode": "9402181",
    "prefecture": "新潟県",
    "prefecture_kana": "ニイガタケン",
    "prefecture_code": 15,
    "city": "長岡市",
    "city_kana": "ナガオカシ",
    "town": "新産",
    "town_kana": "シンサン",
    "street": "２丁目３−２",
    "office_name": "国分関信越　株式会社　新潟支社　長岡支店",
    "office_name_kana": "コクブカンシンエツ カブシキガイシヤ ニイガタシシヤ ナガオカシテン"
  },
  "2182": {
    "postcode": "9402182",
    "prefecture": "新潟県",
    "prefecture_kana": "ニイガタケン",
    "prefecture_code": 15,
    "city": "長岡市",
    "city_kana": "ナガオカシ",
    "town": "大島本町",
    "town_kana": "オオジマホンチョウ",
    "street": "３丁目３３３",
    "office_name": "近藤産業　株式会社",
    "office_name_kana": "コンドウサンギヨウ カブシキガイシヤ"
  },
  "2183": {
    "postcode": "9402183",
    "prefecture": "新潟県",
    "prefecture_kana": "ニイガタケン",
    "prefecture_code": 15,
    "city": "長岡市",
    "city_kana": "ナガオカシ",
    "town": "深沢町",
    "town_kana": "フカサワマチ",
    "street": "２３００",
    "office_name": "崇徳会　田宮病院",
    "office_name_kana": "タミヤビヨウイン"
  },
  "2184": {
    "postcode": "9402184",
    "prefecture": "新潟県",
    "prefecture_kana": "ニイガタケン",
    "prefecture_code": 15,
    "city": "長岡市",
    "city_kana": "ナガオカシ",
    "town": "喜多町",
    "town_kana": "キタマチ",
    "street": "１０３０−１",
    "office_name": "新潟県立長岡向陵高等学校",
    "office_name_kana": "ニイガタケンリツナガオカコウリヨウコウトウガツコウ"
  },
  "2186": {
    "postcode": "9402186",
    "prefecture": "新潟県",
    "prefecture_kana": "ニイガタケン",
    "prefecture_code": 15,
    "city": "長岡市",
    "city_kana": "ナガオカシ",
    "town": "喜多町",
    "town_kana": "キタマチ",
    "street": "１０７８−１",
    "office_name": "株式会社　中越興業",
    "office_name_kana": "カブシキガイシヤ チユウエツコウギヨウ"
  },
  "2188": {
    "postcode": "9402188",
    "prefecture": "新潟県",
    "prefecture_kana": "ニイガタケン",
    "prefecture_code": 15,
    "city": "長岡市",
    "city_kana": "ナガオカシ",
    "town": "上富岡町",
    "town_kana": "カミトミオカマチ",
    "street": "１６０３−１",
    "office_name": "長岡技術科学大学",
    "office_name_kana": "ナガオカギジユツカガクダイガク"
  },
  "2192": {
    "postcode": "9402192",
    "prefecture": "新潟県",
    "prefecture_kana": "ニイガタケン",
    "prefecture_code": 15,
    "city": "長岡市",
    "city_kana": "ナガオカシ",
    "town": "新産",
    "town_kana": "シンサン",
    "street": "３丁目２−１",
    "office_name": "株式会社　ピーコック",
    "office_name_kana": "カブシキガイシヤ ピ-コツク"
  },
  "2195": {
    "postcode": "9402195",
    "prefecture": "新潟県",
    "prefecture_kana": "ニイガタケン",
    "prefecture_code": 15,
    "city": "長岡市",
    "city_kana": "ナガオカシ",
    "town": "新産",
    "town_kana": "シンサン",
    "street": "２丁目４−３",
    "office_name": "株式会社　新村",
    "office_name_kana": "カブシキガイシヤ ニイムラ"
  },
  "2198": {
    "postcode": "9402198",
    "prefecture": "新潟県",
    "prefecture_kana": "ニイガタケン",
    "prefecture_code": 15,
    "city": "長岡市",
    "city_kana": "ナガオカシ",
    "town": "新産",
    "town_kana": "シンサン",
    "street": "２丁目５−８（長岡新産郵便局私書箱第８８号）",
    "office_name": "株式会社　田村商店",
    "office_name_kana": "カブシキガイシヤ タムラシヨウテン"
  },
  "2301": {
    "postcode": "9402301",
    "prefecture": "新潟県",
    "prefecture_kana": "ニイガタケン",
    "prefecture_code": 15,
    "city": "長岡市",
    "city_kana": "ナガオカシ",
    "town": "宮沢",
    "town_kana": "ミヤザワ",
    "street": null,
    "office_name": null,
    "office_name_kana": null
  },
  "2302": {
    "postcode": "9402302",
    "prefecture": "新潟県",
    "prefecture_kana": "ニイガタケン",
    "prefecture_code": 15,
    "city": "長岡市",
    "city_kana": "ナガオカシ",
    "town": "藤川",
    "town_kana": "フジカワ",
    "street": null,
    "office_name": null,
    "office_name_kana": null
  },
  "2303": {
    "postcode": "9402303",
    "prefecture": "新潟県",
    "prefecture_kana": "ニイガタケン",
    "prefecture_code": 15,
    "city": "長岡市",
    "city_kana": "ナガオカシ",
    "town": "瓜生",
    "town_kana": "ウリュウ",
    "street": null,
    "office_name": null,
    "office_name_kana": null
  },
  "2304": {
    "postcode": "9402304",
    "prefecture": "新潟県",
    "prefecture_kana": "ニイガタケン",
    "prefecture_code": 15,
    "city": "長岡市",
    "city_kana": "ナガオカシ",
    "town": "下河根川",
    "town_kana": "シモカワネガワ",
    "street": null,
    "office_name": null,
    "office_name_kana": null
  },
  "2305": {
    "postcode": "9402305",
    "prefecture": "新潟県",
    "prefecture_kana": "ニイガタケン",
    "prefecture_code": 15,
    "city": "長岡市",
    "city_kana": "ナガオカシ",
    "town": "大野",
    "town_kana": "オオノ",
    "street": null,
    "office_name": null,
    "office_name_kana": null
  },
  "2306": {
    "postcode": "9402306",
    "prefecture": "新潟県",
    "prefecture_kana": "ニイガタケン",
    "prefecture_code": 15,
    "city": "長岡市",
    "city_kana": "ナガオカシ",
    "town": "脇野町",
    "town_kana": "ワキノマチ",
    "street": null,
    "office_name": null,
    "office_name_kana": null
  },
  "2311": {
    "postcode": "9402311",
    "prefecture": "新潟県",
    "prefecture_kana": "ニイガタケン",
    "prefecture_code": 15,
    "city": "長岡市",
    "city_kana": "ナガオカシ",
    "town": "三島新保",
    "town_kana": "ミシマシンボ",
    "street": null,
    "office_name": null,
    "office_name_kana": null
  },
  "2312": {
    "postcode": "9402312",
    "prefecture": "新潟県",
    "prefecture_kana": "ニイガタケン",
    "prefecture_code": 15,
    "city": "長岡市",
    "city_kana": "ナガオカシ",
    "town": "三島中条",
    "town_kana": "ミシマナカジョウ",
    "street": null,
    "office_name": null,
    "office_name_kana": null
  },
  "2313": {
    "postcode": "9402313",
    "prefecture": "新潟県",
    "prefecture_kana": "ニイガタケン",
    "prefecture_code": 15,
    "city": "長岡市",
    "city_kana": "ナガオカシ",
    "town": "吉崎",
    "town_kana": "ヨシザキ",
    "street": null,
    "office_name": null,
    "office_name_kana": null
  },
  "2314": {
    "postcode": "9402314",
    "prefecture": "新潟県",
    "prefecture_kana": "ニイガタケン",
    "prefecture_code": 15,
    "city": "長岡市",
    "city_kana": "ナガオカシ",
    "town": "上岩井",
    "town_kana": "カミイワイ",
    "street": null,
    "office_name": null,
    "office_name_kana": null
  },
  "2315": {
    "postcode": "9402315",
    "prefecture": "新潟県",
    "prefecture_kana": "ニイガタケン",
    "prefecture_code": 15,
    "city": "長岡市",
    "city_kana": "ナガオカシ",
    "town": "七日市",
    "town_kana": "ナノカイチ",
    "street": null,
    "office_name": null,
    "office_name_kana": null
  },
  "2316": {
    "postcode": "9402316",
    "prefecture": "新潟県",
    "prefecture_kana": "ニイガタケン",
    "prefecture_code": 15,
    "city": "長岡市",
    "city_kana": "ナガオカシ",
    "town": "鳥越",
    "town_kana": "トリゴエ",
    "street": null,
    "office_name": null,
    "office_name_kana": null
  },
  "2321": {
    "postcode": "9402321",
    "prefecture": "新潟県",
    "prefecture_kana": "ニイガタケン",
    "prefecture_code": 15,
    "city": "長岡市",
    "city_kana": "ナガオカシ",
    "town": "逆谷",
    "town_kana": "サカシダニ",
    "street": null,
    "office_name": null,
    "office_name_kana": null
  },
  "2322": {
    "postcode": "9402322",
    "prefecture": "新潟県",
    "prefecture_kana": "ニイガタケン",
    "prefecture_code": 15,
    "city": "長岡市",
    "city_kana": "ナガオカシ",
    "town": "気比宮",
    "town_kana": "キイノミヤ",
    "street": null,
    "office_name": null,
    "office_name_kana": null
  },
  "2323": {
    "postcode": "9402323",
    "prefecture": "新潟県",
    "prefecture_kana": "ニイガタケン",
    "prefecture_code": 15,
    "city": "長岡市",
    "city_kana": "ナガオカシ",
    "town": "三島上条",
    "town_kana": "ミシマジョウジョウ",
    "street": null,
    "office_name": null,
    "office_name_kana": null
  },
  "2324": {
    "postcode": "9402324",
    "prefecture": "新潟県",
    "prefecture_kana": "ニイガタケン",
    "prefecture_code": 15,
    "city": "長岡市",
    "city_kana": "ナガオカシ",
    "town": "中永",
    "town_kana": "チュウエイ",
    "street": null,
    "office_name": null,
    "office_name_kana": null
  },
  "2325": {
    "postcode": "9402325",
    "prefecture": "新潟県",
    "prefecture_kana": "ニイガタケン",
    "prefecture_code": 15,
    "city": "長岡市",
    "city_kana": "ナガオカシ",
    "town": "蓮花寺",
    "town_kana": "レンゲジ",
    "street": null,
    "office_name": null,
    "office_name_kana": null
  },
  "2392": {
    "postcode": "9402392",
    "prefecture": "新潟県",
    "prefecture_kana": "ニイガタケン",
    "prefecture_code": 15,
    "city": "長岡市",
    "city_kana": "ナガオカシ",
    "town": "上岩井",
    "town_kana": "カミイワイ",
    "street": "１２６１−１",
    "office_name": "長岡市役所　三島支所",
    "office_name_kana": "ナガオカシヤクシヨ ミシマシシヨ"
  },
  "2401": {
    "postcode": "9402401",
    "prefecture": "新潟県",
    "prefecture_kana": "ニイガタケン",
    "prefecture_code": 15,
    "city": "長岡市",
    "city_kana": "ナガオカシ",
    "town": "与板町東与板",
    "town_kana": "ヨイタマチヒガシヨイタ",
    "street": null,
    "office_name": null,
    "office_name_kana": null
  },
  "2402": {
    "postcode": "9402402",
    "prefecture": "新潟県",
    "prefecture_kana": "ニイガタケン",
    "prefecture_code": 15,
    "city": "長岡市",
    "city_kana": "ナガオカシ",
    "town": "与板町与板",
    "town_kana": "ヨイタマチヨイタ",
    "street": null,
    "office_name": null,
    "office_name_kana": null
  },
  "2403": {
    "postcode": "9402403",
    "prefecture": "新潟県",
    "prefecture_kana": "ニイガタケン",
    "prefecture_code": 15,
    "city": "長岡市",
    "city_kana": "ナガオカシ",
    "town": "与板町本与板",
    "town_kana": "ヨイタマチモトヨイタ",
    "street": null,
    "office_name": null,
    "office_name_kana": null
  },
  "2404": {
    "postcode": "9402404",
    "prefecture": "新潟県",
    "prefecture_kana": "ニイガタケン",
    "prefecture_code": 15,
    "city": "長岡市",
    "city_kana": "ナガオカシ",
    "town": "与板町馬越",
    "town_kana": "ヨイタマチマゴシ",
    "street": null,
    "office_name": null,
    "office_name_kana": null
  },
  "2405": {
    "postcode": "9402405",
    "prefecture": "新潟県",
    "prefecture_kana": "ニイガタケン",
    "prefecture_code": 15,
    "city": "長岡市",
    "city_kana": "ナガオカシ",
    "town": "与板町岩方",
    "town_kana": "ヨイタマチイワカタ",
    "street": null,
    "office_name": null,
    "office_name_kana": null
  },
  "2406": {
    "postcode": "9402406",
    "prefecture": "新潟県",
    "prefecture_kana": "ニイガタケン",
    "prefecture_code": 15,
    "city": "長岡市",
    "city_kana": "ナガオカシ",
    "town": "与板町江西",
    "town_kana": "ヨイタマチエニシ",
    "street": null,
    "office_name": null,
    "office_name_kana": null
  },
  "2407": {
    "postcode": "9402407",
    "prefecture": "新潟県",
    "prefecture_kana": "ニイガタケン",
    "prefecture_code": 15,
    "city": "長岡市",
    "city_kana": "ナガオカシ",
    "town": "与板町城山",
    "town_kana": "ヨイタマチシロヤマ",
    "street": null,
    "office_name": null,
    "office_name_kana": null
  },
  "2411": {
    "postcode": "9402411",
    "prefecture": "新潟県",
    "prefecture_kana": "ニイガタケン",
    "prefecture_code": 15,
    "city": "長岡市",
    "city_kana": "ナガオカシ",
    "town": "与板町蔦都",
    "town_kana": "ヨイタマチツタイチ",
    "street": null,
    "office_name": null,
    "office_name_kana": null
  },
  "2412": {
    "postcode": "9402412",
    "prefecture": "新潟県",
    "prefecture_kana": "ニイガタケン",
    "prefecture_code": 15,
    "city": "長岡市",
    "city_kana": "ナガオカシ",
    "town": "与板町広野",
    "town_kana": "ヨイタマチヒロノ",
    "street": null,
    "office_name": null,
    "office_name_kana": null
  },
  "2413": {
    "postcode": "9402413",
    "prefecture": "新潟県",
    "prefecture_kana": "ニイガタケン",
    "prefecture_code": 15,
    "city": "長岡市",
    "city_kana": "ナガオカシ",
    "town": "与板町吉津",
    "town_kana": "ヨイタマチヨシヅ",
    "street": null,
    "office_name": null,
    "office_name_kana": null
  },
  "2414": {
    "postcode": "9402414",
    "prefecture": "新潟県",
    "prefecture_kana": "ニイガタケン",
    "prefecture_code": 15,
    "city": "長岡市",
    "city_kana": "ナガオカシ",
    "town": "与板町中田",
    "town_kana": "ヨイタマチナカダ",
    "street": null,
    "office_name": null,
    "office_name_kana": null
  },
  "2415": {
    "postcode": "9402415",
    "prefecture": "新潟県",
    "prefecture_kana": "ニイガタケン",
    "prefecture_code": 15,
    "city": "長岡市",
    "city_kana": "ナガオカシ",
    "town": "与板町南中",
    "town_kana": "ヨイタマチミナミナカ",
    "street": null,
    "office_name": null,
    "office_name_kana": null
  },
  "2416": {
    "postcode": "9402416",
    "prefecture": "新潟県",
    "prefecture_kana": "ニイガタケン",
    "prefecture_code": 15,
    "city": "長岡市",
    "city_kana": "ナガオカシ",
    "town": "与板町槇原",
    "town_kana": "ヨイタマチマキハラ",
    "street": null,
    "office_name": null,
    "office_name_kana": null
  },
  "2417": {
    "postcode": "9402417",
    "prefecture": "新潟県",
    "prefecture_kana": "ニイガタケン",
    "prefecture_code": 15,
    "city": "長岡市",
    "city_kana": "ナガオカシ",
    "town": "与板町山沢",
    "town_kana": "ヨイタマチヤマザワ",
    "street": null,
    "office_name": null,
    "office_name_kana": null
  },
  "2461": {
    "postcode": "9402461",
    "prefecture": "新潟県",
    "prefecture_kana": "ニイガタケン",
    "prefecture_code": 15,
    "city": "長岡市",
    "city_kana": "ナガオカシ",
    "town": "脇川新田町",
    "town_kana": "ワキガワシンデンマチ",
    "street": null,
    "office_name": null,
    "office_name_kana": null
  },
  "2462": {
    "postcode": "9402462",
    "prefecture": "新潟県",
    "prefecture_kana": "ニイガタケン",
    "prefecture_code": 15,
    "city": "長岡市",
    "city_kana": "ナガオカシ",
    "town": "李崎町",
    "town_kana": "スモンザキマチ",
    "street": null,
    "office_name": null,
    "office_name_kana": null
  },
  "2463": {
    "postcode": "9402463",
    "prefecture": "新潟県",
    "prefecture_kana": "ニイガタケン",
    "prefecture_code": 15,
    "city": "長岡市",
    "city_kana": "ナガオカシ",
    "town": "川袋町",
    "town_kana": "カワブクロマチ",
    "street": null,
    "office_name": null,
    "office_name_kana": null
  },
  "2464": {
    "postcode": "9402464",
    "prefecture": "新潟県",
    "prefecture_kana": "ニイガタケン",
    "prefecture_code": 15,
    "city": "長岡市",
    "city_kana": "ナガオカシ",
    "town": "新開町",
    "town_kana": "シンカイマチ",
    "street": null,
    "office_name": null,
    "office_name_kana": null
  },
  "2465": {
    "postcode": "9402465",
    "prefecture": "新潟県",
    "prefecture_kana": "ニイガタケン",
    "prefecture_code": 15,
    "city": "長岡市",
    "city_kana": "ナガオカシ",
    "town": "成沢町",
    "town_kana": "ナリサワマチ",
    "street": null,
    "office_name": null,
    "office_name_kana": null
  },
  "2471": {
    "postcode": "9402471",
    "prefecture": "新潟県",
    "prefecture_kana": "ニイガタケン",
    "prefecture_code": 15,
    "city": "長岡市",
    "city_kana": "ナガオカシ",
    "town": "上柳町",
    "town_kana": "カミヤナギマチ",
    "street": null,
    "office_name": null,
    "office_name_kana": null
  },
  "2472": {
    "postcode": "9402472",
    "prefecture": "新潟県",
    "prefecture_kana": "ニイガタケン",
    "prefecture_code": 15,
    "city": "長岡市",
    "city_kana": "ナガオカシ",
    "town": "三之宮町",
    "town_kana": "サンノミヤマチ",
    "street": null,
    "office_name": null,
    "office_name_kana": null
  },
  "2473": {
    "postcode": "9402473",
    "prefecture": "新潟県",
    "prefecture_kana": "ニイガタケン",
    "prefecture_code": 15,
    "city": "長岡市",
    "city_kana": "ナガオカシ",
    "town": "芹川町",
    "town_kana": "セリカワマチ",
    "street": null,
    "office_name": null,
    "office_name_kana": null
  },
  "2474": {
    "postcode": "9402474",
    "prefecture": "新潟県",
    "prefecture_kana": "ニイガタケン",
    "prefecture_code": 15,
    "city": "長岡市",
    "city_kana": "ナガオカシ",
    "town": "雁島町",
    "town_kana": "ガンジママチ",
    "street": null,
    "office_name": null,
    "office_name_kana": null
  },
  "2475": {
    "postcode": "9402475",
    "prefecture": "新潟県",
    "prefecture_kana": "ニイガタケン",
    "prefecture_code": 15,
    "city": "長岡市",
    "city_kana": "ナガオカシ",
    "town": "花井町",
    "town_kana": "ハナイマチ",
    "street": null,
    "office_name": null,
    "office_name_kana": null
  },
  "2492": {
    "postcode": "9402492",
    "prefecture": "新潟県",
    "prefecture_kana": "ニイガタケン",
    "prefecture_code": 15,
    "city": "長岡市",
    "city_kana": "ナガオカシ",
    "town": "与板町与板",
    "town_kana": "ヨイタマチヨイタ",
    "street": "甲１３４番地",
    "office_name": "長岡市役所与板支所",
    "office_name_kana": "ナガオカシヤクシヨヨイタシシヨ"
  },
  "2501": {
    "postcode": "9402501",
    "prefecture": "新潟県",
    "prefecture_kana": "ニイガタケン",
    "prefecture_code": 15,
    "city": "長岡市",
    "city_kana": "ナガオカシ",
    "town": "寺泊野積",
    "town_kana": "テラドマリノヅミ",
    "street": null,
    "office_name": null,
    "office_name_kana": null
  },
  "2502": {
    "postcode": "9402502",
    "prefecture": "新潟県",
    "prefecture_kana": "ニイガタケン",
    "prefecture_code": 15,
    "city": "長岡市",
    "city_kana": "ナガオカシ",
    "town": "寺泊",
    "town_kana": "テラドマリ",
    "street": null,
    "office_name": null,
    "office_name_kana": null
  },
  "2503": {
    "postcode": "9402503",
    "prefecture": "新潟県",
    "prefecture_kana": "ニイガタケン",
    "prefecture_code": 15,
    "city": "長岡市",
    "city_kana": "ナガオカシ",
    "town": "寺泊大地",
    "town_kana": "テラドマリオオジ",
    "street": null,
    "office_name": null,
    "office_name_kana": null
  },
  "2504": {
    "postcode": "9402504",
    "prefecture": "新潟県",
    "prefecture_kana": "ニイガタケン",
    "prefecture_code": 15,
    "city": "長岡市",
    "city_kana": "ナガオカシ",
    "town": "寺泊弁才天",
    "town_kana": "テラドマリベンザイテン",
    "street": null,
    "office_name": null,
    "office_name_kana": null
  },
  "2505": {
    "postcode": "9402505",
    "prefecture": "新潟県",
    "prefecture_kana": "ニイガタケン",
    "prefecture_code": 15,
    "city": "長岡市",
    "city_kana": "ナガオカシ",
    "town": "寺泊本弁",
    "town_kana": "テラドマリモトベン",
    "street": null,
    "office_name": null,
    "office_name_kana": null
  },
  "2506": {
    "postcode": "9402506",
    "prefecture": "新潟県",
    "prefecture_kana": "ニイガタケン",
    "prefecture_code": 15,
    "city": "長岡市",
    "city_kana": "ナガオカシ",
    "town": "寺泊本山",
    "town_kana": "テラドマリモトヤマ",
    "street": null,
    "office_name": null,
    "office_name_kana": null
  },
  "2507": {
    "postcode": "9402507",
    "prefecture": "新潟県",
    "prefecture_kana": "ニイガタケン",
    "prefecture_code": 15,
    "city": "長岡市",
    "city_kana": "ナガオカシ",
    "town": "寺泊吉",
    "town_kana": "テラドマリヨシ",
    "street": null,
    "office_name": null,
    "office_name_kana": null
  },
  "2508": {
    "postcode": "9402508",
    "prefecture": "新潟県",
    "prefecture_kana": "ニイガタケン",
    "prefecture_code": 15,
    "city": "長岡市",
    "city_kana": "ナガオカシ",
    "town": "寺泊引岡",
    "town_kana": "テラドマリヒキオカ",
    "street": null,
    "office_name": null,
    "office_name_kana": null
  },
  "2511": {
    "postcode": "9402511",
    "prefecture": "新潟県",
    "prefecture_kana": "ニイガタケン",
    "prefecture_code": 15,
    "city": "長岡市",
    "city_kana": "ナガオカシ",
    "town": "寺泊円上寺",
    "town_kana": "テラドマリエンジョウジ",
    "street": null,
    "office_name": null,
    "office_name_kana": null
  },
  "2512": {
    "postcode": "9402512",
    "prefecture": "新潟県",
    "prefecture_kana": "ニイガタケン",
    "prefecture_code": 15,
    "city": "長岡市",
    "city_kana": "ナガオカシ",
    "town": "寺泊京ケ入",
    "town_kana": "テラドマリキョウガイリ",
    "street": null,
    "office_name": null,
    "office_name_kana": null
  },
  "2513": {
    "postcode": "9402513",
    "prefecture": "新潟県",
    "prefecture_kana": "ニイガタケン",
    "prefecture_code": 15,
    "city": "長岡市",
    "city_kana": "ナガオカシ",
    "town": "寺泊当新田",
    "town_kana": "テラドマリトウシンデン",
    "street": null,
    "office_name": null,
    "office_name_kana": null
  },
  "2514": {
    "postcode": "9402514",
    "prefecture": "新潟県",
    "prefecture_kana": "ニイガタケン",
    "prefecture_code": 15,
    "city": "長岡市",
    "city_kana": "ナガオカシ",
    "town": "寺泊蛇塚",
    "town_kana": "テラドマリヘビツカ",
    "street": null,
    "office_name": null,
    "office_name_kana": null
  },
  "2515": {
    "postcode": "9402515",
    "prefecture": "新潟県",
    "prefecture_kana": "ニイガタケン",
    "prefecture_code": 15,
    "city": "長岡市",
    "city_kana": "ナガオカシ",
    "town": "寺泊中曽根",
    "town_kana": "テラドマリナカゾネ",
    "street": null,
    "office_name": null,
    "office_name_kana": null
  },
  "2516": {
    "postcode": "9402516",
    "prefecture": "新潟県",
    "prefecture_kana": "ニイガタケン",
    "prefecture_code": 15,
    "city": "長岡市",
    "city_kana": "ナガオカシ",
    "town": "寺泊下曽根",
    "town_kana": "テラドマリシモゾネ",
    "street": null,
    "office_name": null,
    "office_name_kana": null
  },
  "2517": {
    "postcode": "9402517",
    "prefecture": "新潟県",
    "prefecture_kana": "ニイガタケン",
    "prefecture_code": 15,
    "city": "長岡市",
    "city_kana": "ナガオカシ",
    "town": "寺泊川崎",
    "town_kana": "テラドマリカワサキ",
    "street": null,
    "office_name": null,
    "office_name_kana": null
  },
  "2518": {
    "postcode": "9402518",
    "prefecture": "新潟県",
    "prefecture_kana": "ニイガタケン",
    "prefecture_code": 15,
    "city": "長岡市",
    "city_kana": "ナガオカシ",
    "town": "寺泊戸崎",
    "town_kana": "テラドマリトザキ",
    "street": null,
    "office_name": null,
    "office_name_kana": null
  },
  "2521": {
    "postcode": "9402521",
    "prefecture": "新潟県",
    "prefecture_kana": "ニイガタケン",
    "prefecture_code": 15,
    "city": "長岡市",
    "city_kana": "ナガオカシ",
    "town": "寺泊年友",
    "town_kana": "テラドマリトシトモ",
    "street": null,
    "office_name": null,
    "office_name_kana": null
  },
  "2522": {
    "postcode": "9402522",
    "prefecture": "新潟県",
    "prefecture_kana": "ニイガタケン",
    "prefecture_code": 15,
    "city": "長岡市",
    "city_kana": "ナガオカシ",
    "town": "寺泊夏戸",
    "town_kana": "テラドマリナツド",
    "street": null,
    "office_name": null,
    "office_name_kana": null
  },
  "2523": {
    "postcode": "9402523",
    "prefecture": "新潟県",
    "prefecture_kana": "ニイガタケン",
    "prefecture_code": 15,
    "city": "長岡市",
    "city_kana": "ナガオカシ",
    "town": "寺泊田頭",
    "town_kana": "テラドマリタガシラ",
    "street": null,
    "office_name": null,
    "office_name_kana": null
  },
  "2524": {
    "postcode": "9402524",
    "prefecture": "新潟県",
    "prefecture_kana": "ニイガタケン",
    "prefecture_code": 15,
    "city": "長岡市",
    "city_kana": "ナガオカシ",
    "town": "寺泊松田",
    "town_kana": "テラドマリマツダ",
    "street": null,
    "office_name": null,
    "office_name_kana": null
  },
  "2525": {
    "postcode": "9402525",
    "prefecture": "新潟県",
    "prefecture_kana": "ニイガタケン",
    "prefecture_code": 15,
    "city": "長岡市",
    "city_kana": "ナガオカシ",
    "town": "寺泊明ケ谷",
    "town_kana": "テラドマリミョウガダニ",
    "street": null,
    "office_name": null,
    "office_name_kana": null
  },
  "2526": {
    "postcode": "9402526",
    "prefecture": "新潟県",
    "prefecture_kana": "ニイガタケン",
    "prefecture_code": 15,
    "city": "長岡市",
    "city_kana": "ナガオカシ",
    "town": "寺泊山田",
    "town_kana": "テラドマリヤマダ",
    "street": null,
    "office_name": null,
    "office_name_kana": null
  },
  "2527": {
    "postcode": "9402527",
    "prefecture": "新潟県",
    "prefecture_kana": "ニイガタケン",
    "prefecture_code": 15,
    "city": "長岡市",
    "city_kana": "ナガオカシ",
    "town": "寺泊志戸橋",
    "town_kana": "テラドマリシトバシ",
    "street": null,
    "office_name": null,
    "office_name_kana": null
  },
  "2528": {
    "postcode": "9402528",
    "prefecture": "新潟県",
    "prefecture_kana": "ニイガタケン",
    "prefecture_code": 15,
    "city": "長岡市",
    "city_kana": "ナガオカシ",
    "town": "寺泊郷本",
    "town_kana": "テラドマリゴウモト",
    "street": null,
    "office_name": null,
    "office_name_kana": null
  },
  "2529": {
    "postcode": "9402529",
    "prefecture": "新潟県",
    "prefecture_kana": "ニイガタケン",
    "prefecture_code": 15,
    "city": "長岡市",
    "city_kana": "ナガオカシ",
    "town": "寺泊大和田",
    "town_kana": "テラドマリオオワダ",
    "street": null,
    "office_name": null,
    "office_name_kana": null
  },
  "2592": {
    "postcode": "9402592",
    "prefecture": "新潟県",
    "prefecture_kana": "ニイガタケン",
    "prefecture_code": 15,
    "city": "長岡市",
    "city_kana": "ナガオカシ",
    "town": "寺泊",
    "town_kana": "テラドマリ",
    "street": "鳥帽子平１９７７番地８",
    "office_name": "長岡市役所寺泊支所",
    "office_name_kana": "ナガオカシヤクシヨテラドマリシシヨ"
  },
  "2595": {
    "postcode": "9402595",
    "prefecture": "新潟県",
    "prefecture_kana": "ニイガタケン",
    "prefecture_code": 15,
    "city": "長岡市",
    "city_kana": "ナガオカシ",
    "town": "寺泊",
    "town_kana": "テラドマリ",
    "street": "下荒町９７７２−２０",
    "office_name": "角上魚類ホールディングス　株式会社",
    "office_name_kana": "カクジヨウギヨルイホ-ルデイングス カブシキガイシヤ"
  },
  "8501": {
    "postcode": "9408501",
    "prefecture": "新潟県",
    "prefecture_kana": "ニイガタケン",
    "prefecture_code": 15,
    "city": "長岡市",
    "city_kana": "ナガオカシ",
    "town": "大手通",
    "town_kana": "オオテドオリ",
    "street": "１丁目４番地１０",
    "office_name": "長岡市役所",
    "office_name_kana": "ナガオカシヤクシヨ"
  },
  "8508": {
    "postcode": "9408508",
    "prefecture": "新潟県",
    "prefecture_kana": "ニイガタケン",
    "prefecture_code": 15,
    "city": "長岡市",
    "city_kana": "ナガオカシ",
    "town": "城内町",
    "town_kana": "ジョウナイチョウ",
    "street": "３丁目８−７",
    "office_name": "ヘアドクター発毛科学研究所",
    "office_name_kana": "ヘアドクタ-ハツモウカガクケンキユウジヨ"
  },
  "8510": {
    "postcode": "9408510",
    "prefecture": "新潟県",
    "prefecture_kana": "ニイガタケン",
    "prefecture_code": 15,
    "city": "長岡市",
    "city_kana": "ナガオカシ",
    "town": "原町",
    "town_kana": "ハラマチ",
    "street": "１丁目５番地１５",
    "office_name": "株式会社　シマキュウ",
    "office_name_kana": "カブシキガイシヤ シマキユウ"
  },
  "8511": {
    "postcode": "9408511",
    "prefecture": "新潟県",
    "prefecture_kana": "ニイガタケン",
    "prefecture_code": 15,
    "city": "長岡市",
    "city_kana": "ナガオカシ",
    "town": "東坂之上町",
    "town_kana": "ヒガシサカノウエマチ",
    "street": "２丁目５−１１",
    "office_name": "住友生命保険　相互会社　長岡支社",
    "office_name_kana": "スミトモセイメイホケン ソウゴウカイシヤ ナガオカシシヤ"
  },
  "8521": {
    "postcode": "9408521",
    "prefecture": "新潟県",
    "prefecture_kana": "ニイガタケン",
    "prefecture_code": 15,
    "city": "長岡市",
    "city_kana": "ナガオカシ",
    "town": "南町",
    "town_kana": "ミナミマチ",
    "street": "２丁目４−４",
    "office_name": "株式会社　大石組",
    "office_name_kana": "カブシキカイシヤ オオイシグミ"
  },
  "8522": {
    "postcode": "9408522",
    "prefecture": "新潟県",
    "prefecture_kana": "ニイガタケン",
    "prefecture_code": 15,
    "city": "長岡市",
    "city_kana": "ナガオカシ",
    "town": "南町",
    "town_kana": "ミナミマチ",
    "street": "１丁目２−３３",
    "office_name": "ミツワ電機　株式会社　長岡営業所",
    "office_name_kana": "ミツワデンキ カブシキカイシヤ ナガオカエイギヨウシヨ"
  },
  "8530": {
    "postcode": "9408530",
    "prefecture": "新潟県",
    "prefecture_kana": "ニイガタケン",
    "prefecture_code": 15,
    "city": "長岡市",
    "city_kana": "ナガオカシ",
    "town": "学校町",
    "town_kana": "ガッコウチョウ",
    "street": "１丁目１番１号",
    "office_name": "新潟大学附属学校部長岡附属学校",
    "office_name_kana": "ニイガタダイガクフゾクガツコウブナガオカフゾクガツコウ"
  },
  "8532": {
    "postcode": "9408532",
    "prefecture": "新潟県",
    "prefecture_kana": "ニイガタケン",
    "prefecture_code": 15,
    "city": "長岡市",
    "city_kana": "ナガオカシ",
    "town": "西片貝町",
    "town_kana": "ニシカタカイマチ",
    "street": "８８８",
    "office_name": "長岡工業高等専門学校",
    "office_name_kana": "ナガオカコウギヨウコウトウセンモンガツコウ"
  },
  "8550": {
    "postcode": "9408550",
    "prefecture": "新潟県",
    "prefecture_kana": "ニイガタケン",
    "prefecture_code": 15,
    "city": "長岡市",
    "city_kana": "ナガオカシ",
    "town": "今朝白",
    "town_kana": "ケサジロ",
    "street": "２丁目７−２５",
    "office_name": "越後ながおか農業協同組合",
    "office_name_kana": "エチゴナガオカノウギヨウキヨウドウクミアイ"
  },
  "8554": {
    "postcode": "9408554",
    "prefecture": "新潟県",
    "prefecture_kana": "ニイガタケン",
    "prefecture_code": 15,
    "city": "長岡市",
    "city_kana": "ナガオカシ",
    "town": "四郎丸町",
    "town_kana": "シロウマルマチ",
    "street": "１７３−２長岡総合庁舎内",
    "office_name": "新潟県　教育庁中越教育事務所",
    "office_name_kana": "ニイガタケン キヨウイクチヨウチユウエツキヨウイクジムシヨ"
  },
  "8555": {
    "postcode": "9408555",
    "prefecture": "新潟県",
    "prefecture_kana": "ニイガタケン",
    "prefecture_code": 15,
    "city": "長岡市",
    "city_kana": "ナガオカシ",
    "town": "東蔵王",
    "town_kana": "ヒガシザオウ",
    "street": "２丁目２−８３",
    "office_name": "石油資源開発　株式会社　長岡鉱業所",
    "office_name_kana": "セキユシゲンカイハツ カブシキカイシヤ ナガオカコウギヨウシヨ"
  },
  "8558": {
    "postcode": "9408558",
    "prefecture": "新潟県",
    "prefecture_kana": "ニイガタケン",
    "prefecture_code": 15,
    "city": "長岡市",
    "city_kana": "ナガオカシ",
    "town": "愛宕",
    "town_kana": "アタゴ",
    "street": "１丁目４−２２",
    "office_name": "株式会社　ダイクラ",
    "office_name_kana": "カブシキカイシヤ ダイクラ"
  },
  "8567": {
    "postcode": "9408567",
    "prefecture": "新潟県",
    "prefecture_kana": "ニイガタケン",
    "prefecture_code": 15,
    "city": "長岡市",
    "city_kana": "ナガオカシ",
    "town": "四郎丸町",
    "town_kana": "シロウマルマチ",
    "street": "１７３番地２",
    "office_name": "新潟県　長岡地域振興局",
    "office_name_kana": "ニイガタケン ナガオカチイキシンコウキヨク"
  },
  "8570": {
    "postcode": "9408570",
    "prefecture": "新潟県",
    "prefecture_kana": "ニイガタケン",
    "prefecture_code": 15,
    "city": "長岡市",
    "city_kana": "ナガオカシ",
    "town": "水道町",
    "town_kana": "スイドウチョウ",
    "street": "３丁目５−６０",
    "office_name": "長岡警察署",
    "office_name_kana": "ナガオカケイサツシヨ"
  },
  "8572": {
    "postcode": "9408572",
    "prefecture": "新潟県",
    "prefecture_kana": "ニイガタケン",
    "prefecture_code": 15,
    "city": "長岡市",
    "city_kana": "ナガオカシ",
    "town": "東高見",
    "town_kana": "ヒガシタカミ",
    "street": "１丁目３番地５",
    "office_name": "アルプスアルパイン　株式会社",
    "office_name_kana": "アルプスアルパイン カブシキガイシヤ"
  },
  "8577": {
    "postcode": "9408577",
    "prefecture": "新潟県",
    "prefecture_kana": "ニイガタケン",
    "prefecture_code": 15,
    "city": "長岡市",
    "city_kana": "ナガオカシ",
    "town": "稲保",
    "town_kana": "イナホ",
    "street": "４丁目７１３番地２",
    "office_name": "船山　株式会社",
    "office_name_kana": "フナヤマ カブシキガイシヤ"
  },
  "8580": {
    "postcode": "9408580",
    "prefecture": "新潟県",
    "prefecture_kana": "ニイガタケン",
    "prefecture_code": 15,
    "city": "長岡市",
    "city_kana": "ナガオカシ",
    "town": "東蔵王",
    "town_kana": "ヒガシザオウ",
    "street": "２丁目２−３４",
    "office_name": "日本精機　株式会社",
    "office_name_kana": "ニホンセイキ カブシキカイシヤ"
  },
  "8583": {
    "postcode": "9408583",
    "prefecture": "新潟県",
    "prefecture_kana": "ニイガタケン",
    "prefecture_code": 15,
    "city": "長岡市",
    "city_kana": "ナガオカシ",
    "town": "北陽",
    "town_kana": "ホクヨウ",
    "street": "２丁目１４番地１６",
    "office_name": "新潟トーヨー　株式会社",
    "office_name_kana": "ニイガタト-ヨ- カブシキガイシヤ"
  },
  "8585": {
    "postcode": "9408585",
    "prefecture": "新潟県",
    "prefecture_kana": "ニイガタケン",
    "prefecture_code": 15,
    "city": "長岡市",
    "city_kana": "ナガオカシ",
    "town": "新保町",
    "town_kana": "ニイボマチ",
    "street": "１３７１−１",
    "office_name": "中越高等学校",
    "office_name_kana": "チユウエツコウトウガツコウ"
  },
  "8586": {
    "postcode": "9408586",
    "prefecture": "新潟県",
    "prefecture_kana": "ニイガタケン",
    "prefecture_code": 15,
    "city": "長岡市",
    "city_kana": "ナガオカシ",
    "town": "大手通",
    "town_kana": "オオテドオリ",
    "street": "２丁目３−１",
    "office_name": "株式会社　大和　長岡店",
    "office_name_kana": "カブシキカイシヤ ダイワ ナガオカテン"
  },
  "8588": {
    "postcode": "9408588",
    "prefecture": "新潟県",
    "prefecture_kana": "ニイガタケン",
    "prefecture_code": 15,
    "city": "長岡市",
    "city_kana": "ナガオカシ",
    "town": "東坂之上町",
    "town_kana": "ヒガシサカノウエマチ",
    "street": "２丁目１−１",
    "office_name": "丸紅　株式会社　長岡支店",
    "office_name_kana": "マルベニ カブシキカイシヤ ナガオカシテン"
  },
  "8602": {
    "postcode": "9408602",
    "prefecture": "新潟県",
    "prefecture_kana": "ニイガタケン",
    "prefecture_code": 15,
    "city": "長岡市",
    "city_kana": "ナガオカシ",
    "town": "城岡",
    "town_kana": "ジョウオカ",
    "street": "２丁目４−１",
    "office_name": "玉川マシナリー　株式会社",
    "office_name_kana": "タマガワマシナリ- カブシキカイシヤ"
  },
  "8603": {
    "postcode": "9408603",
    "prefecture": "新潟県",
    "prefecture_kana": "ニイガタケン",
    "prefecture_code": 15,
    "city": "長岡市",
    "city_kana": "ナガオカシ",
    "town": "城岡",
    "town_kana": "ジョウオカ",
    "street": "１丁目２−１",
    "office_name": "倉敷機械　株式会社",
    "office_name_kana": "クラシキキカイ カブシキカイシヤ"
  },
  "8605": {
    "postcode": "9408605",
    "prefecture": "新潟県",
    "prefecture_kana": "ニイガタケン",
    "prefecture_code": 15,
    "city": "長岡市",
    "city_kana": "ナガオカシ",
    "town": "城岡",
    "town_kana": "ジョウオカ",
    "street": "２丁目８−１",
    "office_name": "株式会社　大原鉄工所",
    "office_name_kana": "カブシキカイシヤ オオハラテツコウジヨ"
  },
  "8610": {
    "postcode": "9408610",
    "prefecture": "新潟県",
    "prefecture_kana": "ニイガタケン",
    "prefecture_code": 15,
    "city": "長岡市",
    "city_kana": "ナガオカシ",
    "town": "南陽",
    "town_kana": "ナンヨウ",
    "street": "１丁目１０２７−４",
    "office_name": "岩塚製菓　株式会社",
    "office_name_kana": "イワツカセイカ カブシキガイシヤ"
  },
  "8611": {
    "postcode": "9408611",
    "prefecture": "新潟県",
    "prefecture_kana": "ニイガタケン",
    "prefecture_code": 15,
    "city": "長岡市",
    "city_kana": "ナガオカシ",
    "town": "南陽",
    "town_kana": "ナンヨウ",
    "street": "１丁目１０２７−４",
    "office_name": "岩塚製菓　株式会社",
    "office_name_kana": "イワツカセイカ カブシキガイシヤ"
  },
  "8612": {
    "postcode": "9408612",
    "prefecture": "新潟県",
    "prefecture_kana": "ニイガタケン",
    "prefecture_code": 15,
    "city": "長岡市",
    "city_kana": "ナガオカシ",
    "town": "南陽",
    "town_kana": "ナンヨウ",
    "street": "１丁目１０２７−４",
    "office_name": "岩塚製菓　株式会社",
    "office_name_kana": "イワツカセイカ カブシキガイシヤ"
  },
  "8620": {
    "postcode": "9408620",
    "prefecture": "新潟県",
    "prefecture_kana": "ニイガタケン",
    "prefecture_code": 15,
    "city": "長岡市",
    "city_kana": "ナガオカシ",
    "town": "表町",
    "town_kana": "オモテマチ",
    "street": "１丁目３−４",
    "office_name": "しなの産業　株式会社",
    "office_name_kana": "シナノサンギヨウ カブシキカイシヤ"
  },
  "8621": {
    "postcode": "9408621",
    "prefecture": "新潟県",
    "prefecture_kana": "ニイガタケン",
    "prefecture_code": 15,
    "city": "長岡市",
    "city_kana": "ナガオカシ",
    "town": "旭岡",
    "town_kana": "アサヒオカ",
    "street": "１丁目２４番地",
    "office_name": "医療法人　立川メディカルセンター　立川綜合病院",
    "office_name_kana": "イリヨウホウジン タチカワメデイカルセンタ- タチカワソウゴウビヨウイン"
  },
  "8622": {
    "postcode": "9408622",
    "prefecture": "新潟県",
    "prefecture_kana": "ニイガタケン",
    "prefecture_code": 15,
    "city": "長岡市",
    "city_kana": "ナガオカシ",
    "town": "呉服町",
    "town_kana": "ゴフクマチ",
    "street": "１丁目４−５",
    "office_name": "越後製菓　株式会社",
    "office_name_kana": "エチゴセイカ カブシキカイシヤ"
  },
  "8630": {
    "postcode": "9408630",
    "prefecture": "新潟県",
    "prefecture_kana": "ニイガタケン",
    "prefecture_code": 15,
    "city": "長岡市",
    "city_kana": "ナガオカシ",
    "town": "東蔵王",
    "town_kana": "ヒガシザオウ",
    "street": "１丁目１−１",
    "office_name": "株式会社　ツガミ長岡工場",
    "office_name_kana": "カブシキカイシヤ ツガミナガオカコウジヨウ"
  },
  "8631": {
    "postcode": "9408631",
    "prefecture": "新潟県",
    "prefecture_kana": "ニイガタケン",
    "prefecture_code": 15,
    "city": "長岡市",
    "city_kana": "ナガオカシ",
    "town": "大手通",
    "town_kana": "オオテドオリ",
    "street": "２丁目１−８",
    "office_name": "丸専繊維　株式会社",
    "office_name_kana": "マルセンセンイ カブシキカイシヤ"
  },
  "8633": {
    "postcode": "9408633",
    "prefecture": "新潟県",
    "prefecture_kana": "ニイガタケン",
    "prefecture_code": 15,
    "city": "長岡市",
    "city_kana": "ナガオカシ",
    "town": "坂之上町",
    "town_kana": "サカノウエマチ",
    "street": "３丁目２−２",
    "office_name": "株式会社　ＮＴＴ東日本—新潟",
    "office_name_kana": "カブシキカイシヤ エヌテイテイヒガシニホン-ニイガタ"
  },
  "8641": {
    "postcode": "9408641",
    "prefecture": "新潟県",
    "prefecture_kana": "ニイガタケン",
    "prefecture_code": 15,
    "city": "長岡市",
    "city_kana": "ナガオカシ",
    "town": "南町",
    "town_kana": "ミナミマチ",
    "street": "１丁目９−３１",
    "office_name": "株式会社　吉原組",
    "office_name_kana": "カブシキカイシヤ ヨシワラグミ"
  },
  "8650": {
    "postcode": "9408650",
    "prefecture": "新潟県",
    "prefecture_kana": "ニイガタケン",
    "prefecture_code": 15,
    "city": "長岡市",
    "city_kana": "ナガオカシ",
    "town": "大手通",
    "town_kana": "オオテドオリ",
    "street": "２丁目２−１４（長岡郵便局私書箱第６号）",
    "office_name": "株式会社　北越銀行　本店",
    "office_name_kana": "カブシキカイシヤ ホクエツギンコウ ホンテン"
  },
  "8651": {
    "postcode": "9408651",
    "prefecture": "新潟県",
    "prefecture_kana": "ニイガタケン",
    "prefecture_code": 15,
    "city": "長岡市",
    "city_kana": "ナガオカシ",
    "town": "大手通",
    "town_kana": "オオテドオリ",
    "street": "１丁目５−６（長岡郵便局私書箱第２６号）",
    "office_name": "株式会社　大光銀行",
    "office_name_kana": "カブシキカイシヤ タイコウギンコウ"
  },
  "8653": {
    "postcode": "9408653",
    "prefecture": "新潟県",
    "prefecture_kana": "ニイガタケン",
    "prefecture_code": 15,
    "city": "長岡市",
    "city_kana": "ナガオカシ",
    "town": "川崎町",
    "town_kana": "カワサキマチ",
    "street": "２０４１",
    "office_name": "長岡中央綜合病院",
    "office_name_kana": "ナガオカチユウオウソウゴウビヨウイン"
  },
  "8654": {
    "postcode": "9408654",
    "prefecture": "新潟県",
    "prefecture_kana": "ニイガタケン",
    "prefecture_code": 15,
    "city": "長岡市",
    "city_kana": "ナガオカシ",
    "town": "千歳",
    "town_kana": "センザイ",
    "street": "１丁目３番８８号長岡地方合同庁舎",
    "office_name": "長岡税務署",
    "office_name_kana": "ナガオカゼイムシヨ"
  },
  "8660": {
    "postcode": "9408660",
    "prefecture": "新潟県",
    "prefecture_kana": "ニイガタケン",
    "prefecture_code": 15,
    "city": "長岡市",
    "city_kana": "ナガオカシ",
    "town": "大手通",
    "town_kana": "オオテドオリ",
    "street": "２丁目４−７（長岡郵便局私書箱第５０号）",
    "office_name": "長岡信用金庫",
    "office_name_kana": "ナガオカシンヨウキンコ"
  },
  "8686": {
    "postcode": "9408686",
    "prefecture": "新潟県",
    "prefecture_kana": "ニイガタケン",
    "prefecture_code": 15,
    "city": "長岡市",
    "city_kana": "ナガオカシ",
    "town": "東坂之上町",
    "town_kana": "ヒガシサカノウエマチ",
    "street": "３丁目２−６（長岡郵便局私書箱第５９号）",
    "office_name": "日本生命保険　相互会社　長岡支社",
    "office_name_kana": "ニホンセイメイホケン ソウゴガイシヤ ナガオカシシヤ"
  }
}