{
  "0011": {
    "postcode": "9530011",
    "prefecture": "新潟県",
    "prefecture_kana": "ニイガタケン",
    "prefecture_code": 15,
    "city": "新潟市西蒲区",
    "city_kana": "ニイガタシニシカンク",
    "town": "角田浜",
    "town_kana": "カクダハマ",
    "street": null,
    "office_name": null,
    "office_name_kana": null
  },
  "0012": {
    "postcode": "9530012",
    "prefecture": "新潟県",
    "prefecture_kana": "ニイガタケン",
    "prefecture_code": 15,
    "city": "新潟市西蒲区",
    "city_kana": "ニイガタシニシカンク",
    "town": "越前浜",
    "town_kana": "エチゼンハマ",
    "street": null,
    "office_name": null,
    "office_name_kana": null
  },
  "0013": {
    "postcode": "9530013",
    "prefecture": "新潟県",
    "prefecture_kana": "ニイガタケン",
    "prefecture_code": 15,
    "city": "新潟市西蒲区",
    "city_kana": "ニイガタシニシカンク",
    "town": "巻大原",
    "town_kana": "マキオオハラ",
    "street": null,
    "office_name": null,
    "office_name_kana": null
  },
  "0014": {
    "postcode": "9530014",
    "prefecture": "新潟県",
    "prefecture_kana": "ニイガタケン",
    "prefecture_code": 15,
    "city": "新潟市西蒲区",
    "city_kana": "ニイガタシニシカンク",
    "town": "新保",
    "town_kana": "シンボ",
    "street": null,
    "office_name": null,
    "office_name_kana": null
  },
  "0015": {
    "postcode": "9530015",
    "prefecture": "新潟県",
    "prefecture_kana": "ニイガタケン",
    "prefecture_code": 15,
    "city": "新潟市西蒲区",
    "city_kana": "ニイガタシニシカンク",
    "town": "松野尾",
    "town_kana": "マツノオ",
    "street": null,
    "office_name": null,
    "office_name_kana": null
  },
  "0016": {
    "postcode": "9530016",
    "prefecture": "新潟県",
    "prefecture_kana": "ニイガタケン",
    "prefecture_code": 15,
    "city": "新潟市西蒲区",
    "city_kana": "ニイガタシニシカンク",
    "town": "松山",
    "town_kana": "マツヤマ",
    "street": null,
    "office_name": null,
    "office_name_kana": null
  },
  "0021": {
    "postcode": "9530021",
    "prefecture": "新潟県",
    "prefecture_kana": "ニイガタケン",
    "prefecture_code": 15,
    "city": "新潟市西蒲区",
    "city_kana": "ニイガタシニシカンク",
    "town": "布目",
    "town_kana": "ヌノメ",
    "street": null,
    "office_name": null,
    "office_name_kana": null
  },
  "0022": {
    "postcode": "9530022",
    "prefecture": "新潟県",
    "prefecture_kana": "ニイガタケン",
    "prefecture_code": 15,
    "city": "新潟市西蒲区",
    "city_kana": "ニイガタシニシカンク",
    "town": "仁箇",
    "town_kana": "ニカ",
    "street": null,
    "office_name": null,
    "office_name_kana": null
  },
  "0023": {
    "postcode": "9530023",
    "prefecture": "新潟県",
    "prefecture_kana": "ニイガタケン",
    "prefecture_code": 15,
    "city": "新潟市西蒲区",
    "city_kana": "ニイガタシニシカンク",
    "town": "竹野町",
    "town_kana": "タケノマチ",
    "street": null,
    "office_name": null,
    "office_name_kana": null
  },
  "0024": {
    "postcode": "9530024",
    "prefecture": "新潟県",
    "prefecture_kana": "ニイガタケン",
    "prefecture_code": 15,
    "city": "新潟市西蒲区",
    "city_kana": "ニイガタシニシカンク",
    "town": "平沢",
    "town_kana": "ヒラサワ",
    "street": null,
    "office_name": null,
    "office_name_kana": null
  },
  "0025": {
    "postcode": "9530025",
    "prefecture": "新潟県",
    "prefecture_kana": "ニイガタケン",
    "prefecture_code": 15,
    "city": "新潟市西蒲区",
    "city_kana": "ニイガタシニシカンク",
    "town": "松郷屋",
    "town_kana": "マツゴウヤ",
    "street": null,
    "office_name": null,
    "office_name_kana": null
  },
  "0026": {
    "postcode": "9530026",
    "prefecture": "新潟県",
    "prefecture_kana": "ニイガタケン",
    "prefecture_code": 15,
    "city": "新潟市西蒲区",
    "city_kana": "ニイガタシニシカンク",
    "town": "伏部",
    "town_kana": "フスベ",
    "street": null,
    "office_name": null,
    "office_name_kana": null
  },
  "0027": {
    "postcode": "9530027",
    "prefecture": "新潟県",
    "prefecture_kana": "ニイガタケン",
    "prefecture_code": 15,
    "city": "新潟市西蒲区",
    "city_kana": "ニイガタシニシカンク",
    "town": "稲島",
    "town_kana": "トウジマ",
    "street": null,
    "office_name": null,
    "office_name_kana": null
  },
  "0031": {
    "postcode": "9530031",
    "prefecture": "新潟県",
    "prefecture_kana": "ニイガタケン",
    "prefecture_code": 15,
    "city": "新潟市西蒲区",
    "city_kana": "ニイガタシニシカンク",
    "town": "羽田",
    "town_kana": "ハネダ",
    "street": null,
    "office_name": null,
    "office_name_kana": null
  },
  "0032": {
    "postcode": "9530032",
    "prefecture": "新潟県",
    "prefecture_kana": "ニイガタケン",
    "prefecture_code": 15,
    "city": "新潟市西蒲区",
    "city_kana": "ニイガタシニシカンク",
    "town": "東汰上",
    "town_kana": "ヒガシヨリアゲ",
    "street": null,
    "office_name": null,
    "office_name_kana": null
  },
  "0033": {
    "postcode": "9530033",
    "prefecture": "新潟県",
    "prefecture_kana": "ニイガタケン",
    "prefecture_code": 15,
    "city": "新潟市西蒲区",
    "city_kana": "ニイガタシニシカンク",
    "town": "中郷屋",
    "town_kana": "ナカゴウヤ",
    "street": null,
    "office_name": null,
    "office_name_kana": null
  },
  "0034": {
    "postcode": "9530034",
    "prefecture": "新潟県",
    "prefecture_kana": "ニイガタケン",
    "prefecture_code": 15,
    "city": "新潟市西蒲区",
    "city_kana": "ニイガタシニシカンク",
    "town": "葉萱場",
    "town_kana": "ハガヤバ",
    "street": null,
    "office_name": null,
    "office_name_kana": null
  },
  "0035": {
    "postcode": "9530035",
    "prefecture": "新潟県",
    "prefecture_kana": "ニイガタケン",
    "prefecture_code": 15,
    "city": "新潟市西蒲区",
    "city_kana": "ニイガタシニシカンク",
    "town": "割前",
    "town_kana": "ワリマエ",
    "street": null,
    "office_name": null,
    "office_name_kana": null
  },
  "0036": {
    "postcode": "9530036",
    "prefecture": "新潟県",
    "prefecture_kana": "ニイガタケン",
    "prefecture_code": 15,
    "city": "新潟市西蒲区",
    "city_kana": "ニイガタシニシカンク",
    "town": "前田",
    "town_kana": "マエタ",
    "street": null,
    "office_name": null,
    "office_name_kana": null
  },
  "0041": {
    "postcode": "9530041",
    "prefecture": "新潟県",
    "prefecture_kana": "ニイガタケン",
    "prefecture_code": 15,
    "city": "新潟市西蒲区",
    "city_kana": "ニイガタシニシカンク",
    "town": "巻甲",
    "town_kana": "マキコウ",
    "street": null,
    "office_name": null,
    "office_name_kana": null
  },
  "0042": {
    "postcode": "9530042",
    "prefecture": "新潟県",
    "prefecture_kana": "ニイガタケン",
    "prefecture_code": 15,
    "city": "新潟市西蒲区",
    "city_kana": "ニイガタシニシカンク",
    "town": "赤鏥",
    "town_kana": "アカサビ",
    "street": null,
    "office_name": null,
    "office_name_kana": null
  },
  "0043": {
    "postcode": "9530043",
    "prefecture": "新潟県",
    "prefecture_kana": "ニイガタケン",
    "prefecture_code": 15,
    "city": "新潟市西蒲区",
    "city_kana": "ニイガタシニシカンク",
    "town": "堀山新田",
    "town_kana": "ホリヤマシンデン",
    "street": null,
    "office_name": null,
    "office_name_kana": null
  },
  "0044": {
    "postcode": "9530044",
    "prefecture": "新潟県",
    "prefecture_kana": "ニイガタケン",
    "prefecture_code": 15,
    "city": "新潟市西蒲区",
    "city_kana": "ニイガタシニシカンク",
    "town": "巻乙",
    "town_kana": "マキオツ",
    "street": null,
    "office_name": null,
    "office_name_kana": null
  },
  "0045": {
    "postcode": "9530045",
    "prefecture": "新潟県",
    "prefecture_kana": "ニイガタケン",
    "prefecture_code": 15,
    "city": "新潟市西蒲区",
    "city_kana": "ニイガタシニシカンク",
    "town": "桔梗ケ丘",
    "town_kana": "キキョウガオカ",
    "street": null,
    "office_name": null,
    "office_name_kana": null
  },
  "0051": {
    "postcode": "9530051",
    "prefecture": "新潟県",
    "prefecture_kana": "ニイガタケン",
    "prefecture_code": 15,
    "city": "新潟市西蒲区",
    "city_kana": "ニイガタシニシカンク",
    "town": "河井",
    "town_kana": "カワイ",
    "street": null,
    "office_name": null,
    "office_name_kana": null
  },
  "0052": {
    "postcode": "9530052",
    "prefecture": "新潟県",
    "prefecture_kana": "ニイガタケン",
    "prefecture_code": 15,
    "city": "新潟市西蒲区",
    "city_kana": "ニイガタシニシカンク",
    "town": "山島",
    "town_kana": "ヤマジマ",
    "street": null,
    "office_name": null,
    "office_name_kana": null
  },
  "0053": {
    "postcode": "9530053",
    "prefecture": "新潟県",
    "prefecture_kana": "ニイガタケン",
    "prefecture_code": 15,
    "city": "新潟市西蒲区",
    "city_kana": "ニイガタシニシカンク",
    "town": "巻東町",
    "town_kana": "マキアズマチョウ",
    "street": null,
    "office_name": null,
    "office_name_kana": null
  },
  "0054": {
    "postcode": "9530054",
    "prefecture": "新潟県",
    "prefecture_kana": "ニイガタケン",
    "prefecture_code": 15,
    "city": "新潟市西蒲区",
    "city_kana": "ニイガタシニシカンク",
    "town": "漆山",
    "town_kana": "ウルシヤマ",
    "street": null,
    "office_name": null,
    "office_name_kana": null
  },
  "0055": {
    "postcode": "9530055",
    "prefecture": "新潟県",
    "prefecture_kana": "ニイガタケン",
    "prefecture_code": 15,
    "city": "新潟市西蒲区",
    "city_kana": "ニイガタシニシカンク",
    "town": "柿島",
    "town_kana": "カキジマ",
    "street": null,
    "office_name": null,
    "office_name_kana": null
  },
  "0061": {
    "postcode": "9530061",
    "prefecture": "新潟県",
    "prefecture_kana": "ニイガタケン",
    "prefecture_code": 15,
    "city": "新潟市西蒲区",
    "city_kana": "ニイガタシニシカンク",
    "town": "馬堀",
    "town_kana": "マボリ",
    "street": null,
    "office_name": null,
    "office_name_kana": null
  },
  "0062": {
    "postcode": "9530062",
    "prefecture": "新潟県",
    "prefecture_kana": "ニイガタケン",
    "prefecture_code": 15,
    "city": "新潟市西蒲区",
    "city_kana": "ニイガタシニシカンク",
    "town": "並岡",
    "town_kana": "ナミオカ",
    "street": null,
    "office_name": null,
    "office_name_kana": null
  },
  "0063": {
    "postcode": "9530063",
    "prefecture": "新潟県",
    "prefecture_kana": "ニイガタケン",
    "prefecture_code": 15,
    "city": "新潟市西蒲区",
    "city_kana": "ニイガタシニシカンク",
    "town": "栄町",
    "town_kana": "サカエチョウ",
    "street": null,
    "office_name": null,
    "office_name_kana": null
  },
  "0064": {
    "postcode": "9530064",
    "prefecture": "新潟県",
    "prefecture_kana": "ニイガタケン",
    "prefecture_code": 15,
    "city": "新潟市西蒲区",
    "city_kana": "ニイガタシニシカンク",
    "town": "桜林",
    "town_kana": "サクラバヤシ",
    "street": null,
    "office_name": null,
    "office_name_kana": null
  },
  "0065": {
    "postcode": "9530065",
    "prefecture": "新潟県",
    "prefecture_kana": "ニイガタケン",
    "prefecture_code": 15,
    "city": "新潟市西蒲区",
    "city_kana": "ニイガタシニシカンク",
    "town": "下和納",
    "town_kana": "シモワノウ",
    "street": null,
    "office_name": null,
    "office_name_kana": null
  },
  "0066": {
    "postcode": "9530066",
    "prefecture": "新潟県",
    "prefecture_kana": "ニイガタケン",
    "prefecture_code": 15,
    "city": "新潟市西蒲区",
    "city_kana": "ニイガタシニシカンク",
    "town": "安尻",
    "town_kana": "アジリ",
    "street": null,
    "office_name": null,
    "office_name_kana": null
  },
  "0067": {
    "postcode": "9530067",
    "prefecture": "新潟県",
    "prefecture_kana": "ニイガタケン",
    "prefecture_code": 15,
    "city": "新潟市西蒲区",
    "city_kana": "ニイガタシニシカンク",
    "town": "潟頭",
    "town_kana": "カタガシラ",
    "street": null,
    "office_name": null,
    "office_name_kana": null
  },
  "0071": {
    "postcode": "9530071",
    "prefecture": "新潟県",
    "prefecture_kana": "ニイガタケン",
    "prefecture_code": 15,
    "city": "新潟市西蒲区",
    "city_kana": "ニイガタシニシカンク",
    "town": "下木島",
    "town_kana": "シモキジマ",
    "street": null,
    "office_name": null,
    "office_name_kana": null
  },
  "0072": {
    "postcode": "9530072",
    "prefecture": "新潟県",
    "prefecture_kana": "ニイガタケン",
    "prefecture_code": 15,
    "city": "新潟市西蒲区",
    "city_kana": "ニイガタシニシカンク",
    "town": "鷲ノ木",
    "town_kana": "ワシノキ",
    "street": null,
    "office_name": null,
    "office_name_kana": null
  },
  "0073": {
    "postcode": "9530073",
    "prefecture": "新潟県",
    "prefecture_kana": "ニイガタケン",
    "prefecture_code": 15,
    "city": "新潟市西蒲区",
    "city_kana": "ニイガタシニシカンク",
    "town": "上木島",
    "town_kana": "カミキジマ",
    "street": null,
    "office_name": null,
    "office_name_kana": null
  },
  "0074": {
    "postcode": "9530074",
    "prefecture": "新潟県",
    "prefecture_kana": "ニイガタケン",
    "prefecture_code": 15,
    "city": "新潟市西蒲区",
    "city_kana": "ニイガタシニシカンク",
    "town": "舟戸",
    "town_kana": "フナト",
    "street": null,
    "office_name": null,
    "office_name_kana": null
  },
  "0075": {
    "postcode": "9530075",
    "prefecture": "新潟県",
    "prefecture_kana": "ニイガタケン",
    "prefecture_code": 15,
    "city": "新潟市西蒲区",
    "city_kana": "ニイガタシニシカンク",
    "town": "峰岡",
    "town_kana": "ミネオカ",
    "street": null,
    "office_name": null,
    "office_name_kana": null
  },
  "0076": {
    "postcode": "9530076",
    "prefecture": "新潟県",
    "prefecture_kana": "ニイガタケン",
    "prefecture_code": 15,
    "city": "新潟市西蒲区",
    "city_kana": "ニイガタシニシカンク",
    "town": "福井",
    "town_kana": "フクイ",
    "street": null,
    "office_name": null,
    "office_name_kana": null
  },
  "0077": {
    "postcode": "9530077",
    "prefecture": "新潟県",
    "prefecture_kana": "ニイガタケン",
    "prefecture_code": 15,
    "city": "新潟市西蒲区",
    "city_kana": "ニイガタシニシカンク",
    "town": "角海浜",
    "town_kana": "カクミハマ",
    "street": null,
    "office_name": null,
    "office_name_kana": null
  },
  "0078": {
    "postcode": "9530078",
    "prefecture": "新潟県",
    "prefecture_kana": "ニイガタケン",
    "prefecture_code": 15,
    "city": "新潟市西蒲区",
    "city_kana": "ニイガタシニシカンク",
    "town": "五ケ浜",
    "town_kana": "ゴカハマ",
    "street": null,
    "office_name": null,
    "office_name_kana": null
  },
  "0101": {
    "postcode": "9530101",
    "prefecture": "新潟県",
    "prefecture_kana": "ニイガタケン",
    "prefecture_code": 15,
    "city": "新潟市西蒲区",
    "city_kana": "ニイガタシニシカンク",
    "town": "樋曽",
    "town_kana": "ヒソ",
    "street": null,
    "office_name": null,
    "office_name_kana": null
  },
  "0102": {
    "postcode": "9530102",
    "prefecture": "新潟県",
    "prefecture_kana": "ニイガタケン",
    "prefecture_code": 15,
    "city": "新潟市西蒲区",
    "city_kana": "ニイガタシニシカンク",
    "town": "栄",
    "town_kana": "サカエ",
    "street": null,
    "office_name": null,
    "office_name_kana": null
  },
  "0103": {
    "postcode": "9530103",
    "prefecture": "新潟県",
    "prefecture_kana": "ニイガタケン",
    "prefecture_code": 15,
    "city": "新潟市西蒲区",
    "city_kana": "ニイガタシニシカンク",
    "town": "橋本",
    "town_kana": "ハシモト",
    "street": null,
    "office_name": null,
    "office_name_kana": null
  },
  "0104": {
    "postcode": "9530104",
    "prefecture": "新潟県",
    "prefecture_kana": "ニイガタケン",
    "prefecture_code": 15,
    "city": "新潟市西蒲区",
    "city_kana": "ニイガタシニシカンク",
    "town": "岩室温泉",
    "town_kana": "イワムロオンセン",
    "street": null,
    "office_name": null,
    "office_name_kana": null
  },
  "0105": {
    "postcode": "9530105",
    "prefecture": "新潟県",
    "prefecture_kana": "ニイガタケン",
    "prefecture_code": 15,
    "city": "新潟市西蒲区",
    "city_kana": "ニイガタシニシカンク",
    "town": "間瀬",
    "town_kana": "マゼ",
    "street": null,
    "office_name": null,
    "office_name_kana": null
  },
  "0111": {
    "postcode": "9530111",
    "prefecture": "新潟県",
    "prefecture_kana": "ニイガタケン",
    "prefecture_code": 15,
    "city": "新潟市西蒲区",
    "city_kana": "ニイガタシニシカンク",
    "town": "油島",
    "town_kana": "アブラジマ",
    "street": null,
    "office_name": null,
    "office_name_kana": null
  },
  "0112": {
    "postcode": "9530112",
    "prefecture": "新潟県",
    "prefecture_kana": "ニイガタケン",
    "prefecture_code": 15,
    "city": "新潟市西蒲区",
    "city_kana": "ニイガタシニシカンク",
    "town": "高畑",
    "town_kana": "タカバタケ",
    "street": null,
    "office_name": null,
    "office_name_kana": null
  },
  "0113": {
    "postcode": "9530113",
    "prefecture": "新潟県",
    "prefecture_kana": "ニイガタケン",
    "prefecture_code": 15,
    "city": "新潟市西蒲区",
    "city_kana": "ニイガタシニシカンク",
    "town": "西船越",
    "town_kana": "ニシフナコシ",
    "street": null,
    "office_name": null,
    "office_name_kana": null
  },
  "0114": {
    "postcode": "9530114",
    "prefecture": "新潟県",
    "prefecture_kana": "ニイガタケン",
    "prefecture_code": 15,
    "city": "新潟市西蒲区",
    "city_kana": "ニイガタシニシカンク",
    "town": "潟上",
    "town_kana": "カタガミ",
    "street": null,
    "office_name": null,
    "office_name_kana": null
  },
  "0115": {
    "postcode": "9530115",
    "prefecture": "新潟県",
    "prefecture_kana": "ニイガタケン",
    "prefecture_code": 15,
    "city": "新潟市西蒲区",
    "city_kana": "ニイガタシニシカンク",
    "town": "横曽根",
    "town_kana": "ヨコゾネ",
    "street": null,
    "office_name": null,
    "office_name_kana": null
  },
  "0116": {
    "postcode": "9530116",
    "prefecture": "新潟県",
    "prefecture_kana": "ニイガタケン",
    "prefecture_code": 15,
    "city": "新潟市西蒲区",
    "city_kana": "ニイガタシニシカンク",
    "town": "新谷",
    "town_kana": "アラヤ",
    "street": null,
    "office_name": null,
    "office_name_kana": null
  },
  "0117": {
    "postcode": "9530117",
    "prefecture": "新潟県",
    "prefecture_kana": "ニイガタケン",
    "prefecture_code": 15,
    "city": "新潟市西蒲区",
    "city_kana": "ニイガタシニシカンク",
    "town": "植野新田",
    "town_kana": "ウエノシンデン",
    "street": null,
    "office_name": null,
    "office_name_kana": null
  },
  "0121": {
    "postcode": "9530121",
    "prefecture": "新潟県",
    "prefecture_kana": "ニイガタケン",
    "prefecture_code": 15,
    "city": "新潟市西蒲区",
    "city_kana": "ニイガタシニシカンク",
    "town": "高橋",
    "town_kana": "タカハシ",
    "street": null,
    "office_name": null,
    "office_name_kana": null
  },
  "0122": {
    "postcode": "9530122",
    "prefecture": "新潟県",
    "prefecture_kana": "ニイガタケン",
    "prefecture_code": 15,
    "city": "新潟市西蒲区",
    "city_kana": "ニイガタシニシカンク",
    "town": "富岡",
    "town_kana": "トミオカ",
    "street": null,
    "office_name": null,
    "office_name_kana": null
  },
  "0123": {
    "postcode": "9530123",
    "prefecture": "新潟県",
    "prefecture_kana": "ニイガタケン",
    "prefecture_code": 15,
    "city": "新潟市西蒲区",
    "city_kana": "ニイガタシニシカンク",
    "town": "津雲田",
    "town_kana": "ツクモダ",
    "street": null,
    "office_name": null,
    "office_name_kana": null
  },
  "0124": {
    "postcode": "9530124",
    "prefecture": "新潟県",
    "prefecture_kana": "ニイガタケン",
    "prefecture_code": 15,
    "city": "新潟市西蒲区",
    "city_kana": "ニイガタシニシカンク",
    "town": "原",
    "town_kana": "ハラ",
    "street": null,
    "office_name": null,
    "office_name_kana": null
  },
  "0125": {
    "postcode": "9530125",
    "prefecture": "新潟県",
    "prefecture_kana": "ニイガタケン",
    "prefecture_code": 15,
    "city": "新潟市西蒲区",
    "city_kana": "ニイガタシニシカンク",
    "town": "和納",
    "town_kana": "ワノウ",
    "street": null,
    "office_name": null,
    "office_name_kana": null
  },
  "0131": {
    "postcode": "9530131",
    "prefecture": "新潟県",
    "prefecture_kana": "ニイガタケン",
    "prefecture_code": 15,
    "city": "新潟市西蒲区",
    "city_kana": "ニイガタシニシカンク",
    "town": "西長島",
    "town_kana": "ニシナガシマ",
    "street": null,
    "office_name": null,
    "office_name_kana": null
  },
  "0132": {
    "postcode": "9530132",
    "prefecture": "新潟県",
    "prefecture_kana": "ニイガタケン",
    "prefecture_code": 15,
    "city": "新潟市西蒲区",
    "city_kana": "ニイガタシニシカンク",
    "town": "西中",
    "town_kana": "ニシナカ",
    "street": null,
    "office_name": null,
    "office_name_kana": null
  },
  "0133": {
    "postcode": "9530133",
    "prefecture": "新潟県",
    "prefecture_kana": "ニイガタケン",
    "prefecture_code": 15,
    "city": "新潟市西蒲区",
    "city_kana": "ニイガタシニシカンク",
    "town": "夏井",
    "town_kana": "ナツイ",
    "street": null,
    "office_name": null,
    "office_name_kana": null
  },
  "0134": {
    "postcode": "9530134",
    "prefecture": "新潟県",
    "prefecture_kana": "ニイガタケン",
    "prefecture_code": 15,
    "city": "新潟市西蒲区",
    "city_kana": "ニイガタシニシカンク",
    "town": "北野",
    "town_kana": "キタノ",
    "street": null,
    "office_name": null,
    "office_name_kana": null
  },
  "0135": {
    "postcode": "9530135",
    "prefecture": "新潟県",
    "prefecture_kana": "ニイガタケン",
    "prefecture_code": 15,
    "city": "新潟市西蒲区",
    "city_kana": "ニイガタシニシカンク",
    "town": "南谷内",
    "town_kana": "ミナミヤチ",
    "street": null,
    "office_name": null,
    "office_name_kana": null
  },
  "0136": {
    "postcode": "9530136",
    "prefecture": "新潟県",
    "prefecture_kana": "ニイガタケン",
    "prefecture_code": 15,
    "city": "新潟市西蒲区",
    "city_kana": "ニイガタシニシカンク",
    "town": "白鳥",
    "town_kana": "シロトリ",
    "street": null,
    "office_name": null,
    "office_name_kana": null
  },
  "0141": {
    "postcode": "9530141",
    "prefecture": "新潟県",
    "prefecture_kana": "ニイガタケン",
    "prefecture_code": 15,
    "city": "新潟市西蒲区",
    "city_kana": "ニイガタシニシカンク",
    "town": "石瀬",
    "town_kana": "イシゼ",
    "street": null,
    "office_name": null,
    "office_name_kana": null
  },
  "0142": {
    "postcode": "9530142",
    "prefecture": "新潟県",
    "prefecture_kana": "ニイガタケン",
    "prefecture_code": 15,
    "city": "新潟市西蒲区",
    "city_kana": "ニイガタシニシカンク",
    "town": "久保田",
    "town_kana": "クボタ",
    "street": null,
    "office_name": null,
    "office_name_kana": null
  },
  "0143": {
    "postcode": "9530143",
    "prefecture": "新潟県",
    "prefecture_kana": "ニイガタケン",
    "prefecture_code": 15,
    "city": "新潟市西蒲区",
    "city_kana": "ニイガタシニシカンク",
    "town": "猿ケ瀬",
    "town_kana": "サルガセ",
    "street": null,
    "office_name": null,
    "office_name_kana": null
  },
  "0144": {
    "postcode": "9530144",
    "prefecture": "新潟県",
    "prefecture_kana": "ニイガタケン",
    "prefecture_code": 15,
    "city": "新潟市西蒲区",
    "city_kana": "ニイガタシニシカンク",
    "town": "金池",
    "town_kana": "カナイケ",
    "street": null,
    "office_name": null,
    "office_name_kana": null
  },
  "0192": {
    "postcode": "9530192",
    "prefecture": "新潟県",
    "prefecture_kana": "ニイガタケン",
    "prefecture_code": 15,
    "city": "新潟市西蒲区",
    "city_kana": "ニイガタシニシカンク",
    "town": "西中",
    "town_kana": "ニシナカ",
    "street": "８６０",
    "office_name": "新潟市西蒲区役所　岩室出張所",
    "office_name_kana": "ニイガタシニシカンクヤクシヨ イワムロシユツチヨウジヨ"
  },
  "0193": {
    "postcode": "9530193",
    "prefecture": "新潟県",
    "prefecture_kana": "ニイガタケン",
    "prefecture_code": 15,
    "city": "新潟市西蒲区",
    "city_kana": "ニイガタシニシカンク",
    "town": "西長島",
    "town_kana": "ニシナガシマ",
    "street": "７７９番地",
    "office_name": "株式会社　末広製菓",
    "office_name_kana": "カブシキガイシヤ スエヒロセイカ"
  },
  "8501": {
    "postcode": "9538501",
    "prefecture": "新潟県",
    "prefecture_kana": "ニイガタケン",
    "prefecture_code": 15,
    "city": "新潟市西蒲区",
    "city_kana": "ニイガタシニシカンク",
    "town": "下和納",
    "town_kana": "シモワノウ",
    "street": "３１４５",
    "office_name": "株式会社　伸和",
    "office_name_kana": "カブシキガイシヤ シンワ"
  },
  "8503": {
    "postcode": "9538503",
    "prefecture": "新潟県",
    "prefecture_kana": "ニイガタケン",
    "prefecture_code": 15,
    "city": "新潟市西蒲区",
    "city_kana": "ニイガタシニシカンク",
    "town": "漆山",
    "town_kana": "ウルシヤマ",
    "street": "８８３３番地",
    "office_name": "新潟かがやき農業協同組合",
    "office_name_kana": "ニイガタカガヤキノウギヨウキヨウドウクミアイ"
  },
  "8601": {
    "postcode": "9538601",
    "prefecture": "新潟県",
    "prefecture_kana": "ニイガタケン",
    "prefecture_code": 15,
    "city": "新潟市西蒲区",
    "city_kana": "ニイガタシニシカンク",
    "town": "巻",
    "town_kana": null,
    "street": "甲４２６５",
    "office_name": "巻税務署",
    "office_name_kana": "マキゼイムシヨ"
  },
  "8602": {
    "postcode": "9538602",
    "prefecture": "新潟県",
    "prefecture_kana": "ニイガタケン",
    "prefecture_code": 15,
    "city": "新潟市西蒲区",
    "city_kana": "ニイガタシニシカンク",
    "town": "巻",
    "town_kana": null,
    "street": "甲２５１７（巻郵便局私書箱第３号）",
    "office_name": "北越農事　株式会社",
    "office_name_kana": "ホクエツノウジ カブシキガイシヤ"
  },
  "8666": {
    "postcode": "9538666",
    "prefecture": "新潟県",
    "prefecture_kana": "ニイガタケン",
    "prefecture_code": 15,
    "city": "新潟市西蒲区",
    "city_kana": "ニイガタシニシカンク",
    "town": "巻",
    "town_kana": null,
    "street": "甲２６９０−１（巻郵便局私書箱第１９号）",
    "office_name": "新潟市西蒲区役所",
    "office_name_kana": "ニイガタシニシカンクヤクシヨ"
  }
}