{
  "0000": {
    "postcode": "9600000",
    "prefecture": "福島県",
    "prefecture_kana": "フクシマケン",
    "prefecture_code": 7,
    "city": "福島市",
    "city_kana": "フクシマシ",
    "town": "",
    "town_kana": "",
    "street": null,
    "office_name": null,
    "office_name_kana": null
  },
  "0101": {
    "postcode": "9600101",
    "prefecture": "福島県",
    "prefecture_kana": "フクシマケン",
    "prefecture_code": 7,
    "city": "福島市",
    "city_kana": "フクシマシ",
    "town": "瀬上町",
    "town_kana": "セノウエマチ",
    "street": null,
    "office_name": null,
    "office_name_kana": null
  },
  "0102": {
    "postcode": "9600102",
    "prefecture": "福島県",
    "prefecture_kana": "フクシマケン",
    "prefecture_code": 7,
    "city": "福島市",
    "city_kana": "フクシマシ",
    "town": "鎌田",
    "town_kana": "カマタ",
    "street": null,
    "office_name": null,
    "office_name_kana": null
  },
  "0103": {
    "postcode": "9600103",
    "prefecture": "福島県",
    "prefecture_kana": "フクシマケン",
    "prefecture_code": 7,
    "city": "福島市",
    "city_kana": "フクシマシ",
    "town": "本内",
    "town_kana": "モトウチ",
    "street": null,
    "office_name": null,
    "office_name_kana": null
  },
  "0111": {
    "postcode": "9600111",
    "prefecture": "福島県",
    "prefecture_kana": "フクシマケン",
    "prefecture_code": 7,
    "city": "福島市",
    "city_kana": "フクシマシ",
    "town": "丸子",
    "town_kana": "マリコ",
    "street": null,
    "office_name": null,
    "office_name_kana": null
  },
  "0112": {
    "postcode": "9600112",
    "prefecture": "福島県",
    "prefecture_kana": "フクシマケン",
    "prefecture_code": 7,
    "city": "福島市",
    "city_kana": "フクシマシ",
    "town": "南矢野目",
    "town_kana": "ミナミヤノメ",
    "street": null,
    "office_name": null,
    "office_name_kana": null
  },
  "0113": {
    "postcode": "9600113",
    "prefecture": "福島県",
    "prefecture_kana": "フクシマケン",
    "prefecture_code": 7,
    "city": "福島市",
    "city_kana": "フクシマシ",
    "town": "北矢野目",
    "town_kana": "キタヤノメ",
    "street": null,
    "office_name": null,
    "office_name_kana": null
  },
  "0114": {
    "postcode": "9600114",
    "prefecture": "福島県",
    "prefecture_kana": "フクシマケン",
    "prefecture_code": 7,
    "city": "福島市",
    "city_kana": "フクシマシ",
    "town": "沖高",
    "town_kana": "オキダカ",
    "street": null,
    "office_name": null,
    "office_name_kana": null
  },
  "0115": {
    "postcode": "9600115",
    "prefecture": "福島県",
    "prefecture_kana": "フクシマケン",
    "prefecture_code": 7,
    "city": "福島市",
    "city_kana": "フクシマシ",
    "town": "下飯坂",
    "town_kana": "シモイイザカ",
    "street": null,
    "office_name": null,
    "office_name_kana": null
  },
  "0116": {
    "postcode": "9600116",
    "prefecture": "福島県",
    "prefecture_kana": "フクシマケン",
    "prefecture_code": 7,
    "city": "福島市",
    "city_kana": "フクシマシ",
    "town": "宮代",
    "town_kana": "ミヤシロ",
    "street": null,
    "office_name": null,
    "office_name_kana": null
  },
  "0180": {
    "postcode": "9600180",
    "prefecture": "福島県",
    "prefecture_kana": "フクシマケン",
    "prefecture_code": 7,
    "city": "福島市",
    "city_kana": "フクシマシ",
    "town": "鎌田",
    "town_kana": "カマタ",
    "street": "字卸町１３−５",
    "office_name": "株式会社　タカムラ",
    "office_name_kana": "カブシキガイシヤ タカムラ"
  },
  "0181": {
    "postcode": "9600181",
    "prefecture": "福島県",
    "prefecture_kana": "フクシマケン",
    "prefecture_code": 7,
    "city": "福島市",
    "city_kana": "フクシマシ",
    "town": "宮代",
    "town_kana": "ミヤシロ",
    "street": "字乳児池１−１",
    "office_name": "福島学院大学",
    "office_name_kana": "フクシマガクインダイガク"
  },
  "0184": {
    "postcode": "9600184",
    "prefecture": "福島県",
    "prefecture_kana": "フクシマケン",
    "prefecture_code": 7,
    "city": "福島市",
    "city_kana": "フクシマシ",
    "town": "鎌田",
    "town_kana": "カマタ",
    "street": "字卸町１９−２",
    "office_name": "株式会社　ひらい",
    "office_name_kana": "カブシキガイシヤ ヒライ"
  },
  "0185": {
    "postcode": "9600185",
    "prefecture": "福島県",
    "prefecture_kana": "フクシマケン",
    "prefecture_code": 7,
    "city": "福島市",
    "city_kana": "フクシマシ",
    "town": "北矢野目",
    "town_kana": "キタヤノメ",
    "street": "字原田東１−１（福島東郵便局私書箱第９号）",
    "office_name": "新ふくしま農業協同組合",
    "office_name_kana": "シンフクシマノウギヨウキヨウドウクミアイ"
  },
  "0192": {
    "postcode": "9600192",
    "prefecture": "福島県",
    "prefecture_kana": "フクシマケン",
    "prefecture_code": 7,
    "city": "福島市",
    "city_kana": "フクシマシ",
    "town": "南矢野目",
    "town_kana": "ミナミヤノメ",
    "street": "字道下３５−１",
    "office_name": "財団法人　福島県退職教職員互助会",
    "office_name_kana": "ザイダンホウジン フクシマケンタイシヨクキヨウシヨクインゴジヨカイ"
  },
  "0194": {
    "postcode": "9600194",
    "prefecture": "福島県",
    "prefecture_kana": "フクシマケン",
    "prefecture_code": 7,
    "city": "福島市",
    "city_kana": "フクシマシ",
    "town": "南矢野目",
    "town_kana": "ミナミヤノメ",
    "street": "字西荒田３５",
    "office_name": "株式会社　マイカル　福島サティ",
    "office_name_kana": "カブシキガイシヤ マイカル フクシマサテイ"
  },
  "0195": {
    "postcode": "9600195",
    "prefecture": "福島県",
    "prefecture_kana": "フクシマケン",
    "prefecture_code": 7,
    "city": "福島市",
    "city_kana": "フクシマシ",
    "town": "鎌田",
    "town_kana": "カマタ",
    "street": "字中江３３（福島東郵便局私書箱第１２号）",
    "office_name": "財団法人　大原綜合病院附属大原医療センター",
    "office_name_kana": "ザイダンホウジン オオハラソウゴウビヨウインフゾクオオハライリヨウセンタ-"
  },
  "0201": {
    "postcode": "9600201",
    "prefecture": "福島県",
    "prefecture_kana": "フクシマケン",
    "prefecture_code": 7,
    "city": "福島市",
    "city_kana": "フクシマシ",
    "town": "飯坂町",
    "town_kana": "イイザカマチ",
    "street": null,
    "office_name": null,
    "office_name_kana": null
  },
  "0211": {
    "postcode": "9600211",
    "prefecture": "福島県",
    "prefecture_kana": "フクシマケン",
    "prefecture_code": 7,
    "city": "福島市",
    "city_kana": "フクシマシ",
    "town": "飯坂町湯野",
    "town_kana": "イイザカマチユノ",
    "street": null,
    "office_name": null,
    "office_name_kana": null
  },
  "0221": {
    "postcode": "9600221",
    "prefecture": "福島県",
    "prefecture_kana": "フクシマケン",
    "prefecture_code": 7,
    "city": "福島市",
    "city_kana": "フクシマシ",
    "town": "飯坂町東湯野",
    "town_kana": "イイザカマチヒガシユノ",
    "street": null,
    "office_name": null,
    "office_name_kana": null
  },
  "0231": {
    "postcode": "9600231",
    "prefecture": "福島県",
    "prefecture_kana": "フクシマケン",
    "prefecture_code": 7,
    "city": "福島市",
    "city_kana": "フクシマシ",
    "town": "飯坂町平野",
    "town_kana": "イイザカマチヒラノ",
    "street": null,
    "office_name": null,
    "office_name_kana": null
  },
  "0241": {
    "postcode": "9600241",
    "prefecture": "福島県",
    "prefecture_kana": "フクシマケン",
    "prefecture_code": 7,
    "city": "福島市",
    "city_kana": "フクシマシ",
    "town": "笹谷",
    "town_kana": "ササヤ",
    "street": null,
    "office_name": null,
    "office_name_kana": null
  },
  "0251": {
    "postcode": "9600251",
    "prefecture": "福島県",
    "prefecture_kana": "フクシマケン",
    "prefecture_code": 7,
    "city": "福島市",
    "city_kana": "フクシマシ",
    "town": "大笹生",
    "town_kana": "オオザソウ",
    "street": null,
    "office_name": null,
    "office_name_kana": null
  },
  "0252": {
    "postcode": "9600252",
    "prefecture": "福島県",
    "prefecture_kana": "フクシマケン",
    "prefecture_code": 7,
    "city": "福島市",
    "city_kana": "フクシマシ",
    "town": "李平",
    "town_kana": "スモモダイラ",
    "street": null,
    "office_name": null,
    "office_name_kana": null
  },
  "0261": {
    "postcode": "9600261",
    "prefecture": "福島県",
    "prefecture_kana": "フクシマケン",
    "prefecture_code": 7,
    "city": "福島市",
    "city_kana": "フクシマシ",
    "town": "飯坂町中野",
    "town_kana": "イイザカマチナカノ",
    "street": null,
    "office_name": null,
    "office_name_kana": null
  },
  "0271": {
    "postcode": "9600271",
    "prefecture": "福島県",
    "prefecture_kana": "フクシマケン",
    "prefecture_code": 7,
    "city": "福島市",
    "city_kana": "フクシマシ",
    "town": "飯坂町茂庭",
    "town_kana": "イイザカマチモニワ",
    "street": null,
    "office_name": null,
    "office_name_kana": null
  },
  "0280": {
    "postcode": "9600280",
    "prefecture": "福島県",
    "prefecture_kana": "フクシマケン",
    "prefecture_code": 7,
    "city": "福島市",
    "city_kana": "フクシマシ",
    "town": "飯坂町湯野",
    "town_kana": "イイザカマチユノ",
    "street": "字田中１",
    "office_name": "トーアエイヨー　株式会社",
    "office_name_kana": "ト-アエイヨ- カブシキガイシヤ"
  },
  "0282": {
    "postcode": "9600282",
    "prefecture": "福島県",
    "prefecture_kana": "フクシマケン",
    "prefecture_code": 7,
    "city": "福島市",
    "city_kana": "フクシマシ",
    "town": "飯坂町湯野",
    "town_kana": "イイザカマチユノ",
    "street": "字新湯６",
    "office_name": "かむろみの郷　穴原温泉吉川屋",
    "office_name_kana": "カムロミノサト アナハラオンセンヨシカワヤ"
  },
  "0283": {
    "postcode": "9600283",
    "prefecture": "福島県",
    "prefecture_kana": "フクシマケン",
    "prefecture_code": 7,
    "city": "福島市",
    "city_kana": "フクシマシ",
    "town": "飯坂町平野",
    "town_kana": "イイザカマチヒラノ",
    "street": "字上前田６−１",
    "office_name": "福島乳業　株式会社",
    "office_name_kana": "フクシマニユウギヨウ カブシキガイシヤ"
  },
  "0289": {
    "postcode": "9600289",
    "prefecture": "福島県",
    "prefecture_kana": "フクシマケン",
    "prefecture_code": 7,
    "city": "福島市",
    "city_kana": "フクシマシ",
    "town": "飯坂町平野",
    "town_kana": "イイザカマチヒラノ",
    "street": "字堂天前１１",
    "office_name": "東北通信　株式会社",
    "office_name_kana": "トウホクツウシン カブシキガイシヤ"
  },
  "0294": {
    "postcode": "9600294",
    "prefecture": "福島県",
    "prefecture_kana": "フクシマケン",
    "prefecture_code": 7,
    "city": "福島市",
    "city_kana": "フクシマシ",
    "town": "飯坂町平野",
    "town_kana": "イイザカマチヒラノ",
    "street": "字三枚長１−１",
    "office_name": "福島県農業協同組合中央会",
    "office_name_kana": "フクシマケンノウギヨウキヨウドウクミアイチユウオウカイ"
  },
  "0296": {
    "postcode": "9600296",
    "prefecture": "福島県",
    "prefecture_kana": "フクシマケン",
    "prefecture_code": 7,
    "city": "福島市",
    "city_kana": "フクシマシ",
    "town": "飯坂町平野",
    "town_kana": "イイザカマチヒラノ",
    "street": "字三枚長１−１",
    "office_name": "全国農業協同組合連合会　福島県本部",
    "office_name_kana": "ゼンコクノウギヨウキヨウドウクミアイレンゴウカイ フクシマケンホンブ"
  },
  "0297": {
    "postcode": "9600297",
    "prefecture": "福島県",
    "prefecture_kana": "フクシマケン",
    "prefecture_code": 7,
    "city": "福島市",
    "city_kana": "フクシマシ",
    "town": "飯坂町平野",
    "town_kana": "イイザカマチヒラノ",
    "street": "字三枚長１−１",
    "office_name": "全国共済農業協同組合連合会　福島県本部",
    "office_name_kana": "ゼンコクキヨウサイノウギヨウキヨウドウクミアイレンゴウカイ フクシマケンホンブ"
  },
  "0298": {
    "postcode": "9600298",
    "prefecture": "福島県",
    "prefecture_kana": "フクシマケン",
    "prefecture_code": 7,
    "city": "福島市",
    "city_kana": "フクシマシ",
    "town": "飯坂町平野",
    "town_kana": "イイザカマチヒラノ",
    "street": "字三枚長１−１",
    "office_name": "福島県厚生農業協同組合連合会",
    "office_name_kana": "フクシマケンコウセイノウギヨウキヨウドウクミアイレンゴウカイ"
  },
  "0401": {
    "postcode": "9600401",
    "prefecture": "福島県",
    "prefecture_kana": "フクシマケン",
    "prefecture_code": 7,
    "city": "伊達市",
    "city_kana": "ダテシ",
    "town": "下川原",
    "town_kana": "シモカワラ",
    "street": null,
    "office_name": null,
    "office_name_kana": null
  },
  "0402": {
    "postcode": "9600402",
    "prefecture": "福島県",
    "prefecture_kana": "フクシマケン",
    "prefecture_code": 7,
    "city": "伊達市",
    "city_kana": "ダテシ",
    "town": "水抜",
    "town_kana": "ミズヌキ",
    "street": null,
    "office_name": null,
    "office_name_kana": null
  },
  "0403": {
    "postcode": "9600403",
    "prefecture": "福島県",
    "prefecture_kana": "フクシマケン",
    "prefecture_code": 7,
    "city": "伊達市",
    "city_kana": "ダテシ",
    "town": "前川原",
    "town_kana": "マエカワラ",
    "street": null,
    "office_name": null,
    "office_name_kana": null
  },
  "0404": {
    "postcode": "9600404",
    "prefecture": "福島県",
    "prefecture_kana": "フクシマケン",
    "prefecture_code": 7,
    "city": "伊達市",
    "city_kana": "ダテシ",
    "town": "原島",
    "town_kana": "ハラジマ",
    "street": null,
    "office_name": null,
    "office_name_kana": null
  },
  "0405": {
    "postcode": "9600405",
    "prefecture": "福島県",
    "prefecture_kana": "フクシマケン",
    "prefecture_code": 7,
    "city": "伊達市",
    "city_kana": "ダテシ",
    "town": "一本木",
    "town_kana": "イッポンギ",
    "street": null,
    "office_name": null,
    "office_name_kana": null
  },
  "0406": {
    "postcode": "9600406",
    "prefecture": "福島県",
    "prefecture_kana": "フクシマケン",
    "prefecture_code": 7,
    "city": "伊達市",
    "city_kana": "ダテシ",
    "town": "堂ノ内",
    "town_kana": "ドウノウチ",
    "street": null,
    "office_name": null,
    "office_name_kana": null
  },
  "0407": {
    "postcode": "9600407",
    "prefecture": "福島県",
    "prefecture_kana": "フクシマケン",
    "prefecture_code": 7,
    "city": "伊達市",
    "city_kana": "ダテシ",
    "town": "日照",
    "town_kana": "ヒデリ",
    "street": null,
    "office_name": null,
    "office_name_kana": null
  },
  "0408": {
    "postcode": "9600408",
    "prefecture": "福島県",
    "prefecture_kana": "フクシマケン",
    "prefecture_code": 7,
    "city": "伊達市",
    "city_kana": "ダテシ",
    "town": "岡沼",
    "town_kana": "オカヌマ",
    "street": null,
    "office_name": null,
    "office_name_kana": null
  },
  "0411": {
    "postcode": "9600411",
    "prefecture": "福島県",
    "prefecture_kana": "フクシマケン",
    "prefecture_code": 7,
    "city": "伊達市",
    "city_kana": "ダテシ",
    "town": "梨子木町",
    "town_kana": "ナシノキマチ",
    "street": null,
    "office_name": null,
    "office_name_kana": null
  },
  "0412": {
    "postcode": "9600412",
    "prefecture": "福島県",
    "prefecture_kana": "フクシマケン",
    "prefecture_code": 7,
    "city": "伊達市",
    "city_kana": "ダテシ",
    "town": "雪車町",
    "town_kana": "ソリマチ",
    "street": null,
    "office_name": null,
    "office_name_kana": null
  },
  "0413": {
    "postcode": "9600413",
    "prefecture": "福島県",
    "prefecture_kana": "フクシマケン",
    "prefecture_code": 7,
    "city": "伊達市",
    "city_kana": "ダテシ",
    "town": "宮前",
    "town_kana": "ミヤマエ",
    "street": null,
    "office_name": null,
    "office_name_kana": null
  },
  "0414": {
    "postcode": "9600414",
    "prefecture": "福島県",
    "prefecture_kana": "フクシマケン",
    "prefecture_code": 7,
    "city": "伊達市",
    "city_kana": "ダテシ",
    "town": "長岡",
    "town_kana": "ナガオカ",
    "street": null,
    "office_name": null,
    "office_name_kana": null
  },
  "0415": {
    "postcode": "9600415",
    "prefecture": "福島県",
    "prefecture_kana": "フクシマケン",
    "prefecture_code": 7,
    "city": "伊達市",
    "city_kana": "ダテシ",
    "town": "右城",
    "town_kana": "ウシロ",
    "street": null,
    "office_name": null,
    "office_name_kana": null
  },
  "0416": {
    "postcode": "9600416",
    "prefecture": "福島県",
    "prefecture_kana": "フクシマケン",
    "prefecture_code": 7,
    "city": "伊達市",
    "city_kana": "ダテシ",
    "town": "中畑",
    "town_kana": "ナカハタ",
    "street": null,
    "office_name": null,
    "office_name_kana": null
  },
  "0417": {
    "postcode": "9600417",
    "prefecture": "福島県",
    "prefecture_kana": "フクシマケン",
    "prefecture_code": 7,
    "city": "伊達市",
    "city_kana": "ダテシ",
    "town": "北畑",
    "town_kana": "キタハタ",
    "street": null,
    "office_name": null,
    "office_name_kana": null
  },
  "0418": {
    "postcode": "9600418",
    "prefecture": "福島県",
    "prefecture_kana": "フクシマケン",
    "prefecture_code": 7,
    "city": "伊達市",
    "city_kana": "ダテシ",
    "town": "岡前",
    "town_kana": "オカマエ",
    "street": null,
    "office_name": null,
    "office_name_kana": null
  },
  "0419": {
    "postcode": "9600419",
    "prefecture": "福島県",
    "prefecture_kana": "フクシマケン",
    "prefecture_code": 7,
    "city": "伊達市",
    "city_kana": "ダテシ",
    "town": "広前",
    "town_kana": "ヒロマエ",
    "street": null,
    "office_name": null,
    "office_name_kana": null
  },
  "0421": {
    "postcode": "9600421",
    "prefecture": "福島県",
    "prefecture_kana": "フクシマケン",
    "prefecture_code": 7,
    "city": "伊達市",
    "city_kana": "ダテシ",
    "town": "一本杉",
    "town_kana": "イッポンスギ",
    "street": null,
    "office_name": null,
    "office_name_kana": null
  },
  "0422": {
    "postcode": "9600422",
    "prefecture": "福島県",
    "prefecture_kana": "フクシマケン",
    "prefecture_code": 7,
    "city": "伊達市",
    "city_kana": "ダテシ",
    "town": "川原田",
    "town_kana": "カワラダ",
    "street": null,
    "office_name": null,
    "office_name_kana": null
  },
  "0423": {
    "postcode": "9600423",
    "prefecture": "福島県",
    "prefecture_kana": "フクシマケン",
    "prefecture_code": 7,
    "city": "伊達市",
    "city_kana": "ダテシ",
    "town": "荒町",
    "town_kana": "アラマチ",
    "street": null,
    "office_name": null,
    "office_name_kana": null
  },
  "0424": {
    "postcode": "9600424",
    "prefecture": "福島県",
    "prefecture_kana": "フクシマケン",
    "prefecture_code": 7,
    "city": "伊達市",
    "city_kana": "ダテシ",
    "town": "姥ケ懐",
    "town_kana": "ウバガフトコロ",
    "street": null,
    "office_name": null,
    "office_name_kana": null
  },
  "0425": {
    "postcode": "9600425",
    "prefecture": "福島県",
    "prefecture_kana": "フクシマケン",
    "prefecture_code": 7,
    "city": "伊達市",
    "city_kana": "ダテシ",
    "town": "姥川",
    "town_kana": "ウバガワ",
    "street": null,
    "office_name": null,
    "office_name_kana": null
  },
  "0426": {
    "postcode": "9600426",
    "prefecture": "福島県",
    "prefecture_kana": "フクシマケン",
    "prefecture_code": 7,
    "city": "伊達市",
    "city_kana": "ダテシ",
    "town": "坂ノ下",
    "town_kana": "サカノシタ",
    "street": null,
    "office_name": null,
    "office_name_kana": null
  },
  "0427": {
    "postcode": "9600427",
    "prefecture": "福島県",
    "prefecture_kana": "フクシマケン",
    "prefecture_code": 7,
    "city": "伊達市",
    "city_kana": "ダテシ",
    "town": "鍛治屋川",
    "town_kana": "カジヤガワ",
    "street": null,
    "office_name": null,
    "office_name_kana": null
  },
  "0428": {
    "postcode": "9600428",
    "prefecture": "福島県",
    "prefecture_kana": "フクシマケン",
    "prefecture_code": 7,
    "city": "伊達市",
    "city_kana": "ダテシ",
    "town": "坂ノ上",
    "town_kana": "サカノウエ",
    "street": null,
    "office_name": null,
    "office_name_kana": null
  },
  "0429": {
    "postcode": "9600429",
    "prefecture": "福島県",
    "prefecture_kana": "フクシマケン",
    "prefecture_code": 7,
    "city": "伊達市",
    "city_kana": "ダテシ",
    "town": "塚畑",
    "town_kana": "ツカハタ",
    "street": null,
    "office_name": null,
    "office_name_kana": null
  },
  "0431": {
    "postcode": "9600431",
    "prefecture": "福島県",
    "prefecture_kana": "フクシマケン",
    "prefecture_code": 7,
    "city": "伊達市",
    "city_kana": "ダテシ",
    "town": "川原町",
    "town_kana": "カワラマチ",
    "street": null,
    "office_name": null,
    "office_name_kana": null
  },
  "0432": {
    "postcode": "9600432",
    "prefecture": "福島県",
    "prefecture_kana": "フクシマケン",
    "prefecture_code": 7,
    "city": "伊達市",
    "city_kana": "ダテシ",
    "town": "長川原",
    "town_kana": "ナガカワラ",
    "street": null,
    "office_name": null,
    "office_name_kana": null
  },
  "0433": {
    "postcode": "9600433",
    "prefecture": "福島県",
    "prefecture_kana": "フクシマケン",
    "prefecture_code": 7,
    "city": "伊達市",
    "city_kana": "ダテシ",
    "town": "上川原",
    "town_kana": "カミカワラ",
    "street": null,
    "office_name": null,
    "office_name_kana": null
  },
  "0434": {
    "postcode": "9600434",
    "prefecture": "福島県",
    "prefecture_kana": "フクシマケン",
    "prefecture_code": 7,
    "city": "伊達市",
    "city_kana": "ダテシ",
    "town": "堰下",
    "town_kana": "セキシタ",
    "street": null,
    "office_name": null,
    "office_name_kana": null
  },
  "0435": {
    "postcode": "9600435",
    "prefecture": "福島県",
    "prefecture_kana": "フクシマケン",
    "prefecture_code": 7,
    "city": "伊達市",
    "city_kana": "ダテシ",
    "town": "堰上",
    "town_kana": "セキウエ",
    "street": null,
    "office_name": null,
    "office_name_kana": null
  },
  "0436": {
    "postcode": "9600436",
    "prefecture": "福島県",
    "prefecture_kana": "フクシマケン",
    "prefecture_code": 7,
    "city": "伊達市",
    "city_kana": "ダテシ",
    "town": "前田",
    "town_kana": "マエダ",
    "street": null,
    "office_name": null,
    "office_name_kana": null
  },
  "0437": {
    "postcode": "9600437",
    "prefecture": "福島県",
    "prefecture_kana": "フクシマケン",
    "prefecture_code": 7,
    "city": "伊達市",
    "city_kana": "ダテシ",
    "town": "一本松",
    "town_kana": "イッポンマツ",
    "street": null,
    "office_name": null,
    "office_name_kana": null
  },
  "0438": {
    "postcode": "9600438",
    "prefecture": "福島県",
    "prefecture_kana": "フクシマケン",
    "prefecture_code": 7,
    "city": "伊達市",
    "city_kana": "ダテシ",
    "town": "雷田",
    "town_kana": "ライデン",
    "street": null,
    "office_name": null,
    "office_name_kana": null
  },
  "0441": {
    "postcode": "9600441",
    "prefecture": "福島県",
    "prefecture_kana": "フクシマケン",
    "prefecture_code": 7,
    "city": "伊達市",
    "city_kana": "ダテシ",
    "town": "新町",
    "town_kana": "シンマチ",
    "street": null,
    "office_name": null,
    "office_name_kana": null
  },
  "0442": {
    "postcode": "9600442",
    "prefecture": "福島県",
    "prefecture_kana": "フクシマケン",
    "prefecture_code": 7,
    "city": "伊達市",
    "city_kana": "ダテシ",
    "town": "菅田",
    "town_kana": "スガタ",
    "street": null,
    "office_name": null,
    "office_name_kana": null
  },
  "0443": {
    "postcode": "9600443",
    "prefecture": "福島県",
    "prefecture_kana": "フクシマケン",
    "prefecture_code": 7,
    "city": "伊達市",
    "city_kana": "ダテシ",
    "town": "諏訪西",
    "town_kana": "スワニシ",
    "street": null,
    "office_name": null,
    "office_name_kana": null
  },
  "0444": {
    "postcode": "9600444",
    "prefecture": "福島県",
    "prefecture_kana": "フクシマケン",
    "prefecture_code": 7,
    "city": "伊達市",
    "city_kana": "ダテシ",
    "town": "諏訪前",
    "town_kana": "スワマエ",
    "street": null,
    "office_name": null,
    "office_name_kana": null
  },
  "0445": {
    "postcode": "9600445",
    "prefecture": "福島県",
    "prefecture_kana": "フクシマケン",
    "prefecture_code": 7,
    "city": "伊達市",
    "city_kana": "ダテシ",
    "town": "神明前",
    "town_kana": "シンメイマエ",
    "street": null,
    "office_name": null,
    "office_name_kana": null
  },
  "0446": {
    "postcode": "9600446",
    "prefecture": "福島県",
    "prefecture_kana": "フクシマケン",
    "prefecture_code": 7,
    "city": "伊達市",
    "city_kana": "ダテシ",
    "town": "諏訪野",
    "town_kana": "スワノ",
    "street": null,
    "office_name": null,
    "office_name_kana": null
  },
  "0447": {
    "postcode": "9600447",
    "prefecture": "福島県",
    "prefecture_kana": "フクシマケン",
    "prefecture_code": 7,
    "city": "伊達市",
    "city_kana": "ダテシ",
    "town": "寺前",
    "town_kana": "テラマエ",
    "street": null,
    "office_name": null,
    "office_name_kana": null
  },
  "0448": {
    "postcode": "9600448",
    "prefecture": "福島県",
    "prefecture_kana": "フクシマケン",
    "prefecture_code": 7,
    "city": "伊達市",
    "city_kana": "ダテシ",
    "town": "屋敷間",
    "town_kana": "ヤシキマ",
    "street": null,
    "office_name": null,
    "office_name_kana": null
  },
  "0451": {
    "postcode": "9600451",
    "prefecture": "福島県",
    "prefecture_kana": "フクシマケン",
    "prefecture_code": 7,
    "city": "伊達市",
    "city_kana": "ダテシ",
    "town": "下志和田",
    "town_kana": "シモシワダ",
    "street": null,
    "office_name": null,
    "office_name_kana": null
  },
  "0452": {
    "postcode": "9600452",
    "prefecture": "福島県",
    "prefecture_kana": "フクシマケン",
    "prefecture_code": 7,
    "city": "伊達市",
    "city_kana": "ダテシ",
    "town": "中志和田",
    "town_kana": "ナカシワダ",
    "street": null,
    "office_name": null,
    "office_name_kana": null
  },
  "0453": {
    "postcode": "9600453",
    "prefecture": "福島県",
    "prefecture_kana": "フクシマケン",
    "prefecture_code": 7,
    "city": "伊達市",
    "city_kana": "ダテシ",
    "town": "上志和田",
    "town_kana": "カミシワダ",
    "street": null,
    "office_name": null,
    "office_name_kana": null
  },
  "0454": {
    "postcode": "9600454",
    "prefecture": "福島県",
    "prefecture_kana": "フクシマケン",
    "prefecture_code": 7,
    "city": "伊達市",
    "city_kana": "ダテシ",
    "town": "志和田前",
    "town_kana": "シワダマエ",
    "street": null,
    "office_name": null,
    "office_name_kana": null
  },
  "0455": {
    "postcode": "9600455",
    "prefecture": "福島県",
    "prefecture_kana": "フクシマケン",
    "prefecture_code": 7,
    "city": "伊達市",
    "city_kana": "ダテシ",
    "town": "姥石",
    "town_kana": "ウバイシ",
    "street": null,
    "office_name": null,
    "office_name_kana": null
  },
  "0456": {
    "postcode": "9600456",
    "prefecture": "福島県",
    "prefecture_kana": "フクシマケン",
    "prefecture_code": 7,
    "city": "伊達市",
    "city_kana": "ダテシ",
    "town": "中道",
    "town_kana": "ナカミチ",
    "street": null,
    "office_name": null,
    "office_name_kana": null
  },
  "0457": {
    "postcode": "9600457",
    "prefecture": "福島県",
    "prefecture_kana": "フクシマケン",
    "prefecture_code": 7,
    "city": "伊達市",
    "city_kana": "ダテシ",
    "town": "江向",
    "town_kana": "エムカイ",
    "street": null,
    "office_name": null,
    "office_name_kana": null
  },
  "0458": {
    "postcode": "9600458",
    "prefecture": "福島県",
    "prefecture_kana": "フクシマケン",
    "prefecture_code": 7,
    "city": "伊達市",
    "city_kana": "ダテシ",
    "town": "扇田",
    "town_kana": "オウギダ",
    "street": null,
    "office_name": null,
    "office_name_kana": null
  },
  "0461": {
    "postcode": "9600461",
    "prefecture": "福島県",
    "prefecture_kana": "フクシマケン",
    "prefecture_code": 7,
    "city": "伊達市",
    "city_kana": "ダテシ",
    "town": "片町",
    "town_kana": "カタマチ",
    "street": null,
    "office_name": null,
    "office_name_kana": null
  },
  "0462": {
    "postcode": "9600462",
    "prefecture": "福島県",
    "prefecture_kana": "フクシマケン",
    "prefecture_code": 7,
    "city": "伊達市",
    "city_kana": "ダテシ",
    "town": "本町",
    "town_kana": "モトマチ",
    "street": null,
    "office_name": null,
    "office_name_kana": null
  },
  "0463": {
    "postcode": "9600463",
    "prefecture": "福島県",
    "prefecture_kana": "フクシマケン",
    "prefecture_code": 7,
    "city": "伊達市",
    "city_kana": "ダテシ",
    "town": "田町",
    "town_kana": "タマチ",
    "street": null,
    "office_name": null,
    "office_name_kana": null
  },
  "0464": {
    "postcode": "9600464",
    "prefecture": "福島県",
    "prefecture_kana": "フクシマケン",
    "prefecture_code": 7,
    "city": "伊達市",
    "city_kana": "ダテシ",
    "town": "南堀",
    "town_kana": "ミナミボリ",
    "street": null,
    "office_name": null,
    "office_name_kana": null
  },
  "0465": {
    "postcode": "9600465",
    "prefecture": "福島県",
    "prefecture_kana": "フクシマケン",
    "prefecture_code": 7,
    "city": "伊達市",
    "city_kana": "ダテシ",
    "town": "久根妻",
    "town_kana": "クネツマ",
    "street": null,
    "office_name": null,
    "office_name_kana": null
  },
  "0466": {
    "postcode": "9600466",
    "prefecture": "福島県",
    "prefecture_kana": "フクシマケン",
    "prefecture_code": 7,
    "city": "伊達市",
    "city_kana": "ダテシ",
    "town": "根岸",
    "town_kana": "ネギシ",
    "street": null,
    "office_name": null,
    "office_name_kana": null
  },
  "0467": {
    "postcode": "9600467",
    "prefecture": "福島県",
    "prefecture_kana": "フクシマケン",
    "prefecture_code": 7,
    "city": "伊達市",
    "city_kana": "ダテシ",
    "town": "舘ノ内",
    "town_kana": "タテノウチ",
    "street": null,
    "office_name": null,
    "office_name_kana": null
  },
  "0468": {
    "postcode": "9600468",
    "prefecture": "福島県",
    "prefecture_kana": "フクシマケン",
    "prefecture_code": 7,
    "city": "伊達市",
    "city_kana": "ダテシ",
    "town": "北後",
    "town_kana": "キタウシロ",
    "street": null,
    "office_name": null,
    "office_name_kana": null
  },
  "0471": {
    "postcode": "9600471",
    "prefecture": "福島県",
    "prefecture_kana": "フクシマケン",
    "prefecture_code": 7,
    "city": "伊達市",
    "city_kana": "ダテシ",
    "town": "長町",
    "town_kana": "ナガマチ",
    "street": null,
    "office_name": null,
    "office_name_kana": null
  },
  "0472": {
    "postcode": "9600472",
    "prefecture": "福島県",
    "prefecture_kana": "フクシマケン",
    "prefecture_code": 7,
    "city": "伊達市",
    "city_kana": "ダテシ",
    "town": "根田",
    "town_kana": "ネダ",
    "street": null,
    "office_name": null,
    "office_name_kana": null
  },
  "0473": {
    "postcode": "9600473",
    "prefecture": "福島県",
    "prefecture_kana": "フクシマケン",
    "prefecture_code": 7,
    "city": "伊達市",
    "city_kana": "ダテシ",
    "town": "沢田",
    "town_kana": "サワダ",
    "street": null,
    "office_name": null,
    "office_name_kana": null
  },
  "0474": {
    "postcode": "9600474",
    "prefecture": "福島県",
    "prefecture_kana": "フクシマケン",
    "prefecture_code": 7,
    "city": "伊達市",
    "city_kana": "ダテシ",
    "town": "沓形",
    "town_kana": "クツガタ",
    "street": null,
    "office_name": null,
    "office_name_kana": null
  },
  "0475": {
    "postcode": "9600475",
    "prefecture": "福島県",
    "prefecture_kana": "フクシマケン",
    "prefecture_code": 7,
    "city": "伊達市",
    "city_kana": "ダテシ",
    "town": "干供田",
    "town_kana": "ホシクデン",
    "street": null,
    "office_name": null,
    "office_name_kana": null
  },
  "0476": {
    "postcode": "9600476",
    "prefecture": "福島県",
    "prefecture_kana": "フクシマケン",
    "prefecture_code": 7,
    "city": "伊達市",
    "city_kana": "ダテシ",
    "town": "鶴巻",
    "town_kana": "ツルマキ",
    "street": null,
    "office_name": null,
    "office_name_kana": null
  },
  "0477": {
    "postcode": "9600477",
    "prefecture": "福島県",
    "prefecture_kana": "フクシマケン",
    "prefecture_code": 7,
    "city": "伊達市",
    "city_kana": "ダテシ",
    "town": "柏木町",
    "town_kana": "カシワギチョウ",
    "street": null,
    "office_name": null,
    "office_name_kana": null
  },
  "0478": {
    "postcode": "9600478",
    "prefecture": "福島県",
    "prefecture_kana": "フクシマケン",
    "prefecture_code": 7,
    "city": "伊達市",
    "city_kana": "ダテシ",
    "town": "細谷",
    "town_kana": "ホソヤ",
    "street": null,
    "office_name": null,
    "office_name_kana": null
  },
  "0479": {
    "postcode": "9600479",
    "prefecture": "福島県",
    "prefecture_kana": "フクシマケン",
    "prefecture_code": 7,
    "city": "伊達市",
    "city_kana": "ダテシ",
    "town": "野崎",
    "town_kana": "ノザキ",
    "street": null,
    "office_name": null,
    "office_name_kana": null
  },
  "0481": {
    "postcode": "9600481",
    "prefecture": "福島県",
    "prefecture_kana": "フクシマケン",
    "prefecture_code": 7,
    "city": "伊達市",
    "city_kana": "ダテシ",
    "town": "堀切端",
    "town_kana": "ホリキリハタ",
    "street": null,
    "office_name": null,
    "office_name_kana": null
  },
  "0482": {
    "postcode": "9600482",
    "prefecture": "福島県",
    "prefecture_kana": "フクシマケン",
    "prefecture_code": 7,
    "city": "伊達市",
    "city_kana": "ダテシ",
    "town": "鶴田",
    "town_kana": "ツルタ",
    "street": null,
    "office_name": null,
    "office_name_kana": null
  },
  "0483": {
    "postcode": "9600483",
    "prefecture": "福島県",
    "prefecture_kana": "フクシマケン",
    "prefecture_code": 7,
    "city": "伊達市",
    "city_kana": "ダテシ",
    "town": "柳内",
    "town_kana": "ヤナギウチ",
    "street": null,
    "office_name": null,
    "office_name_kana": null
  },
  "0484": {
    "postcode": "9600484",
    "prefecture": "福島県",
    "prefecture_kana": "フクシマケン",
    "prefecture_code": 7,
    "city": "伊達市",
    "city_kana": "ダテシ",
    "town": "馬場口",
    "town_kana": "ババグチ",
    "street": null,
    "office_name": null,
    "office_name_kana": null
  },
  "0485": {
    "postcode": "9600485",
    "prefecture": "福島県",
    "prefecture_kana": "フクシマケン",
    "prefecture_code": 7,
    "city": "伊達市",
    "city_kana": "ダテシ",
    "town": "篭田",
    "town_kana": "カゴタ",
    "street": null,
    "office_name": null,
    "office_name_kana": null
  },
  "0486": {
    "postcode": "9600486",
    "prefecture": "福島県",
    "prefecture_kana": "フクシマケン",
    "prefecture_code": 7,
    "city": "伊達市",
    "city_kana": "ダテシ",
    "town": "六角",
    "town_kana": "ロッカク",
    "street": null,
    "office_name": null,
    "office_name_kana": null
  },
  "0487": {
    "postcode": "9600487",
    "prefecture": "福島県",
    "prefecture_kana": "フクシマケン",
    "prefecture_code": 7,
    "city": "伊達市",
    "city_kana": "ダテシ",
    "town": "高田",
    "town_kana": "タカダ",
    "street": null,
    "office_name": null,
    "office_name_kana": null
  },
  "0488": {
    "postcode": "9600488",
    "prefecture": "福島県",
    "prefecture_kana": "フクシマケン",
    "prefecture_code": 7,
    "city": "伊達市",
    "city_kana": "ダテシ",
    "town": "上台",
    "town_kana": "ウワダイ",
    "street": null,
    "office_name": null,
    "office_name_kana": null
  },
  "0489": {
    "postcode": "9600489",
    "prefecture": "福島県",
    "prefecture_kana": "フクシマケン",
    "prefecture_code": 7,
    "city": "伊達市",
    "city_kana": "ダテシ",
    "town": "瀬戸場",
    "town_kana": "セトバ",
    "street": null,
    "office_name": null,
    "office_name_kana": null
  },
  "0501": {
    "postcode": "9600501",
    "prefecture": "福島県",
    "prefecture_kana": "フクシマケン",
    "prefecture_code": 7,
    "city": "伊達市",
    "city_kana": "ダテシ",
    "town": "伏黒",
    "town_kana": "フシグロ",
    "street": null,
    "office_name": null,
    "office_name_kana": null
  },
  "0502": {
    "postcode": "9600502",
    "prefecture": "福島県",
    "prefecture_kana": "フクシマケン",
    "prefecture_code": 7,
    "city": "伊達市",
    "city_kana": "ダテシ",
    "town": "箱崎",
    "town_kana": "ハコザキ",
    "street": null,
    "office_name": null,
    "office_name_kana": null
  },
  "0596": {
    "postcode": "9600596",
    "prefecture": "福島県",
    "prefecture_kana": "フクシマケン",
    "prefecture_code": 7,
    "city": "伊達市",
    "city_kana": "ダテシ",
    "town": "箱崎",
    "town_kana": "ハコザキ",
    "street": "字東２３−１",
    "office_name": "公益財団法人　仁泉会",
    "office_name_kana": "コウエキザイダンホウジン ジンセンカイ"
  },
  "0600": {
    "postcode": "9600600",
    "prefecture": "福島県",
    "prefecture_kana": "フクシマケン",
    "prefecture_code": 7,
    "city": "伊達市",
    "city_kana": "ダテシ",
    "town": "",
    "town_kana": "",
    "street": null,
    "office_name": null,
    "office_name_kana": null
  },
  "0601": {
    "postcode": "9600601",
    "prefecture": "福島県",
    "prefecture_kana": "フクシマケン",
    "prefecture_code": 7,
    "city": "伊達市",
    "city_kana": "ダテシ",
    "town": "保原町栄町",
    "town_kana": "ホバラマチサカエマチ",
    "street": null,
    "office_name": null,
    "office_name_kana": null
  },
  "0602": {
    "postcode": "9600602",
    "prefecture": "福島県",
    "prefecture_kana": "フクシマケン",
    "prefecture_code": 7,
    "city": "伊達市",
    "city_kana": "ダテシ",
    "town": "保原町久保",
    "town_kana": "ホバラマチクボ",
    "street": null,
    "office_name": null,
    "office_name_kana": null
  },
  "0603": {
    "postcode": "9600603",
    "prefecture": "福島県",
    "prefecture_kana": "フクシマケン",
    "prefecture_code": 7,
    "city": "伊達市",
    "city_kana": "ダテシ",
    "town": "保原町古町",
    "town_kana": "ホバラマチフルマチ",
    "street": null,
    "office_name": null,
    "office_name_kana": null
  },
  "0604": {
    "postcode": "9600604",
    "prefecture": "福島県",
    "prefecture_kana": "フクシマケン",
    "prefecture_code": 7,
    "city": "伊達市",
    "city_kana": "ダテシ",
    "town": "保原町元木",
    "town_kana": "ホバラマチモトキ",
    "street": null,
    "office_name": null,
    "office_name_kana": null
  },
  "0605": {
    "postcode": "9600605",
    "prefecture": "福島県",
    "prefecture_kana": "フクシマケン",
    "prefecture_code": 7,
    "city": "伊達市",
    "city_kana": "ダテシ",
    "town": "保原町元町",
    "town_kana": "ホバラマチモトマチ",
    "street": null,
    "office_name": null,
    "office_name_kana": null
  },
  "0606": {
    "postcode": "9600606",
    "prefecture": "福島県",
    "prefecture_kana": "フクシマケン",
    "prefecture_code": 7,
    "city": "伊達市",
    "city_kana": "ダテシ",
    "town": "保原町鉄炮町",
    "town_kana": "ホバラマチテッポウマチ",
    "street": null,
    "office_name": null,
    "office_name_kana": null
  },
  "0607": {
    "postcode": "9600607",
    "prefecture": "福島県",
    "prefecture_kana": "フクシマケン",
    "prefecture_code": 7,
    "city": "伊達市",
    "city_kana": "ダテシ",
    "town": "保原町１０丁目",
    "town_kana": "ホバラマチ10チョウメ",
    "street": null,
    "office_name": null,
    "office_name_kana": null
  },
  "0608": {
    "postcode": "9600608",
    "prefecture": "福島県",
    "prefecture_kana": "フクシマケン",
    "prefecture_code": 7,
    "city": "伊達市",
    "city_kana": "ダテシ",
    "town": "保原町１１丁目",
    "town_kana": "ホバラマチ11チョウメ",
    "street": null,
    "office_name": null,
    "office_name_kana": null
  },
  "0609": {
    "postcode": "9600609",
    "prefecture": "福島県",
    "prefecture_kana": "フクシマケン",
    "prefecture_code": 7,
    "city": "伊達市",
    "city_kana": "ダテシ",
    "town": "保原町１２丁目",
    "town_kana": "ホバラマチ12チョウメ",
    "street": null,
    "office_name": null,
    "office_name_kana": null
  },
  "0611": {
    "postcode": "9600611",
    "prefecture": "福島県",
    "prefecture_kana": "フクシマケン",
    "prefecture_code": 7,
    "city": "伊達市",
    "city_kana": "ダテシ",
    "town": "保原町城ノ内",
    "town_kana": "ホバラマチシロノウチ",
    "street": null,
    "office_name": null,
    "office_name_kana": null
  },
  "0612": {
    "postcode": "9600612",
    "prefecture": "福島県",
    "prefecture_kana": "フクシマケン",
    "prefecture_code": 7,
    "city": "伊達市",
    "city_kana": "ダテシ",
    "town": "保原町宮下",
    "town_kana": "ホバラマチミヤシタ",
    "street": null,
    "office_name": null,
    "office_name_kana": null
  },
  "0613": {
    "postcode": "9600613",
    "prefecture": "福島県",
    "prefecture_kana": "フクシマケン",
    "prefecture_code": 7,
    "city": "伊達市",
    "city_kana": "ダテシ",
    "town": "保原町内町",
    "town_kana": "ホバラマチウチマチ",
    "street": null,
    "office_name": null,
    "office_name_kana": null
  },
  "0614": {
    "postcode": "9600614",
    "prefecture": "福島県",
    "prefecture_kana": "フクシマケン",
    "prefecture_code": 7,
    "city": "伊達市",
    "city_kana": "ダテシ",
    "town": "保原町磐前通",
    "town_kana": "ホバラマチイワマエドオリ",
    "street": null,
    "office_name": null,
    "office_name_kana": null
  },
  "0615": {
    "postcode": "9600615",
    "prefecture": "福島県",
    "prefecture_kana": "フクシマケン",
    "prefecture_code": 7,
    "city": "伊達市",
    "city_kana": "ダテシ",
    "town": "保原町５丁目",
    "town_kana": "ホバラマチ5チョウメ",
    "street": null,
    "office_name": null,
    "office_name_kana": null
  },
  "0616": {
    "postcode": "9600616",
    "prefecture": "福島県",
    "prefecture_kana": "フクシマケン",
    "prefecture_code": 7,
    "city": "伊達市",
    "city_kana": "ダテシ",
    "town": "保原町６丁目",
    "town_kana": "ホバラマチ6チョウメ",
    "street": null,
    "office_name": null,
    "office_name_kana": null
  },
  "0617": {
    "postcode": "9600617",
    "prefecture": "福島県",
    "prefecture_kana": "フクシマケン",
    "prefecture_code": 7,
    "city": "伊達市",
    "city_kana": "ダテシ",
    "town": "保原町７丁目",
    "town_kana": "ホバラマチ7チョウメ",
    "street": null,
    "office_name": null,
    "office_name_kana": null
  },
  "0618": {
    "postcode": "9600618",
    "prefecture": "福島県",
    "prefecture_kana": "フクシマケン",
    "prefecture_code": 7,
    "city": "伊達市",
    "city_kana": "ダテシ",
    "town": "保原町８丁目",
    "town_kana": "ホバラマチ8チョウメ",
    "street": null,
    "office_name": null,
    "office_name_kana": null
  },
  "0619": {
    "postcode": "9600619",
    "prefecture": "福島県",
    "prefecture_kana": "フクシマケン",
    "prefecture_code": 7,
    "city": "伊達市",
    "city_kana": "ダテシ",
    "town": "保原町９丁目",
    "town_kana": "ホバラマチ9チョウメ",
    "street": null,
    "office_name": null,
    "office_name_kana": null
  },
  "0621": {
    "postcode": "9600621",
    "prefecture": "福島県",
    "prefecture_kana": "フクシマケン",
    "prefecture_code": 7,
    "city": "伊達市",
    "city_kana": "ダテシ",
    "town": "保原町中村町",
    "town_kana": "ホバラマチナカムラチョウ",
    "street": null,
    "office_name": null,
    "office_name_kana": null
  },
  "0622": {
    "postcode": "9600622",
    "prefecture": "福島県",
    "prefecture_kana": "フクシマケン",
    "prefecture_code": 7,
    "city": "伊達市",
    "city_kana": "ダテシ",
    "town": "保原町市柳町",
    "town_kana": "ホバラマチイチヤナギチョウ",
    "street": null,
    "office_name": null,
    "office_name_kana": null
  },
  "0623": {
    "postcode": "9600623",
    "prefecture": "福島県",
    "prefecture_kana": "フクシマケン",
    "prefecture_code": 7,
    "city": "伊達市",
    "city_kana": "ダテシ",
    "town": "保原町前田町",
    "town_kana": "ホバラマチマエダチョウ",
    "street": null,
    "office_name": null,
    "office_name_kana": null
  },
  "0624": {
    "postcode": "9600624",
    "prefecture": "福島県",
    "prefecture_kana": "フクシマケン",
    "prefecture_code": 7,
    "city": "伊達市",
    "city_kana": "ダテシ",
    "town": "保原町１丁目",
    "town_kana": "ホバラマチ1チョウメ",
    "street": null,
    "office_name": null,
    "office_name_kana": null
  },
  "0625": {
    "postcode": "9600625",
    "prefecture": "福島県",
    "prefecture_kana": "フクシマケン",
    "prefecture_code": 7,
    "city": "伊達市",
    "city_kana": "ダテシ",
    "town": "保原町２丁目",
    "town_kana": "ホバラマチ2チョウメ",
    "street": null,
    "office_name": null,
    "office_name_kana": null
  },
  "0626": {
    "postcode": "9600626",
    "prefecture": "福島県",
    "prefecture_kana": "フクシマケン",
    "prefecture_code": 7,
    "city": "伊達市",
    "city_kana": "ダテシ",
    "town": "保原町３丁目",
    "town_kana": "ホバラマチ3チョウメ",
    "street": null,
    "office_name": null,
    "office_name_kana": null
  },
  "0627": {
    "postcode": "9600627",
    "prefecture": "福島県",
    "prefecture_kana": "フクシマケン",
    "prefecture_code": 7,
    "city": "伊達市",
    "city_kana": "ダテシ",
    "town": "保原町４丁目",
    "town_kana": "ホバラマチ4チョウメ",
    "street": null,
    "office_name": null,
    "office_name_kana": null
  },
  "0628": {
    "postcode": "9600628",
    "prefecture": "福島県",
    "prefecture_kana": "フクシマケン",
    "prefecture_code": 7,
    "city": "伊達市",
    "city_kana": "ダテシ",
    "town": "保原町実町",
    "town_kana": "ホバラマチミノルマチ",
    "street": null,
    "office_name": null,
    "office_name_kana": null
  },
  "0629": {
    "postcode": "9600629",
    "prefecture": "福島県",
    "prefecture_kana": "フクシマケン",
    "prefecture_code": 7,
    "city": "伊達市",
    "city_kana": "ダテシ",
    "town": "保原町弥生町",
    "town_kana": "ホバラマチヤヨイチョウ",
    "street": null,
    "office_name": null,
    "office_name_kana": null
  },
  "0631": {
    "postcode": "9600631",
    "prefecture": "福島県",
    "prefecture_kana": "フクシマケン",
    "prefecture_code": 7,
    "city": "伊達市",
    "city_kana": "ダテシ",
    "town": "保原町中瀬",
    "town_kana": "ホバラマチナカゼ",
    "street": null,
    "office_name": null,
    "office_name_kana": null
  },
  "0632": {
    "postcode": "9600632",
    "prefecture": "福島県",
    "prefecture_kana": "フクシマケン",
    "prefecture_code": 7,
    "city": "伊達市",
    "city_kana": "ダテシ",
    "town": "保原町大立目",
    "town_kana": "ホバラマチオオダツメ",
    "street": null,
    "office_name": null,
    "office_name_kana": null
  },
  "0633": {
    "postcode": "9600633",
    "prefecture": "福島県",
    "prefecture_kana": "フクシマケン",
    "prefecture_code": 7,
    "city": "伊達市",
    "city_kana": "ダテシ",
    "town": "保原町二井田",
    "town_kana": "ホバラマチニイダ",
    "street": null,
    "office_name": null,
    "office_name_kana": null
  },
  "0634": {
    "postcode": "9600634",
    "prefecture": "福島県",
    "prefecture_kana": "フクシマケン",
    "prefecture_code": 7,
    "city": "伊達市",
    "city_kana": "ダテシ",
    "town": "保原町大泉",
    "town_kana": "ホバラマチオオイズミ",
    "street": null,
    "office_name": null,
    "office_name_kana": null
  },
  "0635": {
    "postcode": "9600635",
    "prefecture": "福島県",
    "prefecture_kana": "フクシマケン",
    "prefecture_code": 7,
    "city": "伊達市",
    "city_kana": "ダテシ",
    "town": "保原町半道",
    "town_kana": "ホバラマチハンドウ",
    "street": null,
    "office_name": null,
    "office_name_kana": null
  },
  "0636": {
    "postcode": "9600636",
    "prefecture": "福島県",
    "prefecture_kana": "フクシマケン",
    "prefecture_code": 7,
    "city": "伊達市",
    "city_kana": "ダテシ",
    "town": "保原町大和",
    "town_kana": "ホバラマチヤマト",
    "street": null,
    "office_name": null,
    "office_name_kana": null
  },
  "0637": {
    "postcode": "9600637",
    "prefecture": "福島県",
    "prefecture_kana": "フクシマケン",
    "prefecture_code": 7,
    "city": "伊達市",
    "city_kana": "ダテシ",
    "town": "保原町将監",
    "town_kana": "ホバラマチショウカン",
    "street": null,
    "office_name": null,
    "office_name_kana": null
  },
  "0638": {
    "postcode": "9600638",
    "prefecture": "福島県",
    "prefecture_kana": "フクシマケン",
    "prefecture_code": 7,
    "city": "伊達市",
    "city_kana": "ダテシ",
    "town": "保原町北河原",
    "town_kana": "ホバラマチキタカワラ",
    "street": null,
    "office_name": null,
    "office_name_kana": null
  },
  "0639": {
    "postcode": "9600639",
    "prefecture": "福島県",
    "prefecture_kana": "フクシマケン",
    "prefecture_code": 7,
    "city": "伊達市",
    "city_kana": "ダテシ",
    "town": "保原町六万坊",
    "town_kana": "ホバラマチロクマンボウ",
    "street": null,
    "office_name": null,
    "office_name_kana": null
  },
  "0641": {
    "postcode": "9600641",
    "prefecture": "福島県",
    "prefecture_kana": "フクシマケン",
    "prefecture_code": 7,
    "city": "伊達市",
    "city_kana": "ダテシ",
    "town": "保原町西猫川",
    "town_kana": "ホバラマチニシネコガワ",
    "street": null,
    "office_name": null,
    "office_name_kana": null
  },
  "0642": {
    "postcode": "9600642",
    "prefecture": "福島県",
    "prefecture_kana": "フクシマケン",
    "prefecture_code": 7,
    "city": "伊達市",
    "city_kana": "ダテシ",
    "town": "保原町東猫川",
    "town_kana": "ホバラマチヒガシネコガワ",
    "street": null,
    "office_name": null,
    "office_name_kana": null
  },
  "0643": {
    "postcode": "9600643",
    "prefecture": "福島県",
    "prefecture_kana": "フクシマケン",
    "prefecture_code": 7,
    "city": "伊達市",
    "city_kana": "ダテシ",
    "town": "保原町下河原",
    "town_kana": "ホバラマチシモカワラ",
    "street": null,
    "office_name": null,
    "office_name_kana": null
  },
  "0644": [
    {
      "postcode": "9600644",
      "prefecture": "福島県",
      "prefecture_kana": "フクシマケン",
      "prefecture_code": 7,
      "city": "伊達市",
      "city_kana": "ダテシ",
      "town": "保原町豊田",
      "town_kana": "ホバラマチトヨタ",
      "street": null,
      "office_name": null,
      "office_name_kana": null
    },
    {
      "postcode": "9600644",
      "prefecture": "福島県",
      "prefecture_kana": "フクシマケン",
      "prefecture_code": 7,
      "city": "伊達市",
      "city_kana": "ダテシ",
      "town": "保原町豊町",
      "town_kana": "ホバラマチユタカマチ",
      "street": null,
      "office_name": null,
      "office_name_kana": null
    }
  ],
  "0645": {
    "postcode": "9600645",
    "prefecture": "福島県",
    "prefecture_kana": "フクシマケン",
    "prefecture_code": 7,
    "city": "伊達市",
    "city_kana": "ダテシ",
    "town": "保原町台後",
    "town_kana": "ホバラマチダイゴ",
    "street": null,
    "office_name": null,
    "office_name_kana": null
  },
  "0646": {
    "postcode": "9600646",
    "prefecture": "福島県",
    "prefecture_kana": "フクシマケン",
    "prefecture_code": 7,
    "city": "伊達市",
    "city_kana": "ダテシ",
    "town": "保原町東台後",
    "town_kana": "ホバラマチヒガシダイゴ",
    "street": null,
    "office_name": null,
    "office_name_kana": null
  },
  "0647": {
    "postcode": "9600647",
    "prefecture": "福島県",
    "prefecture_kana": "フクシマケン",
    "prefecture_code": 7,
    "city": "伊達市",
    "city_kana": "ダテシ",
    "town": "保原町小蓋",
    "town_kana": "ホバラマチコブタ",
    "street": null,
    "office_name": null,
    "office_name_kana": null
  },
  "0648": {
    "postcode": "9600648",
    "prefecture": "福島県",
    "prefecture_kana": "フクシマケン",
    "prefecture_code": 7,
    "city": "伊達市",
    "city_kana": "ダテシ",
    "town": "保原町東小蓋",
    "town_kana": "ホバラマチヒガシコブタ",
    "street": null,
    "office_name": null,
    "office_name_kana": null
  },
  "0649": {
    "postcode": "9600649",
    "prefecture": "福島県",
    "prefecture_kana": "フクシマケン",
    "prefecture_code": 7,
    "city": "伊達市",
    "city_kana": "ダテシ",
    "town": "保原町清水町",
    "town_kana": "ホバラマチシミズマチ",
    "street": null,
    "office_name": null,
    "office_name_kana": null
  },
  "0650": {
    "postcode": "9600650",
    "prefecture": "福島県",
    "prefecture_kana": "フクシマケン",
    "prefecture_code": 7,
    "city": "伊達市",
    "city_kana": "ダテシ",
    "town": "保原町西新田",
    "town_kana": "ホバラマチニシシンデン",
    "street": null,
    "office_name": null,
    "office_name_kana": null
  },
  "0651": {
    "postcode": "9600651",
    "prefecture": "福島県",
    "prefecture_kana": "フクシマケン",
    "prefecture_code": 7,
    "city": "伊達市",
    "city_kana": "ダテシ",
    "town": "保原町柏町",
    "town_kana": "ホバラマチカシワマチ",
    "street": null,
    "office_name": null,
    "office_name_kana": null
  },
  "0652": {
    "postcode": "9600652",
    "prefecture": "福島県",
    "prefecture_kana": "フクシマケン",
    "prefecture_code": 7,
    "city": "伊達市",
    "city_kana": "ダテシ",
    "town": "保原町西町",
    "town_kana": "ホバラマチニシマチ",
    "street": null,
    "office_name": null,
    "office_name_kana": null
  },
  "0653": {
    "postcode": "9600653",
    "prefecture": "福島県",
    "prefecture_kana": "フクシマケン",
    "prefecture_code": 7,
    "city": "伊達市",
    "city_kana": "ダテシ",
    "town": "保原町泉町",
    "town_kana": "ホバラマチイズミマチ",
    "street": null,
    "office_name": null,
    "office_name_kana": null
  },
  "0654": {
    "postcode": "9600654",
    "prefecture": "福島県",
    "prefecture_kana": "フクシマケン",
    "prefecture_code": 7,
    "city": "伊達市",
    "city_kana": "ダテシ",
    "town": "保原町小幡町",
    "town_kana": "ホバラマチオバタマチ",
    "street": null,
    "office_name": null,
    "office_name_kana": null
  },
  "0655": {
    "postcode": "9600655",
    "prefecture": "福島県",
    "prefecture_kana": "フクシマケン",
    "prefecture_code": 7,
    "city": "伊達市",
    "city_kana": "ダテシ",
    "town": "保原町宮内町",
    "town_kana": "ホバラマチミヤウチマチ",
    "street": null,
    "office_name": null,
    "office_name_kana": null
  },
  "0656": {
    "postcode": "9600656",
    "prefecture": "福島県",
    "prefecture_kana": "フクシマケン",
    "prefecture_code": 7,
    "city": "伊達市",
    "city_kana": "ダテシ",
    "town": "保原町八幡町",
    "town_kana": "ホバラマチヤハタマチ",
    "street": null,
    "office_name": null,
    "office_name_kana": null
  },
  "0657": {
    "postcode": "9600657",
    "prefecture": "福島県",
    "prefecture_kana": "フクシマケン",
    "prefecture_code": 7,
    "city": "伊達市",
    "city_kana": "ダテシ",
    "town": "保原町中瀬町",
    "town_kana": "ホバラマチナカゼマチ",
    "street": null,
    "office_name": null,
    "office_name_kana": null
  },
  "0658": {
    "postcode": "9600658",
    "prefecture": "福島県",
    "prefecture_kana": "フクシマケン",
    "prefecture_code": 7,
    "city": "伊達市",
    "city_kana": "ダテシ",
    "town": "保原町古川端",
    "town_kana": "ホバラマチフルカワバタ",
    "street": null,
    "office_name": null,
    "office_name_kana": null
  },
  "0659": {
    "postcode": "9600659",
    "prefecture": "福島県",
    "prefecture_kana": "フクシマケン",
    "prefecture_code": 7,
    "city": "伊達市",
    "city_kana": "ダテシ",
    "town": "保原町西ノ内",
    "town_kana": "ホバラマチニシノウチ",
    "street": null,
    "office_name": null,
    "office_name_kana": null
  },
  "0661": {
    "postcode": "9600661",
    "prefecture": "福島県",
    "prefecture_kana": "フクシマケン",
    "prefecture_code": 7,
    "city": "伊達市",
    "city_kana": "ダテシ",
    "town": "保原町金原田",
    "town_kana": "ホバラマチカナハラダ",
    "street": null,
    "office_name": null,
    "office_name_kana": null
  },
  "0662": {
    "postcode": "9600662",
    "prefecture": "福島県",
    "prefecture_kana": "フクシマケン",
    "prefecture_code": 7,
    "city": "伊達市",
    "city_kana": "ダテシ",
    "town": "保原町柱田",
    "town_kana": "ホバラマチハシラダ",
    "street": null,
    "office_name": null,
    "office_name_kana": null
  },
  "0663": {
    "postcode": "9600663",
    "prefecture": "福島県",
    "prefecture_kana": "フクシマケン",
    "prefecture_code": 7,
    "city": "伊達市",
    "city_kana": "ダテシ",
    "town": "保原町舟橋",
    "town_kana": "ホバラマチフナバシ",
    "street": null,
    "office_name": null,
    "office_name_kana": null
  },
  "0664": {
    "postcode": "9600664",
    "prefecture": "福島県",
    "prefecture_kana": "フクシマケン",
    "prefecture_code": 7,
    "city": "伊達市",
    "city_kana": "ダテシ",
    "town": "保原町太田中",
    "town_kana": "ホバラマチオオタナカ",
    "street": null,
    "office_name": null,
    "office_name_kana": null
  },
  "0665": {
    "postcode": "9600665",
    "prefecture": "福島県",
    "prefecture_kana": "フクシマケン",
    "prefecture_code": 7,
    "city": "伊達市",
    "city_kana": "ダテシ",
    "town": "保原町岡代",
    "town_kana": "ホバラマチオカシロ",
    "street": null,
    "office_name": null,
    "office_name_kana": null
  },
  "0666": {
    "postcode": "9600666",
    "prefecture": "福島県",
    "prefecture_kana": "フクシマケン",
    "prefecture_code": 7,
    "city": "伊達市",
    "city_kana": "ダテシ",
    "town": "保原町村岡",
    "town_kana": "ホバラマチムラオカ",
    "street": null,
    "office_name": null,
    "office_name_kana": null
  },
  "0667": {
    "postcode": "9600667",
    "prefecture": "福島県",
    "prefecture_kana": "フクシマケン",
    "prefecture_code": 7,
    "city": "伊達市",
    "city_kana": "ダテシ",
    "town": "保原町八幡台",
    "town_kana": "ホバラマチハチマンダイ",
    "street": null,
    "office_name": null,
    "office_name_kana": null
  },
  "0668": {
    "postcode": "9600668",
    "prefecture": "福島県",
    "prefecture_kana": "フクシマケン",
    "prefecture_code": 7,
    "city": "伊達市",
    "city_kana": "ダテシ",
    "town": "保原町烏内",
    "town_kana": "ホバラマチカラスウチ",
    "street": null,
    "office_name": null,
    "office_name_kana": null
  },
  "0669": {
    "postcode": "9600669",
    "prefecture": "福島県",
    "prefecture_kana": "フクシマケン",
    "prefecture_code": 7,
    "city": "伊達市",
    "city_kana": "ダテシ",
    "town": "保原町赤橋",
    "town_kana": "ホバラマチアカバシ",
    "street": null,
    "office_name": null,
    "office_name_kana": null
  },
  "0670": {
    "postcode": "9600670",
    "prefecture": "福島県",
    "prefecture_kana": "フクシマケン",
    "prefecture_code": 7,
    "city": "伊達市",
    "city_kana": "ダテシ",
    "town": "保原町桑田",
    "town_kana": "ホバラマチクワタ",
    "street": null,
    "office_name": null,
    "office_name_kana": null
  },
  "0671": {
    "postcode": "9600671",
    "prefecture": "福島県",
    "prefecture_kana": "フクシマケン",
    "prefecture_code": 7,
    "city": "伊達市",
    "city_kana": "ダテシ",
    "town": "保原町東野崎",
    "town_kana": "ホバラマチヒガシノザキ",
    "street": null,
    "office_name": null,
    "office_name_kana": null
  },
  "0672": {
    "postcode": "9600672",
    "prefecture": "福島県",
    "prefecture_kana": "フクシマケン",
    "prefecture_code": 7,
    "city": "伊達市",
    "city_kana": "ダテシ",
    "town": "保原町下野崎",
    "town_kana": "ホバラマチシモノザキ",
    "street": null,
    "office_name": null,
    "office_name_kana": null
  },
  "0673": {
    "postcode": "9600673",
    "prefecture": "福島県",
    "prefecture_kana": "フクシマケン",
    "prefecture_code": 7,
    "city": "伊達市",
    "city_kana": "ダテシ",
    "town": "保原町野崎",
    "town_kana": "ホバラマチノザキ",
    "street": null,
    "office_name": null,
    "office_name_kana": null
  },
  "0674": {
    "postcode": "9600674",
    "prefecture": "福島県",
    "prefecture_kana": "フクシマケン",
    "prefecture_code": 7,
    "city": "伊達市",
    "city_kana": "ダテシ",
    "town": "保原町上野崎",
    "town_kana": "ホバラマチカミノザキ",
    "street": null,
    "office_name": null,
    "office_name_kana": null
  },
  "0675": {
    "postcode": "9600675",
    "prefecture": "福島県",
    "prefecture_kana": "フクシマケン",
    "prefecture_code": 7,
    "city": "伊達市",
    "city_kana": "ダテシ",
    "town": "保原町大柳",
    "town_kana": "ホバラマチオオヤナギ",
    "street": null,
    "office_name": null,
    "office_name_kana": null
  },
  "0676": {
    "postcode": "9600676",
    "prefecture": "福島県",
    "prefecture_kana": "フクシマケン",
    "prefecture_code": 7,
    "city": "伊達市",
    "city_kana": "ダテシ",
    "town": "保原町千刈",
    "town_kana": "ホバラマチセンガリ",
    "street": null,
    "office_name": null,
    "office_name_kana": null
  },
  "0677": {
    "postcode": "9600677",
    "prefecture": "福島県",
    "prefecture_kana": "フクシマケン",
    "prefecture_code": 7,
    "city": "伊達市",
    "city_kana": "ダテシ",
    "town": "保原町早稲田",
    "town_kana": "ホバラマチワセダ",
    "street": null,
    "office_name": null,
    "office_name_kana": null
  },
  "0678": {
    "postcode": "9600678",
    "prefecture": "福島県",
    "prefecture_kana": "フクシマケン",
    "prefecture_code": 7,
    "city": "伊達市",
    "city_kana": "ダテシ",
    "town": "保原町京門",
    "town_kana": "ホバラマチキョウモン",
    "street": null,
    "office_name": null,
    "office_name_kana": null
  },
  "0679": {
    "postcode": "9600679",
    "prefecture": "福島県",
    "prefecture_kana": "フクシマケン",
    "prefecture_code": 7,
    "city": "伊達市",
    "city_kana": "ダテシ",
    "town": "保原町油谷地",
    "town_kana": "ホバラマチアブラヤチ",
    "street": null,
    "office_name": null,
    "office_name_kana": null
  },
  "0681": {
    "postcode": "9600681",
    "prefecture": "福島県",
    "prefecture_kana": "フクシマケン",
    "prefecture_code": 7,
    "city": "伊達市",
    "city_kana": "ダテシ",
    "town": "保原町所沢",
    "town_kana": "ホバラマチトコロザワ",
    "street": null,
    "office_name": null,
    "office_name_kana": null
  },
  "0682": {
    "postcode": "9600682",
    "prefecture": "福島県",
    "prefecture_kana": "フクシマケン",
    "prefecture_code": 7,
    "city": "伊達市",
    "city_kana": "ダテシ",
    "town": "保原町富沢",
    "town_kana": "ホバラマチトミザワ",
    "street": null,
    "office_name": null,
    "office_name_kana": null
  },
  "0683": {
    "postcode": "9600683",
    "prefecture": "福島県",
    "prefecture_kana": "フクシマケン",
    "prefecture_code": 7,
    "city": "伊達市",
    "city_kana": "ダテシ",
    "town": "保原町高成田",
    "town_kana": "ホバラマチタカナリタ",
    "street": null,
    "office_name": null,
    "office_name_kana": null
  },
  "0684": {
    "postcode": "9600684",
    "prefecture": "福島県",
    "prefecture_kana": "フクシマケン",
    "prefecture_code": 7,
    "city": "伊達市",
    "city_kana": "ダテシ",
    "town": "保原町上保原",
    "town_kana": "ホバラマチカミホバラ",
    "street": null,
    "office_name": null,
    "office_name_kana": null
  },
  "0685": {
    "postcode": "9600685",
    "prefecture": "福島県",
    "prefecture_kana": "フクシマケン",
    "prefecture_code": 7,
    "city": "伊達市",
    "city_kana": "ダテシ",
    "town": "保原町黄金町",
    "town_kana": "ホバラマチコガネマチ",
    "street": null,
    "office_name": null,
    "office_name_kana": null
  },
  "0686": {
    "postcode": "9600686",
    "prefecture": "福島県",
    "prefecture_kana": "フクシマケン",
    "prefecture_code": 7,
    "city": "伊達市",
    "city_kana": "ダテシ",
    "town": "保原町竹内町",
    "town_kana": "ホバラマチタケウチマチ",
    "street": null,
    "office_name": null,
    "office_name_kana": null
  },
  "0687": {
    "postcode": "9600687",
    "prefecture": "福島県",
    "prefecture_kana": "フクシマケン",
    "prefecture_code": 7,
    "city": "伊達市",
    "city_kana": "ダテシ",
    "town": "保原町旭町",
    "town_kana": "ホバラマチアサヒマチ",
    "street": null,
    "office_name": null,
    "office_name_kana": null
  },
  "0688": {
    "postcode": "9600688",
    "prefecture": "福島県",
    "prefecture_kana": "フクシマケン",
    "prefecture_code": 7,
    "city": "伊達市",
    "city_kana": "ダテシ",
    "town": "保原町みずほ",
    "town_kana": "ホバラマチミズホ",
    "street": null,
    "office_name": null,
    "office_name_kana": null
  },
  "0689": {
    "postcode": "9600689",
    "prefecture": "福島県",
    "prefecture_kana": "フクシマケン",
    "prefecture_code": 7,
    "city": "伊達市",
    "city_kana": "ダテシ",
    "town": "保原町高子岡",
    "town_kana": "ホバラマチタカコガオカ",
    "street": null,
    "office_name": null,
    "office_name_kana": null
  },
  "0692": {
    "postcode": "9600692",
    "prefecture": "福島県",
    "prefecture_kana": "フクシマケン",
    "prefecture_code": 7,
    "city": "伊達市",
    "city_kana": "ダテシ",
    "town": "保原町",
    "town_kana": null,
    "street": "字舟橋１８０番地",
    "office_name": "伊達市役所",
    "office_name_kana": "ダテシヤクシヨ"
  },
  "0695": {
    "postcode": "9600695",
    "prefecture": "福島県",
    "prefecture_kana": "フクシマケン",
    "prefecture_code": 7,
    "city": "伊達市",
    "city_kana": "ダテシ",
    "town": "保原町",
    "town_kana": null,
    "street": "字東野崎１３５",
    "office_name": "富士通アイソテック　株式会社",
    "office_name_kana": "フジツウアイソテツク カブシキガイシヤ"
  },
  "0701": {
    "postcode": "9600701",
    "prefecture": "福島県",
    "prefecture_kana": "フクシマケン",
    "prefecture_code": 7,
    "city": "伊達市",
    "city_kana": "ダテシ",
    "town": "梁川町五十沢",
    "town_kana": "ヤナガワマチイサザワ",
    "street": null,
    "office_name": null,
    "office_name_kana": null
  },
  "0702": {
    "postcode": "9600702",
    "prefecture": "福島県",
    "prefecture_kana": "フクシマケン",
    "prefecture_code": 7,
    "city": "伊達市",
    "city_kana": "ダテシ",
    "town": "梁川町東大枝",
    "town_kana": "ヤナガワマチヒガシオオエダ",
    "street": null,
    "office_name": null,
    "office_name_kana": null
  },
  "0703": {
    "postcode": "9600703",
    "prefecture": "福島県",
    "prefecture_kana": "フクシマケン",
    "prefecture_code": 7,
    "city": "伊達市",
    "city_kana": "ダテシ",
    "town": "梁川町山舟生",
    "town_kana": "ヤナガワマチヤマフニュウ",
    "street": null,
    "office_name": null,
    "office_name_kana": null
  },
  "0704": {
    "postcode": "9600704",
    "prefecture": "福島県",
    "prefecture_kana": "フクシマケン",
    "prefecture_code": 7,
    "city": "伊達市",
    "city_kana": "ダテシ",
    "town": "梁川町舟生",
    "town_kana": "ヤナガワマチフニュウ",
    "street": null,
    "office_name": null,
    "office_name_kana": null
  },
  "0705": {
    "postcode": "9600705",
    "prefecture": "福島県",
    "prefecture_kana": "フクシマケン",
    "prefecture_code": 7,
    "city": "伊達市",
    "city_kana": "ダテシ",
    "town": "梁川町元舟場",
    "town_kana": "ヤナガワマチモトフナバ",
    "street": null,
    "office_name": null,
    "office_name_kana": null
  },
  "0706": {
    "postcode": "9600706",
    "prefecture": "福島県",
    "prefecture_kana": "フクシマケン",
    "prefecture_code": 7,
    "city": "伊達市",
    "city_kana": "ダテシ",
    "town": "梁川町北町谷川",
    "town_kana": "ヤナガワマチキタマチヤガワ",
    "street": null,
    "office_name": null,
    "office_name_kana": null
  },
  "0707": {
    "postcode": "9600707",
    "prefecture": "福島県",
    "prefecture_kana": "フクシマケン",
    "prefecture_code": 7,
    "city": "伊達市",
    "city_kana": "ダテシ",
    "town": "梁川町南町谷川",
    "town_kana": "ヤナガワマチミナミマチヤガワ",
    "street": null,
    "office_name": null,
    "office_name_kana": null
  },
  "0708": {
    "postcode": "9600708",
    "prefecture": "福島県",
    "prefecture_kana": "フクシマケン",
    "prefecture_code": 7,
    "city": "伊達市",
    "city_kana": "ダテシ",
    "town": "梁川町東塩野川",
    "town_kana": "ヤナガワマチヒガシシオノガワ",
    "street": null,
    "office_name": null,
    "office_name_kana": null
  },
  "0709": {
    "postcode": "9600709",
    "prefecture": "福島県",
    "prefecture_kana": "フクシマケン",
    "prefecture_code": 7,
    "city": "伊達市",
    "city_kana": "ダテシ",
    "town": "梁川町西塩野川",
    "town_kana": "ヤナガワマチニシシオノガワ",
    "street": null,
    "office_name": null,
    "office_name_kana": null
  },
  "0711": [
    {
      "postcode": "9600711",
      "prefecture": "福島県",
      "prefecture_kana": "フクシマケン",
      "prefecture_code": 7,
      "city": "伊達市",
      "city_kana": "ダテシ",
      "town": "梁川町粟野",
      "town_kana": "ヤナガワマチアワノ",
      "street": null,
      "office_name": null,
      "office_name_kana": null
    },
    {
      "postcode": "9600711",
      "prefecture": "福島県",
      "prefecture_kana": "フクシマケン",
      "prefecture_code": 7,
      "city": "伊達市",
      "city_kana": "ダテシ",
      "town": "梁川町下川原",
      "town_kana": "ヤナガワマチシモガワラ",
      "street": null,
      "office_name": null,
      "office_name_kana": null
    }
  ],
  "0712": {
    "postcode": "9600712",
    "prefecture": "福島県",
    "prefecture_kana": "フクシマケン",
    "prefecture_code": 7,
    "city": "伊達市",
    "city_kana": "ダテシ",
    "town": "梁川町御八郎",
    "town_kana": "ヤナガワマチオハチロウ",
    "street": null,
    "office_name": null,
    "office_name_kana": null
  },
  "0713": {
    "postcode": "9600713",
    "prefecture": "福島県",
    "prefecture_kana": "フクシマケン",
    "prefecture_code": 7,
    "city": "伊達市",
    "city_kana": "ダテシ",
    "town": "梁川町八筋",
    "town_kana": "ヤナガワマチヤスジ",
    "street": null,
    "office_name": null,
    "office_name_kana": null
  },
  "0715": {
    "postcode": "9600715",
    "prefecture": "福島県",
    "prefecture_kana": "フクシマケン",
    "prefecture_code": 7,
    "city": "伊達市",
    "city_kana": "ダテシ",
    "town": "梁川町大舘",
    "town_kana": "ヤナガワマチオオダテ",
    "street": null,
    "office_name": null,
    "office_name_kana": null
  },
  "0716": {
    "postcode": "9600716",
    "prefecture": "福島県",
    "prefecture_kana": "フクシマケン",
    "prefecture_code": 7,
    "city": "伊達市",
    "city_kana": "ダテシ",
    "town": "梁川町白川田",
    "town_kana": "ヤナガワマチシラカワダ",
    "street": null,
    "office_name": null,
    "office_name_kana": null
  },
  "0717": {
    "postcode": "9600717",
    "prefecture": "福島県",
    "prefecture_kana": "フクシマケン",
    "prefecture_code": 7,
    "city": "伊達市",
    "city_kana": "ダテシ",
    "town": "梁川町向川原",
    "town_kana": "ヤナガワマチムコウガワラ",
    "street": null,
    "office_name": null,
    "office_name_kana": null
  },
  "0718": {
    "postcode": "9600718",
    "prefecture": "福島県",
    "prefecture_kana": "フクシマケン",
    "prefecture_code": 7,
    "city": "伊達市",
    "city_kana": "ダテシ",
    "town": "梁川町二野袋",
    "town_kana": "ヤナガワマチニノフクロ",
    "street": null,
    "office_name": null,
    "office_name_kana": null
  },
  "0719": {
    "postcode": "9600719",
    "prefecture": "福島県",
    "prefecture_kana": "フクシマケン",
    "prefecture_code": 7,
    "city": "伊達市",
    "city_kana": "ダテシ",
    "town": "梁川町やながわ工業団地",
    "town_kana": "ヤナガワマチヤナガワコウギョウダンチ",
    "street": null,
    "office_name": null,
    "office_name_kana": null
  },
  "0721": {
    "postcode": "9600721",
    "prefecture": "福島県",
    "prefecture_kana": "フクシマケン",
    "prefecture_code": 7,
    "city": "伊達市",
    "city_kana": "ダテシ",
    "town": "梁川町白根",
    "town_kana": "ヤナガワマチシラネ",
    "street": null,
    "office_name": null,
    "office_name_kana": null
  },
  "0722": {
    "postcode": "9600722",
    "prefecture": "福島県",
    "prefecture_kana": "フクシマケン",
    "prefecture_code": 7,
    "city": "伊達市",
    "city_kana": "ダテシ",
    "town": "梁川町八幡",
    "town_kana": "ヤナガワマチヤワタ",
    "street": null,
    "office_name": null,
    "office_name_kana": null
  },
  "0723": [
    {
      "postcode": "9600723",
      "prefecture": "福島県",
      "prefecture_kana": "フクシマケン",
      "prefecture_code": 7,
      "city": "伊達市",
      "city_kana": "ダテシ",
      "town": "梁川町足駄木",
      "town_kana": "ヤナガワマチアシナギ",
      "street": null,
      "office_name": null,
      "office_name_kana": null
    },
    {
      "postcode": "9600723",
      "prefecture": "福島県",
      "prefecture_kana": "フクシマケン",
      "prefecture_code": 7,
      "city": "伊達市",
      "city_kana": "ダテシ",
      "town": "梁川町内山",
      "town_kana": "ヤナガワマチウチヤマ",
      "street": null,
      "office_name": null,
      "office_name_kana": null
    },
    {
      "postcode": "9600723",
      "prefecture": "福島県",
      "prefecture_kana": "フクシマケン",
      "prefecture_code": 7,
      "city": "伊達市",
      "city_kana": "ダテシ",
      "town": "梁川町上足駄木",
      "town_kana": "ヤナガワマチカミアシナギ",
      "street": null,
      "office_name": null,
      "office_name_kana": null
    },
    {
      "postcode": "9600723",
      "prefecture": "福島県",
      "prefecture_kana": "フクシマケン",
      "prefecture_code": 7,
      "city": "伊達市",
      "city_kana": "ダテシ",
      "town": "梁川町里見山",
      "town_kana": "ヤナガワマチサトミヤマ",
      "street": null,
      "office_name": null,
      "office_name_kana": null
    },
    {
      "postcode": "9600723",
      "prefecture": "福島県",
      "prefecture_kana": "フクシマケン",
      "prefecture_code": 7,
      "city": "伊達市",
      "city_kana": "ダテシ",
      "town": "梁川町下足駄木",
      "town_kana": "ヤナガワマチシモアシナギ",
      "street": null,
      "office_name": null,
      "office_name_kana": null
    },
    {
      "postcode": "9600723",
      "prefecture": "福島県",
      "prefecture_kana": "フクシマケン",
      "prefecture_code": 7,
      "city": "伊達市",
      "city_kana": "ダテシ",
      "town": "梁川町中足駄木",
      "town_kana": "ヤナガワマチナカアシナギ",
      "street": null,
      "office_name": null,
      "office_name_kana": null
    }
  ],
  "0724": {
    "postcode": "9600724",
    "prefecture": "福島県",
    "prefecture_kana": "フクシマケン",
    "prefecture_code": 7,
    "city": "伊達市",
    "city_kana": "ダテシ",
    "town": "梁川町北新井",
    "town_kana": "ヤナガワマチキタアライ",
    "street": null,
    "office_name": null,
    "office_name_kana": null
  },
  "0725": {
    "postcode": "9600725",
    "prefecture": "福島県",
    "prefecture_kana": "フクシマケン",
    "prefecture_code": 7,
    "city": "伊達市",
    "city_kana": "ダテシ",
    "town": "梁川町赤五輪",
    "town_kana": "ヤナガワマチアカゴリン",
    "street": null,
    "office_name": null,
    "office_name_kana": null
  },
  "0726": {
    "postcode": "9600726",
    "prefecture": "福島県",
    "prefecture_kana": "フクシマケン",
    "prefecture_code": 7,
    "city": "伊達市",
    "city_kana": "ダテシ",
    "town": "梁川町北町頭",
    "town_kana": "ヤナガワマチキタマチガシラ",
    "street": null,
    "office_name": null,
    "office_name_kana": null
  },
  "0727": {
    "postcode": "9600727",
    "prefecture": "福島県",
    "prefecture_kana": "フクシマケン",
    "prefecture_code": 7,
    "city": "伊達市",
    "city_kana": "ダテシ",
    "town": "梁川町上町",
    "town_kana": "ヤナガワマチウワマチ",
    "street": null,
    "office_name": null,
    "office_name_kana": null
  },
  "0728": {
    "postcode": "9600728",
    "prefecture": "福島県",
    "prefecture_kana": "フクシマケン",
    "prefecture_code": 7,
    "city": "伊達市",
    "city_kana": "ダテシ",
    "town": "梁川町天神前",
    "town_kana": "ヤナガワマチテンジンマエ",
    "street": null,
    "office_name": null,
    "office_name_kana": null
  },
  "0729": {
    "postcode": "9600729",
    "prefecture": "福島県",
    "prefecture_kana": "フクシマケン",
    "prefecture_code": 7,
    "city": "伊達市",
    "city_kana": "ダテシ",
    "town": "梁川町希望ケ丘",
    "town_kana": "ヤナガワマチキボウガオカ",
    "street": null,
    "office_name": null,
    "office_name_kana": null
  },
  "0731": {
    "postcode": "9600731",
    "prefecture": "福島県",
    "prefecture_kana": "フクシマケン",
    "prefecture_code": 7,
    "city": "伊達市",
    "city_kana": "ダテシ",
    "town": "梁川町天神町",
    "town_kana": "ヤナガワマチテンジンマチ",
    "street": null,
    "office_name": null,
    "office_name_kana": null
  },
  "0732": {
    "postcode": "9600732",
    "prefecture": "福島県",
    "prefecture_kana": "フクシマケン",
    "prefecture_code": 7,
    "city": "伊達市",
    "city_kana": "ダテシ",
    "town": "梁川町南町頭",
    "town_kana": "ヤナガワマチミナミマチガシラ",
    "street": null,
    "office_name": null,
    "office_name_kana": null
  },
  "0733": {
    "postcode": "9600733",
    "prefecture": "福島県",
    "prefecture_kana": "フクシマケン",
    "prefecture_code": 7,
    "city": "伊達市",
    "city_kana": "ダテシ",
    "town": "梁川町菖蒲沢",
    "town_kana": "ヤナガワマチショウブサワ",
    "street": null,
    "office_name": null,
    "office_name_kana": null
  },
  "0734": {
    "postcode": "9600734",
    "prefecture": "福島県",
    "prefecture_kana": "フクシマケン",
    "prefecture_code": 7,
    "city": "伊達市",
    "city_kana": "ダテシ",
    "town": "梁川町茶臼山",
    "town_kana": "ヤナガワマチチャウスヤマ",
    "street": null,
    "office_name": null,
    "office_name_kana": null
  },
  "0735": {
    "postcode": "9600735",
    "prefecture": "福島県",
    "prefecture_kana": "フクシマケン",
    "prefecture_code": 7,
    "city": "伊達市",
    "city_kana": "ダテシ",
    "town": "梁川町鶴ケ岡",
    "town_kana": "ヤナガワマチツルガオカ",
    "street": null,
    "office_name": null,
    "office_name_kana": null
  },
  "0736": {
    "postcode": "9600736",
    "prefecture": "福島県",
    "prefecture_kana": "フクシマケン",
    "prefecture_code": 7,
    "city": "伊達市",
    "city_kana": "ダテシ",
    "town": "梁川町桜岳",
    "town_kana": "ヤナガワマチサクラガオカ",
    "street": null,
    "office_name": null,
    "office_name_kana": null
  },
  "0741": {
    "postcode": "9600741",
    "prefecture": "福島県",
    "prefecture_kana": "フクシマケン",
    "prefecture_code": 7,
    "city": "伊達市",
    "city_kana": "ダテシ",
    "town": "梁川町大町",
    "town_kana": "ヤナガワマチオオマチ",
    "street": null,
    "office_name": null,
    "office_name_kana": null
  },
  "0742": {
    "postcode": "9600742",
    "prefecture": "福島県",
    "prefecture_kana": "フクシマケン",
    "prefecture_code": 7,
    "city": "伊達市",
    "city_kana": "ダテシ",
    "town": "梁川町清水町",
    "town_kana": "ヤナガワマチシミズマチ",
    "street": null,
    "office_name": null,
    "office_name_kana": null
  },
  "0743": {
    "postcode": "9600743",
    "prefecture": "福島県",
    "prefecture_kana": "フクシマケン",
    "prefecture_code": 7,
    "city": "伊達市",
    "city_kana": "ダテシ",
    "town": "梁川町元陣内",
    "town_kana": "ヤナガワマチモトジンナイ",
    "street": null,
    "office_name": null,
    "office_name_kana": null
  },
  "0744": {
    "postcode": "9600744",
    "prefecture": "福島県",
    "prefecture_kana": "フクシマケン",
    "prefecture_code": 7,
    "city": "伊達市",
    "city_kana": "ダテシ",
    "town": "梁川町内町",
    "town_kana": "ヤナガワマチウチマチ",
    "street": null,
    "office_name": null,
    "office_name_kana": null
  },
  "0745": {
    "postcode": "9600745",
    "prefecture": "福島県",
    "prefecture_kana": "フクシマケン",
    "prefecture_code": 7,
    "city": "伊達市",
    "city_kana": "ダテシ",
    "town": "梁川町右城町",
    "town_kana": "ヤナガワマチウシロマチ",
    "street": null,
    "office_name": null,
    "office_name_kana": null
  },
  "0746": {
    "postcode": "9600746",
    "prefecture": "福島県",
    "prefecture_kana": "フクシマケン",
    "prefecture_code": 7,
    "city": "伊達市",
    "city_kana": "ダテシ",
    "town": "梁川町大清水",
    "town_kana": "ヤナガワマチオオシミズ",
    "street": null,
    "office_name": null,
    "office_name_kana": null
  },
  "0747": {
    "postcode": "9600747",
    "prefecture": "福島県",
    "prefecture_kana": "フクシマケン",
    "prefecture_code": 7,
    "city": "伊達市",
    "city_kana": "ダテシ",
    "town": "梁川町町裏",
    "town_kana": "ヤナガワマチマチウラ",
    "street": null,
    "office_name": null,
    "office_name_kana": null
  },
  "0751": {
    "postcode": "9600751",
    "prefecture": "福島県",
    "prefecture_kana": "フクシマケン",
    "prefecture_code": 7,
    "city": "伊達市",
    "city_kana": "ダテシ",
    "town": "梁川町古町",
    "town_kana": "ヤナガワマチフルマチ",
    "street": null,
    "office_name": null,
    "office_name_kana": null
  },
  "0752": {
    "postcode": "9600752",
    "prefecture": "福島県",
    "prefecture_kana": "フクシマケン",
    "prefecture_code": 7,
    "city": "伊達市",
    "city_kana": "ダテシ",
    "town": "梁川町四日市",
    "town_kana": "ヤナガワマチヨッカイチ",
    "street": null,
    "office_name": null,
    "office_name_kana": null
  },
  "0753": {
    "postcode": "9600753",
    "prefecture": "福島県",
    "prefecture_kana": "フクシマケン",
    "prefecture_code": 7,
    "city": "伊達市",
    "city_kana": "ダテシ",
    "town": "梁川町上川原",
    "town_kana": "ヤナガワマチカミガワラ",
    "street": null,
    "office_name": null,
    "office_name_kana": null
  },
  "0754": {
    "postcode": "9600754",
    "prefecture": "福島県",
    "prefecture_kana": "フクシマケン",
    "prefecture_code": 7,
    "city": "伊達市",
    "city_kana": "ダテシ",
    "town": "梁川町栄町",
    "town_kana": "ヤナガワマチサカエマチ",
    "street": null,
    "office_name": null,
    "office_name_kana": null
  },
  "0755": {
    "postcode": "9600755",
    "prefecture": "福島県",
    "prefecture_kana": "フクシマケン",
    "prefecture_code": 7,
    "city": "伊達市",
    "city_kana": "ダテシ",
    "town": "梁川町中久保",
    "town_kana": "ヤナガワマチナカクボ",
    "street": null,
    "office_name": null,
    "office_name_kana": null
  },
  "0756": {
    "postcode": "9600756",
    "prefecture": "福島県",
    "prefecture_kana": "フクシマケン",
    "prefecture_code": 7,
    "city": "伊達市",
    "city_kana": "ダテシ",
    "town": "梁川町青葉町",
    "town_kana": "ヤナガワマチアオバチョウ",
    "street": null,
    "office_name": null,
    "office_name_kana": null
  },
  "0757": {
    "postcode": "9600757",
    "prefecture": "福島県",
    "prefecture_kana": "フクシマケン",
    "prefecture_code": 7,
    "city": "伊達市",
    "city_kana": "ダテシ",
    "town": "梁川町幸町",
    "town_kana": "ヤナガワマチサイワイチョウ",
    "street": null,
    "office_name": null,
    "office_name_kana": null
  },
  "0758": {
    "postcode": "9600758",
    "prefecture": "福島県",
    "prefecture_kana": "フクシマケン",
    "prefecture_code": 7,
    "city": "伊達市",
    "city_kana": "ダテシ",
    "town": "梁川町桜町",
    "town_kana": "ヤナガワマチサクラチョウ",
    "street": null,
    "office_name": null,
    "office_name_kana": null
  },
  "0759": {
    "postcode": "9600759",
    "prefecture": "福島県",
    "prefecture_kana": "フクシマケン",
    "prefecture_code": 7,
    "city": "伊達市",
    "city_kana": "ダテシ",
    "town": "梁川町広瀬町",
    "town_kana": "ヤナガワマチヒロセチョウ",
    "street": null,
    "office_name": null,
    "office_name_kana": null
  },
  "0760": {
    "postcode": "9600760",
    "prefecture": "福島県",
    "prefecture_kana": "フクシマケン",
    "prefecture_code": 7,
    "city": "伊達市",
    "city_kana": "ダテシ",
    "town": "梁川町陽光台",
    "town_kana": "ヤナガワマチヨウコウダイ",
    "street": null,
    "office_name": null,
    "office_name_kana": null
  },
  "0762": {
    "postcode": "9600762",
    "prefecture": "福島県",
    "prefecture_kana": "フクシマケン",
    "prefecture_code": 7,
    "city": "伊達市",
    "city_kana": "ダテシ",
    "town": "梁川町丹波塚",
    "town_kana": "ヤナガワマチタンバヅカ",
    "street": null,
    "office_name": null,
    "office_name_kana": null
  },
  "0763": {
    "postcode": "9600763",
    "prefecture": "福島県",
    "prefecture_kana": "フクシマケン",
    "prefecture_code": 7,
    "city": "伊達市",
    "city_kana": "ダテシ",
    "town": "梁川町大門道",
    "town_kana": "ヤナガワマチダイモンミチ",
    "street": null,
    "office_name": null,
    "office_name_kana": null
  },
  "0764": {
    "postcode": "9600764",
    "prefecture": "福島県",
    "prefecture_kana": "フクシマケン",
    "prefecture_code": 7,
    "city": "伊達市",
    "city_kana": "ダテシ",
    "town": "梁川町壱丁田",
    "town_kana": "ヤナガワマチイッチョウダ",
    "street": null,
    "office_name": null,
    "office_name_kana": null
  },
  "0765": {
    "postcode": "9600765",
    "prefecture": "福島県",
    "prefecture_kana": "フクシマケン",
    "prefecture_code": 7,
    "city": "伊達市",
    "city_kana": "ダテシ",
    "town": "梁川町大関",
    "town_kana": "ヤナガワマチオオゼキ",
    "street": null,
    "office_name": null,
    "office_name_kana": null
  },
  "0766": {
    "postcode": "9600766",
    "prefecture": "福島県",
    "prefecture_kana": "フクシマケン",
    "prefecture_code": 7,
    "city": "伊達市",
    "city_kana": "ダテシ",
    "town": "梁川町細谷",
    "town_kana": "ヤナガワマチホソヤ",
    "street": null,
    "office_name": null,
    "office_name_kana": null
  },
  "0767": {
    "postcode": "9600767",
    "prefecture": "福島県",
    "prefecture_kana": "フクシマケン",
    "prefecture_code": 7,
    "city": "伊達市",
    "city_kana": "ダテシ",
    "town": "梁川町新田",
    "town_kana": "ヤナガワマチニッタ",
    "street": null,
    "office_name": null,
    "office_name_kana": null
  },
  "0768": {
    "postcode": "9600768",
    "prefecture": "福島県",
    "prefecture_kana": "フクシマケン",
    "prefecture_code": 7,
    "city": "伊達市",
    "city_kana": "ダテシ",
    "town": "梁川町柳田",
    "town_kana": "ヤナガワマチヤナギダ",
    "street": null,
    "office_name": null,
    "office_name_kana": null
  },
  "0769": {
    "postcode": "9600769",
    "prefecture": "福島県",
    "prefecture_kana": "フクシマケン",
    "prefecture_code": 7,
    "city": "伊達市",
    "city_kana": "ダテシ",
    "town": "梁川町舟橋",
    "town_kana": "ヤナガワマチフナバシ",
    "street": null,
    "office_name": null,
    "office_name_kana": null
  },
  "0772": {
    "postcode": "9600772",
    "prefecture": "福島県",
    "prefecture_kana": "フクシマケン",
    "prefecture_code": 7,
    "city": "伊達市",
    "city_kana": "ダテシ",
    "town": "梁川町上割田",
    "town_kana": "ヤナガワマチカミワリダ",
    "street": null,
    "office_name": null,
    "office_name_kana": null
  },
  "0773": {
    "postcode": "9600773",
    "prefecture": "福島県",
    "prefecture_kana": "フクシマケン",
    "prefecture_code": 7,
    "city": "伊達市",
    "city_kana": "ダテシ",
    "town": "梁川町五反田",
    "town_kana": "ヤナガワマチゴタンダ",
    "street": null,
    "office_name": null,
    "office_name_kana": null
  },
  "0774": {
    "postcode": "9600774",
    "prefecture": "福島県",
    "prefecture_kana": "フクシマケン",
    "prefecture_code": 7,
    "city": "伊達市",
    "city_kana": "ダテシ",
    "town": "梁川町石井戸",
    "town_kana": "ヤナガワマチイシイド",
    "street": null,
    "office_name": null,
    "office_name_kana": null
  },
  "0775": {
    "postcode": "9600775",
    "prefecture": "福島県",
    "prefecture_kana": "フクシマケン",
    "prefecture_code": 7,
    "city": "伊達市",
    "city_kana": "ダテシ",
    "town": "梁川町四石蒔",
    "town_kana": "ヤナガワマチシコクマキ",
    "street": null,
    "office_name": null,
    "office_name_kana": null
  },
  "0776": {
    "postcode": "9600776",
    "prefecture": "福島県",
    "prefecture_kana": "フクシマケン",
    "prefecture_code": 7,
    "city": "伊達市",
    "city_kana": "ダテシ",
    "town": "梁川町東土橋",
    "town_kana": "ヤナガワマチヒガシドバシ",
    "street": null,
    "office_name": null,
    "office_name_kana": null
  },
  "0777": {
    "postcode": "9600777",
    "prefecture": "福島県",
    "prefecture_kana": "フクシマケン",
    "prefecture_code": 7,
    "city": "伊達市",
    "city_kana": "ダテシ",
    "town": "梁川町西土橋",
    "town_kana": "ヤナガワマチニシドバシ",
    "street": null,
    "office_name": null,
    "office_name_kana": null
  },
  "0778": {
    "postcode": "9600778",
    "prefecture": "福島県",
    "prefecture_kana": "フクシマケン",
    "prefecture_code": 7,
    "city": "伊達市",
    "city_kana": "ダテシ",
    "town": "梁川町伝樋",
    "town_kana": "ヤナガワマチデンピ",
    "street": null,
    "office_name": null,
    "office_name_kana": null
  },
  "0781": {
    "postcode": "9600781",
    "prefecture": "福島県",
    "prefecture_kana": "フクシマケン",
    "prefecture_code": 7,
    "city": "伊達市",
    "city_kana": "ダテシ",
    "town": "梁川町北本町",
    "town_kana": "ヤナガワマチキタモトマチ",
    "street": null,
    "office_name": null,
    "office_name_kana": null
  },
  "0782": {
    "postcode": "9600782",
    "prefecture": "福島県",
    "prefecture_kana": "フクシマケン",
    "prefecture_code": 7,
    "city": "伊達市",
    "city_kana": "ダテシ",
    "town": "梁川町中町",
    "town_kana": "ヤナガワマチナカマチ",
    "street": null,
    "office_name": null,
    "office_name_kana": null
  },
  "0783": {
    "postcode": "9600783",
    "prefecture": "福島県",
    "prefecture_kana": "フクシマケン",
    "prefecture_code": 7,
    "city": "伊達市",
    "city_kana": "ダテシ",
    "town": "梁川町本町",
    "town_kana": "ヤナガワマチモトマチ",
    "street": null,
    "office_name": null,
    "office_name_kana": null
  },
  "0784": {
    "postcode": "9600784",
    "prefecture": "福島県",
    "prefecture_kana": "フクシマケン",
    "prefecture_code": 7,
    "city": "伊達市",
    "city_kana": "ダテシ",
    "town": "梁川町田町",
    "town_kana": "ヤナガワマチタマチ",
    "street": null,
    "office_name": null,
    "office_name_kana": null
  },
  "0785": {
    "postcode": "9600785",
    "prefecture": "福島県",
    "prefecture_kana": "フクシマケン",
    "prefecture_code": 7,
    "city": "伊達市",
    "city_kana": "ダテシ",
    "town": "梁川町小梁川",
    "town_kana": "ヤナガワマチコヤナガワ",
    "street": null,
    "office_name": null,
    "office_name_kana": null
  },
  "0786": {
    "postcode": "9600786",
    "prefecture": "福島県",
    "prefecture_kana": "フクシマケン",
    "prefecture_code": 7,
    "city": "伊達市",
    "city_kana": "ダテシ",
    "town": "梁川町南本町",
    "town_kana": "ヤナガワマチミナミモトマチ",
    "street": null,
    "office_name": null,
    "office_name_kana": null
  },
  "0787": {
    "postcode": "9600787",
    "prefecture": "福島県",
    "prefecture_kana": "フクシマケン",
    "prefecture_code": 7,
    "city": "伊達市",
    "city_kana": "ダテシ",
    "town": "梁川町山城舘",
    "town_kana": "ヤナガワマチヤマシロダテ",
    "street": null,
    "office_name": null,
    "office_name_kana": null
  },
  "0801": {
    "postcode": "9600801",
    "prefecture": "福島県",
    "prefecture_kana": "フクシマケン",
    "prefecture_code": 7,
    "city": "伊達市",
    "city_kana": "ダテシ",
    "town": "霊山町掛田",
    "town_kana": "リョウゼンマチカケダ",
    "street": null,
    "office_name": null,
    "office_name_kana": null
  },
  "0802": {
    "postcode": "9600802",
    "prefecture": "福島県",
    "prefecture_kana": "フクシマケン",
    "prefecture_code": 7,
    "city": "伊達市",
    "city_kana": "ダテシ",
    "town": "霊山町山野川",
    "town_kana": "リョウゼンマチヤマノガワ",
    "street": null,
    "office_name": null,
    "office_name_kana": null
  },
  "0803": {
    "postcode": "9600803",
    "prefecture": "福島県",
    "prefecture_kana": "フクシマケン",
    "prefecture_code": 7,
    "city": "伊達市",
    "city_kana": "ダテシ",
    "town": "霊山町泉原",
    "town_kana": "リョウゼンマチイズミハラ",
    "street": null,
    "office_name": null,
    "office_name_kana": null
  },
  "0804": {
    "postcode": "9600804",
    "prefecture": "福島県",
    "prefecture_kana": "フクシマケン",
    "prefecture_code": 7,
    "city": "伊達市",
    "city_kana": "ダテシ",
    "town": "霊山町大石",
    "town_kana": "リョウゼンマチオオイシ",
    "street": null,
    "office_name": null,
    "office_name_kana": null
  },
  "0805": {
    "postcode": "9600805",
    "prefecture": "福島県",
    "prefecture_kana": "フクシマケン",
    "prefecture_code": 7,
    "city": "伊達市",
    "city_kana": "ダテシ",
    "town": "霊山町中川",
    "town_kana": "リョウゼンマチナカガワ",
    "street": null,
    "office_name": null,
    "office_name_kana": null
  },
  "0806": {
    "postcode": "9600806",
    "prefecture": "福島県",
    "prefecture_kana": "フクシマケン",
    "prefecture_code": 7,
    "city": "伊達市",
    "city_kana": "ダテシ",
    "town": "霊山町山戸田",
    "town_kana": "リョウゼンマチヤマトダ",
    "street": null,
    "office_name": null,
    "office_name_kana": null
  },
  "0807": {
    "postcode": "9600807",
    "prefecture": "福島県",
    "prefecture_kana": "フクシマケン",
    "prefecture_code": 7,
    "city": "伊達市",
    "city_kana": "ダテシ",
    "town": "霊山町石田",
    "town_kana": "リョウゼンマチイシダ",
    "street": null,
    "office_name": null,
    "office_name_kana": null
  },
  "0808": {
    "postcode": "9600808",
    "prefecture": "福島県",
    "prefecture_kana": "フクシマケン",
    "prefecture_code": 7,
    "city": "伊達市",
    "city_kana": "ダテシ",
    "town": "霊山町下小国",
    "town_kana": "リョウゼンマチシモオグニ",
    "street": null,
    "office_name": null,
    "office_name_kana": null
  },
  "0809": {
    "postcode": "9600809",
    "prefecture": "福島県",
    "prefecture_kana": "フクシマケン",
    "prefecture_code": 7,
    "city": "伊達市",
    "city_kana": "ダテシ",
    "town": "霊山町上小国",
    "town_kana": "リョウゼンマチカミオグニ",
    "street": null,
    "office_name": null,
    "office_name_kana": null
  },
  "0811": {
    "postcode": "9600811",
    "prefecture": "福島県",
    "prefecture_kana": "フクシマケン",
    "prefecture_code": 7,
    "city": "福島市",
    "city_kana": "フクシマシ",
    "town": "大波",
    "town_kana": "オオナミ",
    "street": null,
    "office_name": null,
    "office_name_kana": null
  },
  "0893": {
    "postcode": "9600893",
    "prefecture": "福島県",
    "prefecture_kana": "フクシマケン",
    "prefecture_code": 7,
    "city": "伊達市",
    "city_kana": "ダテシ",
    "town": "霊山町掛田",
    "town_kana": "リョウゼンマチカケダ",
    "street": "字段居４５（掛田郵便局私書箱第１号）",
    "office_name": "伊達市役所　霊山総合支所",
    "office_name_kana": "ダテシヤクシヨ リヨウゼンソウゴウシシヨ"
  },
  "0901": {
    "postcode": "9600901",
    "prefecture": "福島県",
    "prefecture_kana": "フクシマケン",
    "prefecture_code": 7,
    "city": "伊達市",
    "city_kana": "ダテシ",
    "town": "月舘町布川",
    "town_kana": "ツキダテマチヌノカワ",
    "street": null,
    "office_name": null,
    "office_name_kana": null
  },
  "0902": {
    "postcode": "9600902",
    "prefecture": "福島県",
    "prefecture_kana": "フクシマケン",
    "prefecture_code": 7,
    "city": "伊達市",
    "city_kana": "ダテシ",
    "town": "月舘町月舘",
    "town_kana": "ツキダテマチツキダテ",
    "street": null,
    "office_name": null,
    "office_name_kana": null
  },
  "0903": {
    "postcode": "9600903",
    "prefecture": "福島県",
    "prefecture_kana": "フクシマケン",
    "prefecture_code": 7,
    "city": "伊達市",
    "city_kana": "ダテシ",
    "town": "月舘町下手渡",
    "town_kana": "ツキダテマチシモテド",
    "street": null,
    "office_name": null,
    "office_name_kana": null
  },
  "0904": {
    "postcode": "9600904",
    "prefecture": "福島県",
    "prefecture_kana": "フクシマケン",
    "prefecture_code": 7,
    "city": "伊達市",
    "city_kana": "ダテシ",
    "town": "月舘町上手渡",
    "town_kana": "ツキダテマチカミテド",
    "street": null,
    "office_name": null,
    "office_name_kana": null
  },
  "0905": {
    "postcode": "9600905",
    "prefecture": "福島県",
    "prefecture_kana": "フクシマケン",
    "prefecture_code": 7,
    "city": "伊達市",
    "city_kana": "ダテシ",
    "town": "月舘町糠田",
    "town_kana": "ツキダテマチヌカダ",
    "street": null,
    "office_name": null,
    "office_name_kana": null
  },
  "0906": {
    "postcode": "9600906",
    "prefecture": "福島県",
    "prefecture_kana": "フクシマケン",
    "prefecture_code": 7,
    "city": "伊達市",
    "city_kana": "ダテシ",
    "town": "月舘町御代田",
    "town_kana": "ツキダテマチミヨダ",
    "street": null,
    "office_name": null,
    "office_name_kana": null
  },
  "0992": {
    "postcode": "9600992",
    "prefecture": "福島県",
    "prefecture_kana": "フクシマケン",
    "prefecture_code": 7,
    "city": "伊達市",
    "city_kana": "ダテシ",
    "town": "月舘町月舘",
    "town_kana": "ツキダテマチツキダテ",
    "street": "字久保田５",
    "office_name": "伊達市役所　月舘総合支所",
    "office_name_kana": "ダテシヤクシヨ ツキダテソウゴウシシヨ"
  },
  "1101": {
    "postcode": "9601101",
    "prefecture": "福島県",
    "prefecture_kana": "フクシマケン",
    "prefecture_code": 7,
    "city": "福島市",
    "city_kana": "フクシマシ",
    "town": "大森",
    "town_kana": "オオモリ",
    "street": null,
    "office_name": null,
    "office_name_kana": null
  },
  "1102": {
    "postcode": "9601102",
    "prefecture": "福島県",
    "prefecture_kana": "フクシマケン",
    "prefecture_code": 7,
    "city": "福島市",
    "city_kana": "フクシマシ",
    "town": "永井川",
    "town_kana": "ナガイカワ",
    "street": null,
    "office_name": null,
    "office_name_kana": null
  },
  "1103": {
    "postcode": "9601103",
    "prefecture": "福島県",
    "prefecture_kana": "フクシマケン",
    "prefecture_code": 7,
    "city": "福島市",
    "city_kana": "フクシマシ",
    "town": "平石",
    "town_kana": "ヒライシ",
    "street": null,
    "office_name": null,
    "office_name_kana": null
  },
  "1104": {
    "postcode": "9601104",
    "prefecture": "福島県",
    "prefecture_kana": "フクシマケン",
    "prefecture_code": 7,
    "city": "福島市",
    "city_kana": "フクシマシ",
    "town": "小田",
    "town_kana": "オダ",
    "street": null,
    "office_name": null,
    "office_name_kana": null
  },
  "1105": {
    "postcode": "9601105",
    "prefecture": "福島県",
    "prefecture_kana": "フクシマケン",
    "prefecture_code": 7,
    "city": "福島市",
    "city_kana": "フクシマシ",
    "town": "山田",
    "town_kana": "ヤマダ",
    "street": null,
    "office_name": null,
    "office_name_kana": null
  },
  "1106": {
    "postcode": "9601106",
    "prefecture": "福島県",
    "prefecture_kana": "フクシマケン",
    "prefecture_code": 7,
    "city": "福島市",
    "city_kana": "フクシマシ",
    "town": "下鳥渡",
    "town_kana": "シモトリワタ",
    "street": null,
    "office_name": null,
    "office_name_kana": null
  },
  "1107": {
    "postcode": "9601107",
    "prefecture": "福島県",
    "prefecture_kana": "フクシマケン",
    "prefecture_code": 7,
    "city": "福島市",
    "city_kana": "フクシマシ",
    "town": "上鳥渡",
    "town_kana": "カミトリワタ",
    "street": null,
    "office_name": null,
    "office_name_kana": null
  },
  "1108": {
    "postcode": "9601108",
    "prefecture": "福島県",
    "prefecture_kana": "フクシマケン",
    "prefecture_code": 7,
    "city": "福島市",
    "city_kana": "フクシマシ",
    "town": "成川",
    "town_kana": "ナリカワ",
    "street": null,
    "office_name": null,
    "office_name_kana": null
  },
  "1192": {
    "postcode": "9601192",
    "prefecture": "福島県",
    "prefecture_kana": "フクシマケン",
    "prefecture_code": 7,
    "city": "福島市",
    "city_kana": "フクシマシ",
    "town": "永井川",
    "town_kana": "ナガイカワ",
    "street": "字北原田１",
    "office_name": "福島県立　福島明成高等学校",
    "office_name_kana": "フクシマケンリツ フクシマメイセイコウトウガツコウ"
  },
  "1193": {
    "postcode": "9601193",
    "prefecture": "福島県",
    "prefecture_kana": "フクシマケン",
    "prefecture_code": 7,
    "city": "福島市",
    "city_kana": "フクシマシ",
    "town": "永井川",
    "town_kana": "ナガイカワ",
    "street": "字続堀８",
    "office_name": "ＮＯＫ　株式会社　福島事業場",
    "office_name_kana": "エヌオ-ケ- カブシキガイシヤ フクシマジギヨウジヨウ"
  },
  "1195": {
    "postcode": "9601195",
    "prefecture": "福島県",
    "prefecture_kana": "フクシマケン",
    "prefecture_code": 7,
    "city": "福島市",
    "city_kana": "フクシマシ",
    "town": "上鳥渡",
    "town_kana": "カミトリワタ",
    "street": "字蛭川２２−２",
    "office_name": "社団法人　福島県エルピーガス協会",
    "office_name_kana": "シヤダンホウジン フクシマケンエルピ-ガスキヨウカイ"
  },
  "1196": {
    "postcode": "9601196",
    "prefecture": "福島県",
    "prefecture_kana": "フクシマケン",
    "prefecture_code": 7,
    "city": "福島市",
    "city_kana": "フクシマシ",
    "town": "大森",
    "town_kana": "オオモリ",
    "street": "字宮ノ前２５−２",
    "office_name": "福島県酒類卸　株式会社",
    "office_name_kana": "フクシマケンシユルイオロシ カブシキガイシヤ"
  },
  "1197": {
    "postcode": "9601197",
    "prefecture": "福島県",
    "prefecture_kana": "フクシマケン",
    "prefecture_code": 7,
    "city": "福島市",
    "city_kana": "フクシマシ",
    "town": "永井川",
    "town_kana": "ナガイカワ",
    "street": "字北原田１７",
    "office_name": "日本赤十字社　福島県支部",
    "office_name_kana": "ニホンセキジユウジシヤ フクシマケンシブ"
  },
  "1198": {
    "postcode": "9601198",
    "prefecture": "福島県",
    "prefecture_kana": "フクシマケン",
    "prefecture_code": 7,
    "city": "福島市",
    "city_kana": "フクシマシ",
    "town": "永井川",
    "town_kana": "ナガイカワ",
    "street": "字北原田１７",
    "office_name": "福島県　赤十字血液センター",
    "office_name_kana": "フクシマケン セキジユウジケツエキセンタ-"
  },
  "1231": {
    "postcode": "9601231",
    "prefecture": "福島県",
    "prefecture_kana": "フクシマケン",
    "prefecture_code": 7,
    "city": "福島市",
    "city_kana": "フクシマシ",
    "town": "松川町沼袋",
    "town_kana": "マツカワマチヌマブクロ",
    "street": null,
    "office_name": null,
    "office_name_kana": null
  },
  "1232": {
    "postcode": "9601232",
    "prefecture": "福島県",
    "prefecture_kana": "フクシマケン",
    "prefecture_code": 7,
    "city": "福島市",
    "city_kana": "フクシマシ",
    "town": "松川町下川崎",
    "town_kana": "マツカワマチシモカワサキ",
    "street": null,
    "office_name": null,
    "office_name_kana": null
  },
  "1241": {
    "postcode": "9601241",
    "prefecture": "福島県",
    "prefecture_kana": "フクシマケン",
    "prefecture_code": 7,
    "city": "福島市",
    "city_kana": "フクシマシ",
    "town": "松川町",
    "town_kana": "マツカワマチ",
    "street": null,
    "office_name": null,
    "office_name_kana": null
  },
  "1242": {
    "postcode": "9601242",
    "prefecture": "福島県",
    "prefecture_kana": "フクシマケン",
    "prefecture_code": 7,
    "city": "福島市",
    "city_kana": "フクシマシ",
    "town": "松川町美郷",
    "town_kana": "マツカワマチミサト",
    "street": null,
    "office_name": null,
    "office_name_kana": null
  },
  "1243": {
    "postcode": "9601243",
    "prefecture": "福島県",
    "prefecture_kana": "フクシマケン",
    "prefecture_code": 7,
    "city": "福島市",
    "city_kana": "フクシマシ",
    "town": "松川町水原",
    "town_kana": "マツカワマチミズハラ",
    "street": null,
    "office_name": null,
    "office_name_kana": null
  },
  "1244": {
    "postcode": "9601244",
    "prefecture": "福島県",
    "prefecture_kana": "フクシマケン",
    "prefecture_code": 7,
    "city": "福島市",
    "city_kana": "フクシマシ",
    "town": "松川町関谷",
    "town_kana": "マツカワマチセキヤ",
    "street": null,
    "office_name": null,
    "office_name_kana": null
  },
  "1245": {
    "postcode": "9601245",
    "prefecture": "福島県",
    "prefecture_kana": "フクシマケン",
    "prefecture_code": 7,
    "city": "福島市",
    "city_kana": "フクシマシ",
    "town": "松川町浅川",
    "town_kana": "マツカワマチアサカワ",
    "street": null,
    "office_name": null,
    "office_name_kana": null
  },
  "1246": {
    "postcode": "9601246",
    "prefecture": "福島県",
    "prefecture_kana": "フクシマケン",
    "prefecture_code": 7,
    "city": "福島市",
    "city_kana": "フクシマシ",
    "town": "松川町金沢",
    "town_kana": "マツカワマチカネザワ",
    "street": null,
    "office_name": null,
    "office_name_kana": null
  },
  "1247": {
    "postcode": "9601247",
    "prefecture": "福島県",
    "prefecture_kana": "フクシマケン",
    "prefecture_code": 7,
    "city": "福島市",
    "city_kana": "フクシマシ",
    "town": "光が丘",
    "town_kana": "ヒカリガオカ",
    "street": null,
    "office_name": null,
    "office_name_kana": null
  },
  "1248": {
    "postcode": "9601248",
    "prefecture": "福島県",
    "prefecture_kana": "フクシマケン",
    "prefecture_code": 7,
    "city": "福島市",
    "city_kana": "フクシマシ",
    "town": "金谷川",
    "town_kana": "カナヤガワ",
    "street": null,
    "office_name": null,
    "office_name_kana": null
  },
  "1292": {
    "postcode": "9601292",
    "prefecture": "福島県",
    "prefecture_kana": "フクシマケン",
    "prefecture_code": 7,
    "city": "福島市",
    "city_kana": "フクシマシ",
    "town": "松川町",
    "town_kana": "マツカワマチ",
    "street": "字天王原９",
    "office_name": "北芝電機　株式会社",
    "office_name_kana": "キタシバデンキ カブシキガイシヤ"
  },
  "1293": {
    "postcode": "9601293",
    "prefecture": "福島県",
    "prefecture_kana": "フクシマケン",
    "prefecture_code": 7,
    "city": "福島市",
    "city_kana": "フクシマシ",
    "town": "金谷川",
    "town_kana": "カナヤガワ",
    "street": "１番地",
    "office_name": "福島大学附属図書館",
    "office_name_kana": "フクシマダイガクフゾクトシヨカン"
  },
  "1295": {
    "postcode": "9601295",
    "prefecture": "福島県",
    "prefecture_kana": "フクシマケン",
    "prefecture_code": 7,
    "city": "福島市",
    "city_kana": "フクシマシ",
    "town": "光が丘",
    "town_kana": "ヒカリガオカ",
    "street": "１",
    "office_name": "福島県立　医科大学",
    "office_name_kana": "フクシマケンリツ イカダイガク"
  },
  "1296": {
    "postcode": "9601296",
    "prefecture": "福島県",
    "prefecture_kana": "フクシマケン",
    "prefecture_code": 7,
    "city": "福島市",
    "city_kana": "フクシマシ",
    "town": "金谷川",
    "town_kana": "カナヤガワ",
    "street": "１番地",
    "office_name": "福島大学",
    "office_name_kana": "フクシマダイガグ"
  },
  "1297": {
    "postcode": "9601297",
    "prefecture": "福島県",
    "prefecture_kana": "フクシマケン",
    "prefecture_code": 7,
    "city": "福島市",
    "city_kana": "フクシマシ",
    "town": "光が丘",
    "town_kana": "ヒカリガオカ",
    "street": "１",
    "office_name": "福島県立　医科大学附属図書館",
    "office_name_kana": "フクシマケンリツ イカダイガクフゾクトシヨカン"
  },
  "1301": {
    "postcode": "9601301",
    "prefecture": "福島県",
    "prefecture_kana": "フクシマケン",
    "prefecture_code": 7,
    "city": "福島市",
    "city_kana": "フクシマシ",
    "town": "飯野町",
    "town_kana": "イイノマチ",
    "street": null,
    "office_name": null,
    "office_name_kana": null
  },
  "1302": {
    "postcode": "9601302",
    "prefecture": "福島県",
    "prefecture_kana": "フクシマケン",
    "prefecture_code": 7,
    "city": "福島市",
    "city_kana": "フクシマシ",
    "town": "飯野町明治",
    "town_kana": "イイノマチメイジ",
    "street": null,
    "office_name": null,
    "office_name_kana": null
  },
  "1303": {
    "postcode": "9601303",
    "prefecture": "福島県",
    "prefecture_kana": "フクシマケン",
    "prefecture_code": 7,
    "city": "福島市",
    "city_kana": "フクシマシ",
    "town": "飯野町青木",
    "town_kana": "イイノマチアオキ",
    "street": null,
    "office_name": null,
    "office_name_kana": null
  },
  "1304": {
    "postcode": "9601304",
    "prefecture": "福島県",
    "prefecture_kana": "フクシマケン",
    "prefecture_code": 7,
    "city": "福島市",
    "city_kana": "フクシマシ",
    "town": "飯野町大久保",
    "town_kana": "イイノマチオオクボ",
    "street": null,
    "office_name": null,
    "office_name_kana": null
  },
  "1321": {
    "postcode": "9601321",
    "prefecture": "福島県",
    "prefecture_kana": "フクシマケン",
    "prefecture_code": 7,
    "city": "福島市",
    "city_kana": "フクシマシ",
    "town": "立子山",
    "town_kana": "タツゴヤマ",
    "street": null,
    "office_name": null,
    "office_name_kana": null
  },
  "1392": {
    "postcode": "9601392",
    "prefecture": "福島県",
    "prefecture_kana": "フクシマケン",
    "prefecture_code": 7,
    "city": "福島市",
    "city_kana": "フクシマシ",
    "town": "飯野町",
    "town_kana": "イイノマチ",
    "street": "字後川１０−２",
    "office_name": "福島市役所　飯野支所",
    "office_name_kana": "フクシマシヤクシヨ イイノシシヨ"
  },
  "1393": {
    "postcode": "9601393",
    "prefecture": "福島県",
    "prefecture_kana": "フクシマケン",
    "prefecture_code": 7,
    "city": "福島市",
    "city_kana": "フクシマシ",
    "town": "飯野町明治",
    "town_kana": "イイノマチメイジ",
    "street": "字鹿ノ子島１７−３",
    "office_name": "日特エンジニアリング　株式会社　福島工場",
    "office_name_kana": "ニツトクエンジニアリング カブシキガイシヤ フクシマコウジヨウ"
  },
  "1400": {
    "postcode": "9601400",
    "prefecture": "福島県",
    "prefecture_kana": "フクシマケン",
    "prefecture_code": 7,
    "city": "伊達郡川俣町",
    "city_kana": "ダテグンカワマタマチ",
    "town": "",
    "town_kana": "",
    "street": null,
    "office_name": null,
    "office_name_kana": null
  },
  "1401": {
    "postcode": "9601401",
    "prefecture": "福島県",
    "prefecture_kana": "フクシマケン",
    "prefecture_code": 7,
    "city": "伊達郡川俣町",
    "city_kana": "ダテグンカワマタマチ",
    "town": "飯坂",
    "town_kana": "イイザカ",
    "street": null,
    "office_name": null,
    "office_name_kana": null
  },
  "1402": {
    "postcode": "9601402",
    "prefecture": "福島県",
    "prefecture_kana": "フクシマケン",
    "prefecture_code": 7,
    "city": "伊達郡川俣町",
    "city_kana": "ダテグンカワマタマチ",
    "town": "小綱木",
    "town_kana": "コツナギ",
    "street": null,
    "office_name": null,
    "office_name_kana": null
  },
  "1403": {
    "postcode": "9601403",
    "prefecture": "福島県",
    "prefecture_kana": "フクシマケン",
    "prefecture_code": 7,
    "city": "伊達郡川俣町",
    "city_kana": "ダテグンカワマタマチ",
    "town": "大綱木",
    "town_kana": "オオツナギ",
    "street": null,
    "office_name": null,
    "office_name_kana": null
  },
  "1404": {
    "postcode": "9601404",
    "prefecture": "福島県",
    "prefecture_kana": "フクシマケン",
    "prefecture_code": 7,
    "city": "伊達郡川俣町",
    "city_kana": "ダテグンカワマタマチ",
    "town": "西福沢",
    "town_kana": "ニシフクザワ",
    "street": null,
    "office_name": null,
    "office_name_kana": null
  },
  "1405": {
    "postcode": "9601405",
    "prefecture": "福島県",
    "prefecture_kana": "フクシマケン",
    "prefecture_code": 7,
    "city": "伊達郡川俣町",
    "city_kana": "ダテグンカワマタマチ",
    "town": "東福沢",
    "town_kana": "ヒガシフクザワ",
    "street": null,
    "office_name": null,
    "office_name_kana": null
  },
  "1406": {
    "postcode": "9601406",
    "prefecture": "福島県",
    "prefecture_kana": "フクシマケン",
    "prefecture_code": 7,
    "city": "伊達郡川俣町",
    "city_kana": "ダテグンカワマタマチ",
    "town": "鶴沢",
    "town_kana": "ツルザワ",
    "street": null,
    "office_name": null,
    "office_name_kana": null
  },
  "1407": {
    "postcode": "9601407",
    "prefecture": "福島県",
    "prefecture_kana": "フクシマケン",
    "prefecture_code": 7,
    "city": "伊達郡川俣町",
    "city_kana": "ダテグンカワマタマチ",
    "town": "小神",
    "town_kana": "コガミ",
    "street": null,
    "office_name": null,
    "office_name_kana": null
  },
  "1408": {
    "postcode": "9601408",
    "prefecture": "福島県",
    "prefecture_kana": "フクシマケン",
    "prefecture_code": 7,
    "city": "伊達郡川俣町",
    "city_kana": "ダテグンカワマタマチ",
    "town": "羽田",
    "town_kana": "ハネダ",
    "street": null,
    "office_name": null,
    "office_name_kana": null
  },
  "1409": {
    "postcode": "9601409",
    "prefecture": "福島県",
    "prefecture_kana": "フクシマケン",
    "prefecture_code": 7,
    "city": "伊達郡川俣町",
    "city_kana": "ダテグンカワマタマチ",
    "town": "秋山",
    "town_kana": "アキヤマ",
    "street": null,
    "office_name": null,
    "office_name_kana": null
  },
  "1411": {
    "postcode": "9601411",
    "prefecture": "福島県",
    "prefecture_kana": "フクシマケン",
    "prefecture_code": 7,
    "city": "伊達郡川俣町",
    "city_kana": "ダテグンカワマタマチ",
    "town": "細田",
    "town_kana": "ホソダ",
    "street": null,
    "office_name": null,
    "office_name_kana": null
  },
  "1412": {
    "postcode": "9601412",
    "prefecture": "福島県",
    "prefecture_kana": "フクシマケン",
    "prefecture_code": 7,
    "city": "伊達郡川俣町",
    "city_kana": "ダテグンカワマタマチ",
    "town": "仲ノ内",
    "town_kana": "ナカノウチ",
    "street": null,
    "office_name": null,
    "office_name_kana": null
  },
  "1413": {
    "postcode": "9601413",
    "prefecture": "福島県",
    "prefecture_kana": "フクシマケン",
    "prefecture_code": 7,
    "city": "伊達郡川俣町",
    "city_kana": "ダテグンカワマタマチ",
    "town": "広畑",
    "town_kana": "ヒロハタ",
    "street": null,
    "office_name": null,
    "office_name_kana": null
  },
  "1414": {
    "postcode": "9601414",
    "prefecture": "福島県",
    "prefecture_kana": "フクシマケン",
    "prefecture_code": 7,
    "city": "伊達郡川俣町",
    "city_kana": "ダテグンカワマタマチ",
    "town": "上桜",
    "town_kana": "ウエザクラ",
    "street": null,
    "office_name": null,
    "office_name_kana": null
  },
  "1415": {
    "postcode": "9601415",
    "prefecture": "福島県",
    "prefecture_kana": "フクシマケン",
    "prefecture_code": 7,
    "city": "伊達郡川俣町",
    "city_kana": "ダテグンカワマタマチ",
    "town": "仁井町",
    "town_kana": "ニイマチ",
    "street": null,
    "office_name": null,
    "office_name_kana": null
  },
  "1416": {
    "postcode": "9601416",
    "prefecture": "福島県",
    "prefecture_kana": "フクシマケン",
    "prefecture_code": 7,
    "city": "伊達郡川俣町",
    "city_kana": "ダテグンカワマタマチ",
    "town": "舘ノ腰",
    "town_kana": "タテノコシ",
    "street": null,
    "office_name": null,
    "office_name_kana": null
  },
  "1417": {
    "postcode": "9601417",
    "prefecture": "福島県",
    "prefecture_kana": "フクシマケン",
    "prefecture_code": 7,
    "city": "伊達郡川俣町",
    "city_kana": "ダテグンカワマタマチ",
    "town": "橋本",
    "town_kana": "ハシモト",
    "street": null,
    "office_name": null,
    "office_name_kana": null
  },
  "1421": {
    "postcode": "9601421",
    "prefecture": "福島県",
    "prefecture_kana": "フクシマケン",
    "prefecture_code": 7,
    "city": "伊達郡川俣町",
    "city_kana": "ダテグンカワマタマチ",
    "town": "鉄炮町",
    "town_kana": "テッポウマチ",
    "street": null,
    "office_name": null,
    "office_name_kana": null
  },
  "1422": {
    "postcode": "9601422",
    "prefecture": "福島県",
    "prefecture_kana": "フクシマケン",
    "prefecture_code": 7,
    "city": "伊達郡川俣町",
    "city_kana": "ダテグンカワマタマチ",
    "town": "新中町",
    "town_kana": "シンナカマチ",
    "street": null,
    "office_name": null,
    "office_name_kana": null
  },
  "1423": {
    "postcode": "9601423",
    "prefecture": "福島県",
    "prefecture_kana": "フクシマケン",
    "prefecture_code": 7,
    "city": "伊達郡川俣町",
    "city_kana": "ダテグンカワマタマチ",
    "town": "池ノ入",
    "town_kana": "イケノイリ",
    "street": null,
    "office_name": null,
    "office_name_kana": null
  },
  "1424": {
    "postcode": "9601424",
    "prefecture": "福島県",
    "prefecture_kana": "フクシマケン",
    "prefecture_code": 7,
    "city": "伊達郡川俣町",
    "city_kana": "ダテグンカワマタマチ",
    "town": "寺久保",
    "town_kana": "テラクボ",
    "street": null,
    "office_name": null,
    "office_name_kana": null
  },
  "1425": {
    "postcode": "9601425",
    "prefecture": "福島県",
    "prefecture_kana": "フクシマケン",
    "prefecture_code": 7,
    "city": "伊達郡川俣町",
    "city_kana": "ダテグンカワマタマチ",
    "town": "新宮",
    "town_kana": "シンミヤ",
    "street": null,
    "office_name": null,
    "office_name_kana": null
  },
  "1426": {
    "postcode": "9601426",
    "prefecture": "福島県",
    "prefecture_kana": "フクシマケン",
    "prefecture_code": 7,
    "city": "伊達郡川俣町",
    "city_kana": "ダテグンカワマタマチ",
    "town": "日和田",
    "town_kana": "ヒワダ",
    "street": null,
    "office_name": null,
    "office_name_kana": null
  },
  "1427": {
    "postcode": "9601427",
    "prefecture": "福島県",
    "prefecture_kana": "フクシマケン",
    "prefecture_code": 7,
    "city": "伊達郡川俣町",
    "city_kana": "ダテグンカワマタマチ",
    "town": "段ノ腰",
    "town_kana": "ダンノコシ",
    "street": null,
    "office_name": null,
    "office_name_kana": null
  },
  "1428": {
    "postcode": "9601428",
    "prefecture": "福島県",
    "prefecture_kana": "フクシマケン",
    "prefecture_code": 7,
    "city": "伊達郡川俣町",
    "city_kana": "ダテグンカワマタマチ",
    "town": "五百田",
    "town_kana": "ゴヒャクダ",
    "street": null,
    "office_name": null,
    "office_name_kana": null
  },
  "1429": {
    "postcode": "9601429",
    "prefecture": "福島県",
    "prefecture_kana": "フクシマケン",
    "prefecture_code": 7,
    "city": "伊達郡川俣町",
    "city_kana": "ダテグンカワマタマチ",
    "town": "柏崎",
    "town_kana": "カシワザキ",
    "street": null,
    "office_name": null,
    "office_name_kana": null
  },
  "1431": {
    "postcode": "9601431",
    "prefecture": "福島県",
    "prefecture_kana": "フクシマケン",
    "prefecture_code": 7,
    "city": "伊達郡川俣町",
    "city_kana": "ダテグンカワマタマチ",
    "town": "大清水",
    "town_kana": "オオシミズ",
    "street": null,
    "office_name": null,
    "office_name_kana": null
  },
  "1432": {
    "postcode": "9601432",
    "prefecture": "福島県",
    "prefecture_kana": "フクシマケン",
    "prefecture_code": 7,
    "city": "伊達郡川俣町",
    "city_kana": "ダテグンカワマタマチ",
    "town": "東大清水",
    "town_kana": "ヒガシオオシミズ",
    "street": null,
    "office_name": null,
    "office_name_kana": null
  },
  "1433": {
    "postcode": "9601433",
    "prefecture": "福島県",
    "prefecture_kana": "フクシマケン",
    "prefecture_code": 7,
    "city": "伊達郡川俣町",
    "city_kana": "ダテグンカワマタマチ",
    "town": "賤ノ田",
    "town_kana": "シツノタ",
    "street": null,
    "office_name": null,
    "office_name_kana": null
  },
  "1434": {
    "postcode": "9601434",
    "prefecture": "福島県",
    "prefecture_kana": "フクシマケン",
    "prefecture_code": 7,
    "city": "伊達郡川俣町",
    "city_kana": "ダテグンカワマタマチ",
    "town": "小作",
    "town_kana": "コサク",
    "street": null,
    "office_name": null,
    "office_name_kana": null
  },
  "1435": {
    "postcode": "9601435",
    "prefecture": "福島県",
    "prefecture_kana": "フクシマケン",
    "prefecture_code": 7,
    "city": "伊達郡川俣町",
    "city_kana": "ダテグンカワマタマチ",
    "town": "大作",
    "town_kana": "オオサク",
    "street": null,
    "office_name": null,
    "office_name_kana": null
  },
  "1436": {
    "postcode": "9601436",
    "prefecture": "福島県",
    "prefecture_kana": "フクシマケン",
    "prefecture_code": 7,
    "city": "伊達郡川俣町",
    "city_kana": "ダテグンカワマタマチ",
    "town": "川原田",
    "town_kana": "カワハラダ",
    "street": null,
    "office_name": null,
    "office_name_kana": null
  },
  "1441": {
    "postcode": "9601441",
    "prefecture": "福島県",
    "prefecture_kana": "フクシマケン",
    "prefecture_code": 7,
    "city": "伊達郡川俣町",
    "city_kana": "ダテグンカワマタマチ",
    "town": "道内",
    "town_kana": "ミチウチ",
    "street": null,
    "office_name": null,
    "office_name_kana": null
  },
  "1442": {
    "postcode": "9601442",
    "prefecture": "福島県",
    "prefecture_kana": "フクシマケン",
    "prefecture_code": 7,
    "city": "伊達郡川俣町",
    "city_kana": "ダテグンカワマタマチ",
    "town": "後庵",
    "town_kana": "ゴアン",
    "street": null,
    "office_name": null,
    "office_name_kana": null
  },
  "1443": {
    "postcode": "9601443",
    "prefecture": "福島県",
    "prefecture_kana": "フクシマケン",
    "prefecture_code": 7,
    "city": "伊達郡川俣町",
    "city_kana": "ダテグンカワマタマチ",
    "town": "大内",
    "town_kana": "オオウチ",
    "street": null,
    "office_name": null,
    "office_name_kana": null
  },
  "1444": {
    "postcode": "9601444",
    "prefecture": "福島県",
    "prefecture_kana": "フクシマケン",
    "prefecture_code": 7,
    "city": "伊達郡川俣町",
    "city_kana": "ダテグンカワマタマチ",
    "town": "根本",
    "town_kana": "ネモト",
    "street": null,
    "office_name": null,
    "office_name_kana": null
  },
  "1445": {
    "postcode": "9601445",
    "prefecture": "福島県",
    "prefecture_kana": "フクシマケン",
    "prefecture_code": 7,
    "city": "伊達郡川俣町",
    "city_kana": "ダテグンカワマタマチ",
    "town": "中島",
    "town_kana": "ナカジマ",
    "street": null,
    "office_name": null,
    "office_name_kana": null
  },
  "1446": {
    "postcode": "9601446",
    "prefecture": "福島県",
    "prefecture_kana": "フクシマケン",
    "prefecture_code": 7,
    "city": "伊達郡川俣町",
    "city_kana": "ダテグンカワマタマチ",
    "town": "舘",
    "town_kana": "タテ",
    "street": null,
    "office_name": null,
    "office_name_kana": null
  },
  "1451": {
    "postcode": "9601451",
    "prefecture": "福島県",
    "prefecture_kana": "フクシマケン",
    "prefecture_code": 7,
    "city": "伊達郡川俣町",
    "city_kana": "ダテグンカワマタマチ",
    "town": "本町",
    "town_kana": "モトマチ",
    "street": null,
    "office_name": null,
    "office_name_kana": null
  },
  "1452": {
    "postcode": "9601452",
    "prefecture": "福島県",
    "prefecture_kana": "フクシマケン",
    "prefecture_code": 7,
    "city": "伊達郡川俣町",
    "city_kana": "ダテグンカワマタマチ",
    "town": "後田",
    "town_kana": "ウシロダ",
    "street": null,
    "office_name": null,
    "office_name_kana": null
  },
  "1453": {
    "postcode": "9601453",
    "prefecture": "福島県",
    "prefecture_kana": "フクシマケン",
    "prefecture_code": 7,
    "city": "伊達郡川俣町",
    "city_kana": "ダテグンカワマタマチ",
    "town": "瓦町",
    "town_kana": "カワラマチ",
    "street": null,
    "office_name": null,
    "office_name_kana": null
  },
  "1454": {
    "postcode": "9601454",
    "prefecture": "福島県",
    "prefecture_kana": "フクシマケン",
    "prefecture_code": 7,
    "city": "伊達郡川俣町",
    "city_kana": "ダテグンカワマタマチ",
    "town": "八反田",
    "town_kana": "ハッタンダ",
    "street": null,
    "office_name": null,
    "office_name_kana": null
  },
  "1455": {
    "postcode": "9601455",
    "prefecture": "福島県",
    "prefecture_kana": "フクシマケン",
    "prefecture_code": 7,
    "city": "伊達郡川俣町",
    "city_kana": "ダテグンカワマタマチ",
    "town": "竹ノ内",
    "town_kana": "タケノウチ",
    "street": null,
    "office_name": null,
    "office_name_kana": null
  },
  "1456": {
    "postcode": "9601456",
    "prefecture": "福島県",
    "prefecture_kana": "フクシマケン",
    "prefecture_code": 7,
    "city": "伊達郡川俣町",
    "city_kana": "ダテグンカワマタマチ",
    "town": "中丁",
    "town_kana": "ナカチョウ",
    "street": null,
    "office_name": null,
    "office_name_kana": null
  },
  "1461": {
    "postcode": "9601461",
    "prefecture": "福島県",
    "prefecture_kana": "フクシマケン",
    "prefecture_code": 7,
    "city": "伊達郡川俣町",
    "city_kana": "ダテグンカワマタマチ",
    "town": "宮町",
    "town_kana": "ミヤマチ",
    "street": null,
    "office_name": null,
    "office_name_kana": null
  },
  "1462": {
    "postcode": "9601462",
    "prefecture": "福島県",
    "prefecture_kana": "フクシマケン",
    "prefecture_code": 7,
    "city": "伊達郡川俣町",
    "city_kana": "ダテグンカワマタマチ",
    "town": "寺前",
    "town_kana": "テラマエ",
    "street": null,
    "office_name": null,
    "office_name_kana": null
  },
  "1463": {
    "postcode": "9601463",
    "prefecture": "福島県",
    "prefecture_kana": "フクシマケン",
    "prefecture_code": 7,
    "city": "伊達郡川俣町",
    "city_kana": "ダテグンカワマタマチ",
    "town": "樋ノ口",
    "town_kana": "トイノクチ",
    "street": null,
    "office_name": null,
    "office_name_kana": null
  },
  "1464": {
    "postcode": "9601464",
    "prefecture": "福島県",
    "prefecture_kana": "フクシマケン",
    "prefecture_code": 7,
    "city": "伊達郡川俣町",
    "city_kana": "ダテグンカワマタマチ",
    "town": "宮ノ脇",
    "town_kana": "ミヤノワキ",
    "street": null,
    "office_name": null,
    "office_name_kana": null
  },
  "1465": {
    "postcode": "9601465",
    "prefecture": "福島県",
    "prefecture_kana": "フクシマケン",
    "prefecture_code": 7,
    "city": "伊達郡川俣町",
    "city_kana": "ダテグンカワマタマチ",
    "town": "赤坂",
    "town_kana": "アカサカ",
    "street": null,
    "office_name": null,
    "office_name_kana": null
  },
  "1466": {
    "postcode": "9601466",
    "prefecture": "福島県",
    "prefecture_kana": "フクシマケン",
    "prefecture_code": 7,
    "city": "伊達郡川俣町",
    "city_kana": "ダテグンカワマタマチ",
    "town": "宮前",
    "town_kana": "ミヤマエ",
    "street": null,
    "office_name": null,
    "office_name_kana": null
  },
  "1467": {
    "postcode": "9601467",
    "prefecture": "福島県",
    "prefecture_kana": "フクシマケン",
    "prefecture_code": 7,
    "city": "伊達郡川俣町",
    "city_kana": "ダテグンカワマタマチ",
    "town": "宮ノ入",
    "town_kana": "ミヤノイリ",
    "street": null,
    "office_name": null,
    "office_name_kana": null
  },
  "1468": {
    "postcode": "9601468",
    "prefecture": "福島県",
    "prefecture_kana": "フクシマケン",
    "prefecture_code": 7,
    "city": "伊達郡川俣町",
    "city_kana": "ダテグンカワマタマチ",
    "town": "天神入",
    "town_kana": "テンジンイリ",
    "street": null,
    "office_name": null,
    "office_name_kana": null
  },
  "1469": {
    "postcode": "9601469",
    "prefecture": "福島県",
    "prefecture_kana": "フクシマケン",
    "prefecture_code": 7,
    "city": "伊達郡川俣町",
    "city_kana": "ダテグンカワマタマチ",
    "town": "道場",
    "town_kana": "ドウジョウ",
    "street": null,
    "office_name": null,
    "office_name_kana": null
  },
  "1471": {
    "postcode": "9601471",
    "prefecture": "福島県",
    "prefecture_kana": "フクシマケン",
    "prefecture_code": 7,
    "city": "伊達郡川俣町",
    "city_kana": "ダテグンカワマタマチ",
    "town": "西戸ノ内",
    "town_kana": "ニシトノウチ",
    "street": null,
    "office_name": null,
    "office_name_kana": null
  },
  "1472": {
    "postcode": "9601472",
    "prefecture": "福島県",
    "prefecture_kana": "フクシマケン",
    "prefecture_code": 7,
    "city": "伊達郡川俣町",
    "city_kana": "ダテグンカワマタマチ",
    "town": "草ケ入",
    "town_kana": "クサガイリ",
    "street": null,
    "office_name": null,
    "office_name_kana": null
  },
  "1473": {
    "postcode": "9601473",
    "prefecture": "福島県",
    "prefecture_kana": "フクシマケン",
    "prefecture_code": 7,
    "city": "伊達郡川俣町",
    "city_kana": "ダテグンカワマタマチ",
    "town": "桜ケ作",
    "town_kana": "サクラガサク",
    "street": null,
    "office_name": null,
    "office_name_kana": null
  },
  "1474": {
    "postcode": "9601474",
    "prefecture": "福島県",
    "prefecture_kana": "フクシマケン",
    "prefecture_code": 7,
    "city": "伊達郡川俣町",
    "city_kana": "ダテグンカワマタマチ",
    "town": "七曲",
    "town_kana": "ナナマガリ",
    "street": null,
    "office_name": null,
    "office_name_kana": null
  },
  "1475": {
    "postcode": "9601475",
    "prefecture": "福島県",
    "prefecture_kana": "フクシマケン",
    "prefecture_code": 7,
    "city": "伊達郡川俣町",
    "city_kana": "ダテグンカワマタマチ",
    "town": "早坂",
    "town_kana": "ハヤサカ",
    "street": null,
    "office_name": null,
    "office_name_kana": null
  },
  "1476": {
    "postcode": "9601476",
    "prefecture": "福島県",
    "prefecture_kana": "フクシマケン",
    "prefecture_code": 7,
    "city": "伊達郡川俣町",
    "city_kana": "ダテグンカワマタマチ",
    "town": "石川",
    "town_kana": "イシカワ",
    "street": null,
    "office_name": null,
    "office_name_kana": null
  },
  "1477": {
    "postcode": "9601477",
    "prefecture": "福島県",
    "prefecture_kana": "フクシマケン",
    "prefecture_code": 7,
    "city": "伊達郡川俣町",
    "city_kana": "ダテグンカワマタマチ",
    "town": "倉ケ作",
    "town_kana": "クラガサク",
    "street": null,
    "office_name": null,
    "office_name_kana": null
  },
  "1478": {
    "postcode": "9601478",
    "prefecture": "福島県",
    "prefecture_kana": "フクシマケン",
    "prefecture_code": 7,
    "city": "伊達郡川俣町",
    "city_kana": "ダテグンカワマタマチ",
    "town": "壁沢",
    "town_kana": "カベサワ",
    "street": null,
    "office_name": null,
    "office_name_kana": null
  },
  "1481": {
    "postcode": "9601481",
    "prefecture": "福島県",
    "prefecture_kana": "フクシマケン",
    "prefecture_code": 7,
    "city": "伊達郡川俣町",
    "city_kana": "ダテグンカワマタマチ",
    "town": "七窪",
    "town_kana": "ナナクボ",
    "street": null,
    "office_name": null,
    "office_name_kana": null
  },
  "1482": {
    "postcode": "9601482",
    "prefecture": "福島県",
    "prefecture_kana": "フクシマケン",
    "prefecture_code": 7,
    "city": "伊達郡川俣町",
    "city_kana": "ダテグンカワマタマチ",
    "town": "元屋敷",
    "town_kana": "モトヤシキ",
    "street": null,
    "office_name": null,
    "office_name_kana": null
  },
  "1483": {
    "postcode": "9601483",
    "prefecture": "福島県",
    "prefecture_kana": "フクシマケン",
    "prefecture_code": 7,
    "city": "伊達郡川俣町",
    "city_kana": "ダテグンカワマタマチ",
    "town": "壺ケ作",
    "town_kana": "ツボガサク",
    "street": null,
    "office_name": null,
    "office_name_kana": null
  },
  "1484": {
    "postcode": "9601484",
    "prefecture": "福島県",
    "prefecture_kana": "フクシマケン",
    "prefecture_code": 7,
    "city": "伊達郡川俣町",
    "city_kana": "ダテグンカワマタマチ",
    "town": "延命神",
    "town_kana": "エンメイジン",
    "street": null,
    "office_name": null,
    "office_name_kana": null
  },
  "1485": {
    "postcode": "9601485",
    "prefecture": "福島県",
    "prefecture_kana": "フクシマケン",
    "prefecture_code": 7,
    "city": "伊達郡川俣町",
    "city_kana": "ダテグンカワマタマチ",
    "town": "海老ケ作",
    "town_kana": "エビガサク",
    "street": null,
    "office_name": null,
    "office_name_kana": null
  },
  "1486": {
    "postcode": "9601486",
    "prefecture": "福島県",
    "prefecture_kana": "フクシマケン",
    "prefecture_code": 7,
    "city": "伊達郡川俣町",
    "city_kana": "ダテグンカワマタマチ",
    "town": "下拍子",
    "town_kana": "シタビョウシ",
    "street": null,
    "office_name": null,
    "office_name_kana": null
  },
  "1487": {
    "postcode": "9601487",
    "prefecture": "福島県",
    "prefecture_kana": "フクシマケン",
    "prefecture_code": 7,
    "city": "伊達郡川俣町",
    "city_kana": "ダテグンカワマタマチ",
    "town": "三百田",
    "town_kana": "サンビャクダ",
    "street": null,
    "office_name": null,
    "office_name_kana": null
  },
  "1488": {
    "postcode": "9601488",
    "prefecture": "福島県",
    "prefecture_kana": "フクシマケン",
    "prefecture_code": 7,
    "city": "伊達郡川俣町",
    "city_kana": "ダテグンカワマタマチ",
    "town": "新田",
    "town_kana": "シンデン",
    "street": null,
    "office_name": null,
    "office_name_kana": null
  },
  "1489": {
    "postcode": "9601489",
    "prefecture": "福島県",
    "prefecture_kana": "フクシマケン",
    "prefecture_code": 7,
    "city": "伊達郡川俣町",
    "city_kana": "ダテグンカワマタマチ",
    "town": "小島",
    "town_kana": "オジマ",
    "street": null,
    "office_name": null,
    "office_name_kana": null
  },
  "1492": {
    "postcode": "9601492",
    "prefecture": "福島県",
    "prefecture_kana": "フクシマケン",
    "prefecture_code": 7,
    "city": "伊達郡川俣町",
    "city_kana": "ダテグンカワマタマチ",
    "town": "字五百田",
    "town_kana": null,
    "street": "３０",
    "office_name": "川俣町役場",
    "office_name_kana": "カワマタマチヤクバ"
  },
  "1501": {
    "postcode": "9601501",
    "prefecture": "福島県",
    "prefecture_kana": "フクシマケン",
    "prefecture_code": 7,
    "city": "伊達郡川俣町",
    "city_kana": "ダテグンカワマタマチ",
    "town": "山木屋",
    "town_kana": "ヤマキヤ",
    "street": null,
    "office_name": null,
    "office_name_kana": null
  },
  "1600": {
    "postcode": "9601600",
    "prefecture": "福島県",
    "prefecture_kana": "フクシマケン",
    "prefecture_code": 7,
    "city": "相馬郡飯舘村",
    "city_kana": "ソウマグンイイタテムラ",
    "town": "",
    "town_kana": "",
    "street": null,
    "office_name": null,
    "office_name_kana": null
  },
  "1631": {
    "postcode": "9601631",
    "prefecture": "福島県",
    "prefecture_kana": "フクシマケン",
    "prefecture_code": 7,
    "city": "相馬郡飯舘村",
    "city_kana": "ソウマグンイイタテムラ",
    "town": "松塚",
    "town_kana": "マツヅカ",
    "street": null,
    "office_name": null,
    "office_name_kana": null
  },
  "1632": {
    "postcode": "9601632",
    "prefecture": "福島県",
    "prefecture_kana": "フクシマケン",
    "prefecture_code": 7,
    "city": "相馬郡飯舘村",
    "city_kana": "ソウマグンイイタテムラ",
    "town": "関根",
    "town_kana": "セキネ",
    "street": null,
    "office_name": null,
    "office_name_kana": null
  },
  "1633": {
    "postcode": "9601633",
    "prefecture": "福島県",
    "prefecture_kana": "フクシマケン",
    "prefecture_code": 7,
    "city": "相馬郡飯舘村",
    "city_kana": "ソウマグンイイタテムラ",
    "town": "臼石",
    "town_kana": "ウスイシ",
    "street": null,
    "office_name": null,
    "office_name_kana": null
  },
  "1634": {
    "postcode": "9601634",
    "prefecture": "福島県",
    "prefecture_kana": "フクシマケン",
    "prefecture_code": 7,
    "city": "相馬郡飯舘村",
    "city_kana": "ソウマグンイイタテムラ",
    "town": "二枚橋",
    "town_kana": "ニマイバシ",
    "street": null,
    "office_name": null,
    "office_name_kana": null
  },
  "1635": {
    "postcode": "9601635",
    "prefecture": "福島県",
    "prefecture_kana": "フクシマケン",
    "prefecture_code": 7,
    "city": "相馬郡飯舘村",
    "city_kana": "ソウマグンイイタテムラ",
    "town": "須萱",
    "town_kana": "スガヤ",
    "street": null,
    "office_name": null,
    "office_name_kana": null
  },
  "1636": {
    "postcode": "9601636",
    "prefecture": "福島県",
    "prefecture_kana": "フクシマケン",
    "prefecture_code": 7,
    "city": "相馬郡飯舘村",
    "city_kana": "ソウマグンイイタテムラ",
    "town": "前田",
    "town_kana": "マエタ",
    "street": null,
    "office_name": null,
    "office_name_kana": null
  },
  "1721": {
    "postcode": "9601721",
    "prefecture": "福島県",
    "prefecture_kana": "フクシマケン",
    "prefecture_code": 7,
    "city": "相馬郡飯舘村",
    "city_kana": "ソウマグンイイタテムラ",
    "town": "飯樋",
    "town_kana": "イイトイ",
    "street": null,
    "office_name": null,
    "office_name_kana": null
  },
  "1722": {
    "postcode": "9601722",
    "prefecture": "福島県",
    "prefecture_kana": "フクシマケン",
    "prefecture_code": 7,
    "city": "相馬郡飯舘村",
    "city_kana": "ソウマグンイイタテムラ",
    "town": "比曽",
    "town_kana": "ヒソ",
    "street": null,
    "office_name": null,
    "office_name_kana": null
  },
  "1723": {
    "postcode": "9601723",
    "prefecture": "福島県",
    "prefecture_kana": "フクシマケン",
    "prefecture_code": 7,
    "city": "相馬郡飯舘村",
    "city_kana": "ソウマグンイイタテムラ",
    "town": "長泥",
    "town_kana": "ナガドロ",
    "street": null,
    "office_name": null,
    "office_name_kana": null
  },
  "1724": {
    "postcode": "9601724",
    "prefecture": "福島県",
    "prefecture_kana": "フクシマケン",
    "prefecture_code": 7,
    "city": "相馬郡飯舘村",
    "city_kana": "ソウマグンイイタテムラ",
    "town": "蕨平",
    "town_kana": "ワラビダイラ",
    "street": null,
    "office_name": null,
    "office_name_kana": null
  },
  "1801": {
    "postcode": "9601801",
    "prefecture": "福島県",
    "prefecture_kana": "フクシマケン",
    "prefecture_code": 7,
    "city": "相馬郡飯舘村",
    "city_kana": "ソウマグンイイタテムラ",
    "town": "草野",
    "town_kana": "クサノ",
    "street": null,
    "office_name": null,
    "office_name_kana": null
  },
  "1802": {
    "postcode": "9601802",
    "prefecture": "福島県",
    "prefecture_kana": "フクシマケン",
    "prefecture_code": 7,
    "city": "相馬郡飯舘村",
    "city_kana": "ソウマグンイイタテムラ",
    "town": "深谷",
    "town_kana": "フカヤ",
    "street": null,
    "office_name": null,
    "office_name_kana": null
  },
  "1803": {
    "postcode": "9601803",
    "prefecture": "福島県",
    "prefecture_kana": "フクシマケン",
    "prefecture_code": 7,
    "city": "相馬郡飯舘村",
    "city_kana": "ソウマグンイイタテムラ",
    "town": "伊丹沢",
    "town_kana": "イタミザワ",
    "street": null,
    "office_name": null,
    "office_name_kana": null
  },
  "1804": {
    "postcode": "9601804",
    "prefecture": "福島県",
    "prefecture_kana": "フクシマケン",
    "prefecture_code": 7,
    "city": "相馬郡飯舘村",
    "city_kana": "ソウマグンイイタテムラ",
    "town": "関沢",
    "town_kana": "セキサワ",
    "street": null,
    "office_name": null,
    "office_name_kana": null
  },
  "1811": {
    "postcode": "9601811",
    "prefecture": "福島県",
    "prefecture_kana": "フクシマケン",
    "prefecture_code": 7,
    "city": "相馬郡飯舘村",
    "city_kana": "ソウマグンイイタテムラ",
    "town": "小宮",
    "town_kana": "コミヤ",
    "street": null,
    "office_name": null,
    "office_name_kana": null
  },
  "1812": {
    "postcode": "9601812",
    "prefecture": "福島県",
    "prefecture_kana": "フクシマケン",
    "prefecture_code": 7,
    "city": "相馬郡飯舘村",
    "city_kana": "ソウマグンイイタテムラ",
    "town": "芦原",
    "town_kana": "アシハラ",
    "street": null,
    "office_name": null,
    "office_name_kana": null
  },
  "1813": {
    "postcode": "9601813",
    "prefecture": "福島県",
    "prefecture_kana": "フクシマケン",
    "prefecture_code": 7,
    "city": "相馬郡飯舘村",
    "city_kana": "ソウマグンイイタテムラ",
    "town": "八木沢",
    "town_kana": "ヤギサワ",
    "street": null,
    "office_name": null,
    "office_name_kana": null
  },
  "1814": {
    "postcode": "9601814",
    "prefecture": "福島県",
    "prefecture_kana": "フクシマケン",
    "prefecture_code": 7,
    "city": "相馬郡飯舘村",
    "city_kana": "ソウマグンイイタテムラ",
    "town": "大倉",
    "town_kana": "オオクラ",
    "street": null,
    "office_name": null,
    "office_name_kana": null
  },
  "1815": {
    "postcode": "9601815",
    "prefecture": "福島県",
    "prefecture_kana": "フクシマケン",
    "prefecture_code": 7,
    "city": "相馬郡飯舘村",
    "city_kana": "ソウマグンイイタテムラ",
    "town": "佐須",
    "town_kana": "サス",
    "street": null,
    "office_name": null,
    "office_name_kana": null
  },
  "1892": {
    "postcode": "9601892",
    "prefecture": "福島県",
    "prefecture_kana": "フクシマケン",
    "prefecture_code": 7,
    "city": "相馬郡飯舘村",
    "city_kana": "ソウマグンイイタテムラ",
    "town": "伊丹沢",
    "town_kana": "イタミザワ",
    "street": "字伊丹沢５８０−１",
    "office_name": "飯舘村役場",
    "office_name_kana": "イイタテムラヤクバ"
  },
  "2101": {
    "postcode": "9602101",
    "prefecture": "福島県",
    "prefecture_kana": "フクシマケン",
    "prefecture_code": 7,
    "city": "福島市",
    "city_kana": "フクシマシ",
    "town": "さくら",
    "town_kana": "サクラ",
    "street": null,
    "office_name": null,
    "office_name_kana": null
  },
  "2102": {
    "postcode": "9602102",
    "prefecture": "福島県",
    "prefecture_kana": "フクシマケン",
    "prefecture_code": 7,
    "city": "福島市",
    "city_kana": "フクシマシ",
    "town": "荒井北",
    "town_kana": "アライキタ",
    "street": null,
    "office_name": null,
    "office_name_kana": null
  },
  "2151": {
    "postcode": "9602151",
    "prefecture": "福島県",
    "prefecture_kana": "フクシマケン",
    "prefecture_code": 7,
    "city": "福島市",
    "city_kana": "フクシマシ",
    "town": "桜本",
    "town_kana": "サクラモト",
    "street": null,
    "office_name": null,
    "office_name_kana": null
  },
  "2152": {
    "postcode": "9602152",
    "prefecture": "福島県",
    "prefecture_kana": "フクシマケン",
    "prefecture_code": 7,
    "city": "福島市",
    "city_kana": "フクシマシ",
    "town": "土船",
    "town_kana": "ツチフネ",
    "street": null,
    "office_name": null,
    "office_name_kana": null
  },
  "2153": {
    "postcode": "9602153",
    "prefecture": "福島県",
    "prefecture_kana": "フクシマケン",
    "prefecture_code": 7,
    "city": "福島市",
    "city_kana": "フクシマシ",
    "town": "庄野",
    "town_kana": "ショウノ",
    "street": null,
    "office_name": null,
    "office_name_kana": null
  },
  "2154": {
    "postcode": "9602154",
    "prefecture": "福島県",
    "prefecture_kana": "フクシマケン",
    "prefecture_code": 7,
    "city": "福島市",
    "city_kana": "フクシマシ",
    "town": "佐倉下",
    "town_kana": "サクラシモ",
    "street": null,
    "office_name": null,
    "office_name_kana": null
  },
  "2155": {
    "postcode": "9602155",
    "prefecture": "福島県",
    "prefecture_kana": "フクシマケン",
    "prefecture_code": 7,
    "city": "福島市",
    "city_kana": "フクシマシ",
    "town": "上名倉",
    "town_kana": "カミナグラ",
    "street": null,
    "office_name": null,
    "office_name_kana": null
  },
  "2156": {
    "postcode": "9602156",
    "prefecture": "福島県",
    "prefecture_kana": "フクシマケン",
    "prefecture_code": 7,
    "city": "福島市",
    "city_kana": "フクシマシ",
    "town": "荒井",
    "town_kana": "アライ",
    "street": null,
    "office_name": null,
    "office_name_kana": null
  },
  "2157": {
    "postcode": "9602157",
    "prefecture": "福島県",
    "prefecture_kana": "フクシマケン",
    "prefecture_code": 7,
    "city": "福島市",
    "city_kana": "フクシマシ",
    "town": "土湯温泉町",
    "town_kana": "ツチユオンセンマチ",
    "street": null,
    "office_name": null,
    "office_name_kana": null
  },
  "2158": {
    "postcode": "9602158",
    "prefecture": "福島県",
    "prefecture_kana": "フクシマケン",
    "prefecture_code": 7,
    "city": "福島市",
    "city_kana": "フクシマシ",
    "town": "佐原",
    "town_kana": "サバラ",
    "street": null,
    "office_name": null,
    "office_name_kana": null
  },
  "2193": {
    "postcode": "9602193",
    "prefecture": "福島県",
    "prefecture_kana": "フクシマケン",
    "prefecture_code": 7,
    "city": "福島市",
    "city_kana": "フクシマシ",
    "town": "佐倉下",
    "town_kana": "サクラシモ",
    "street": "字二本榎２",
    "office_name": "キヤノン　株式会社　福島工場",
    "office_name_kana": "キヤノン カブシキガイシヤ フクシマコウジヨウ"
  },
  "2194": {
    "postcode": "9602194",
    "prefecture": "福島県",
    "prefecture_kana": "フクシマケン",
    "prefecture_code": 7,
    "city": "福島市",
    "city_kana": "フクシマシ",
    "town": "庄野",
    "town_kana": "ショウノ",
    "street": "字柿場１−１",
    "office_name": "日進堂印刷所",
    "office_name_kana": "ニツシンドウインサツジヨ"
  },
  "2195": {
    "postcode": "9602195",
    "prefecture": "福島県",
    "prefecture_kana": "フクシマケン",
    "prefecture_code": 7,
    "city": "福島市",
    "city_kana": "フクシマシ",
    "town": "庄野",
    "town_kana": "ショウノ",
    "street": "字柿場１−１１",
    "office_name": "阿部紙工",
    "office_name_kana": "アベシコウ"
  },
  "2196": {
    "postcode": "9602196",
    "prefecture": "福島県",
    "prefecture_kana": "フクシマケン",
    "prefecture_code": 7,
    "city": "福島市",
    "city_kana": "フクシマシ",
    "town": "庄野",
    "town_kana": "ショウノ",
    "street": "字立田１−１",
    "office_name": "株式会社　ＯＫＩデータＭＥＳ",
    "office_name_kana": "カブシキガイシヤ オキデ-タエムイ-エス"
  },
  "2251": [
    {
      "postcode": "9602251",
      "prefecture": "福島県",
      "prefecture_kana": "フクシマケン",
      "prefecture_code": 7,
      "city": "福島市",
      "city_kana": "フクシマシ",
      "town": "桜本",
      "town_kana": "サクラモト",
      "street": null,
      "office_name": null,
      "office_name_kana": null
    },
    {
      "postcode": "9602251",
      "prefecture": "福島県",
      "prefecture_kana": "フクシマケン",
      "prefecture_code": 7,
      "city": "福島市",
      "city_kana": "フクシマシ",
      "town": "桜本木通沢",
      "town_kana": "サクラモトアケビザワ",
      "street": null,
      "office_name": null,
      "office_name_kana": null
    }
  ],
  "2261": {
    "postcode": "9602261",
    "prefecture": "福島県",
    "prefecture_kana": "フクシマケン",
    "prefecture_code": 7,
    "city": "福島市",
    "city_kana": "フクシマシ",
    "town": "町庭坂",
    "town_kana": "マチニワサカ",
    "street": null,
    "office_name": null,
    "office_name_kana": null
  },
  "2262": {
    "postcode": "9602262",
    "prefecture": "福島県",
    "prefecture_kana": "フクシマケン",
    "prefecture_code": 7,
    "city": "福島市",
    "city_kana": "フクシマシ",
    "town": "在庭坂",
    "town_kana": "ザイニワサカ",
    "street": null,
    "office_name": null,
    "office_name_kana": null
  },
  "2263": {
    "postcode": "9602263",
    "prefecture": "福島県",
    "prefecture_kana": "フクシマケン",
    "prefecture_code": 7,
    "city": "福島市",
    "city_kana": "フクシマシ",
    "town": "二子塚",
    "town_kana": "フタゴヅカ",
    "street": null,
    "office_name": null,
    "office_name_kana": null
  },
  "2292": {
    "postcode": "9602292",
    "prefecture": "福島県",
    "prefecture_kana": "フクシマケン",
    "prefecture_code": 7,
    "city": "福島市",
    "city_kana": "フクシマシ",
    "town": "町庭坂",
    "town_kana": "マチニワサカ",
    "street": "字大原１−１",
    "office_name": "福島県警察　福島運転免許センター",
    "office_name_kana": "フクシマケンケイサツ フクシマウンテンメンキヨセンタ-"
  },
  "8001": {
    "postcode": "9608001",
    "prefecture": "福島県",
    "prefecture_kana": "フクシマケン",
    "prefecture_code": 7,
    "city": "福島市",
    "city_kana": "フクシマシ",
    "town": "天神町",
    "town_kana": "テンジンチョウ",
    "street": null,
    "office_name": null,
    "office_name_kana": null
  },
  "8002": {
    "postcode": "9608002",
    "prefecture": "福島県",
    "prefecture_kana": "フクシマケン",
    "prefecture_code": 7,
    "city": "福島市",
    "city_kana": "フクシマシ",
    "town": "森合町",
    "town_kana": "モリアイチョウ",
    "street": null,
    "office_name": null,
    "office_name_kana": null
  },
  "8003": {
    "postcode": "9608003",
    "prefecture": "福島県",
    "prefecture_kana": "フクシマケン",
    "prefecture_code": 7,
    "city": "福島市",
    "city_kana": "フクシマシ",
    "town": "森合",
    "town_kana": "モリアイ",
    "street": null,
    "office_name": null,
    "office_name_kana": null
  },
  "8011": {
    "postcode": "9608011",
    "prefecture": "福島県",
    "prefecture_kana": "フクシマケン",
    "prefecture_code": 7,
    "city": "福島市",
    "city_kana": "フクシマシ",
    "town": "宮下町",
    "town_kana": "ミヤシタチョウ",
    "street": null,
    "office_name": null,
    "office_name_kana": null
  },
  "8012": {
    "postcode": "9608012",
    "prefecture": "福島県",
    "prefecture_kana": "フクシマケン",
    "prefecture_code": 7,
    "city": "福島市",
    "city_kana": "フクシマシ",
    "town": "御山町",
    "town_kana": "オヤマチョウ",
    "street": null,
    "office_name": null,
    "office_name_kana": null
  },
  "8013": {
    "postcode": "9608013",
    "prefecture": "福島県",
    "prefecture_kana": "フクシマケン",
    "prefecture_code": 7,
    "city": "福島市",
    "city_kana": "フクシマシ",
    "town": "南平",
    "town_kana": "ナンペイ",
    "street": null,
    "office_name": null,
    "office_name_kana": null
  },
  "8014": [
    {
      "postcode": "9608014",
      "prefecture": "福島県",
      "prefecture_kana": "フクシマケン",
      "prefecture_code": 7,
      "city": "福島市",
      "city_kana": "フクシマシ",
      "town": "大平山",
      "town_kana": "オオヒラヤマ",
      "street": null,
      "office_name": null,
      "office_name_kana": null
    },
    {
      "postcode": "9608014",
      "prefecture": "福島県",
      "prefecture_kana": "フクシマケン",
      "prefecture_code": 7,
      "city": "福島市",
      "city_kana": "フクシマシ",
      "town": "児石",
      "town_kana": "コイシ",
      "street": null,
      "office_name": null,
      "office_name_kana": null
    }
  ],
  "8015": {
    "postcode": "9608015",
    "prefecture": "福島県",
    "prefecture_kana": "フクシマケン",
    "prefecture_code": 7,
    "city": "福島市",
    "city_kana": "フクシマシ",
    "town": "狐山",
    "town_kana": "キツネヤマ",
    "street": null,
    "office_name": null,
    "office_name_kana": null
  },
  "8016": {
    "postcode": "9608016",
    "prefecture": "福島県",
    "prefecture_kana": "フクシマケン",
    "prefecture_code": 7,
    "city": "福島市",
    "city_kana": "フクシマシ",
    "town": "狐塚畑",
    "town_kana": "キツネヅカハタ",
    "street": null,
    "office_name": null,
    "office_name_kana": null
  },
  "8017": {
    "postcode": "9608017",
    "prefecture": "福島県",
    "prefecture_kana": "フクシマケン",
    "prefecture_code": 7,
    "city": "福島市",
    "city_kana": "フクシマシ",
    "town": "狐塚",
    "town_kana": "キツネヅカ",
    "street": null,
    "office_name": null,
    "office_name_kana": null
  },
  "8018": {
    "postcode": "9608018",
    "prefecture": "福島県",
    "prefecture_kana": "フクシマケン",
    "prefecture_code": 7,
    "city": "福島市",
    "city_kana": "フクシマシ",
    "town": "松木町",
    "town_kana": "マツキチョウ",
    "street": null,
    "office_name": null,
    "office_name_kana": null
  },
  "8021": {
    "postcode": "9608021",
    "prefecture": "福島県",
    "prefecture_kana": "フクシマケン",
    "prefecture_code": 7,
    "city": "福島市",
    "city_kana": "フクシマシ",
    "town": "霞町",
    "town_kana": "カスミチョウ",
    "street": null,
    "office_name": null,
    "office_name_kana": null
  },
  "8022": {
    "postcode": "9608022",
    "prefecture": "福島県",
    "prefecture_kana": "フクシマケン",
    "prefecture_code": 7,
    "city": "福島市",
    "city_kana": "フクシマシ",
    "town": "新浜町",
    "town_kana": "シンハマチョウ",
    "street": null,
    "office_name": null,
    "office_name_kana": null
  },
  "8023": {
    "postcode": "9608023",
    "prefecture": "福島県",
    "prefecture_kana": "フクシマケン",
    "prefecture_code": 7,
    "city": "福島市",
    "city_kana": "フクシマシ",
    "town": "大明神",
    "town_kana": "ダイミョウジン",
    "street": null,
    "office_name": null,
    "office_name_kana": null
  },
  "8024": {
    "postcode": "9608024",
    "prefecture": "福島県",
    "prefecture_kana": "フクシマケン",
    "prefecture_code": 7,
    "city": "福島市",
    "city_kana": "フクシマシ",
    "town": "堂殿",
    "town_kana": "ドウデン",
    "street": null,
    "office_name": null,
    "office_name_kana": null
  },
  "8025": {
    "postcode": "9608025",
    "prefecture": "福島県",
    "prefecture_kana": "フクシマケン",
    "prefecture_code": 7,
    "city": "福島市",
    "city_kana": "フクシマシ",
    "town": "駒山",
    "town_kana": "コマヤマ",
    "street": null,
    "office_name": null,
    "office_name_kana": null
  },
  "8026": {
    "postcode": "9608026",
    "prefecture": "福島県",
    "prefecture_kana": "フクシマケン",
    "prefecture_code": 7,
    "city": "福島市",
    "city_kana": "フクシマシ",
    "town": "狩野",
    "town_kana": "カリノ",
    "street": null,
    "office_name": null,
    "office_name_kana": null
  },
  "8031": {
    "postcode": "9608031",
    "prefecture": "福島県",
    "prefecture_kana": "フクシマケン",
    "prefecture_code": 7,
    "city": "福島市",
    "city_kana": "フクシマシ",
    "town": "栄町",
    "town_kana": "サカエマチ",
    "street": null,
    "office_name": null,
    "office_name_kana": null
  },
  "8032": {
    "postcode": "9608032",
    "prefecture": "福島県",
    "prefecture_kana": "フクシマケン",
    "prefecture_code": 7,
    "city": "福島市",
    "city_kana": "フクシマシ",
    "town": "陣場町",
    "town_kana": "ジンバチョウ",
    "street": null,
    "office_name": null,
    "office_name_kana": null
  },
  "8033": {
    "postcode": "9608033",
    "prefecture": "福島県",
    "prefecture_kana": "フクシマケン",
    "prefecture_code": 7,
    "city": "福島市",
    "city_kana": "フクシマシ",
    "town": "万世町",
    "town_kana": "バンセイチョウ",
    "street": null,
    "office_name": null,
    "office_name_kana": null
  },
  "8034": {
    "postcode": "9608034",
    "prefecture": "福島県",
    "prefecture_kana": "フクシマケン",
    "prefecture_code": 7,
    "city": "福島市",
    "city_kana": "フクシマシ",
    "town": "置賜町",
    "town_kana": "オキタマチョウ",
    "street": null,
    "office_name": null,
    "office_name_kana": null
  },
  "8035": {
    "postcode": "9608035",
    "prefecture": "福島県",
    "prefecture_kana": "フクシマケン",
    "prefecture_code": 7,
    "city": "福島市",
    "city_kana": "フクシマシ",
    "town": "本町",
    "town_kana": "モトマチ",
    "street": null,
    "office_name": null,
    "office_name_kana": null
  },
  "8036": {
    "postcode": "9608036",
    "prefecture": "福島県",
    "prefecture_kana": "フクシマケン",
    "prefecture_code": 7,
    "city": "福島市",
    "city_kana": "フクシマシ",
    "town": "新町",
    "town_kana": "シンマチ",
    "street": null,
    "office_name": null,
    "office_name_kana": null
  },
  "8041": {
    "postcode": "9608041",
    "prefecture": "福島県",
    "prefecture_kana": "フクシマケン",
    "prefecture_code": 7,
    "city": "福島市",
    "city_kana": "フクシマシ",
    "town": "大町",
    "town_kana": "オオマチ",
    "street": null,
    "office_name": null,
    "office_name_kana": null
  },
  "8042": {
    "postcode": "9608042",
    "prefecture": "福島県",
    "prefecture_kana": "フクシマケン",
    "prefecture_code": 7,
    "city": "福島市",
    "city_kana": "フクシマシ",
    "town": "荒町",
    "town_kana": "アラマチ",
    "street": null,
    "office_name": null,
    "office_name_kana": null
  },
  "8043": {
    "postcode": "9608043",
    "prefecture": "福島県",
    "prefecture_kana": "フクシマケン",
    "prefecture_code": 7,
    "city": "福島市",
    "city_kana": "フクシマシ",
    "town": "中町",
    "town_kana": "ナカマチ",
    "street": null,
    "office_name": null,
    "office_name_kana": null
  },
  "8044": {
    "postcode": "9608044",
    "prefecture": "福島県",
    "prefecture_kana": "フクシマケン",
    "prefecture_code": 7,
    "city": "福島市",
    "city_kana": "フクシマシ",
    "town": "早稲町",
    "town_kana": "ワセチョウ",
    "street": null,
    "office_name": null,
    "office_name_kana": null
  },
  "8051": {
    "postcode": "9608051",
    "prefecture": "福島県",
    "prefecture_kana": "フクシマケン",
    "prefecture_code": 7,
    "city": "福島市",
    "city_kana": "フクシマシ",
    "town": "曽根田町",
    "town_kana": "ソネダチョウ",
    "street": null,
    "office_name": null,
    "office_name_kana": null
  },
  "8052": {
    "postcode": "9608052",
    "prefecture": "福島県",
    "prefecture_kana": "フクシマケン",
    "prefecture_code": 7,
    "city": "福島市",
    "city_kana": "フクシマシ",
    "town": "公事田",
    "town_kana": "コウジダ",
    "street": null,
    "office_name": null,
    "office_name_kana": null
  },
  "8053": {
    "postcode": "9608053",
    "prefecture": "福島県",
    "prefecture_kana": "フクシマケン",
    "prefecture_code": 7,
    "city": "福島市",
    "city_kana": "フクシマシ",
    "town": "三河南町",
    "town_kana": "ミカワミナミマチ",
    "street": null,
    "office_name": null,
    "office_name_kana": null
  },
  "8054": {
    "postcode": "9608054",
    "prefecture": "福島県",
    "prefecture_kana": "フクシマケン",
    "prefecture_code": 7,
    "city": "福島市",
    "city_kana": "フクシマシ",
    "town": "三河北町",
    "town_kana": "ミカワキタマチ",
    "street": null,
    "office_name": null,
    "office_name_kana": null
  },
  "8055": {
    "postcode": "9608055",
    "prefecture": "福島県",
    "prefecture_kana": "フクシマケン",
    "prefecture_code": 7,
    "city": "福島市",
    "city_kana": "フクシマシ",
    "town": "野田町",
    "town_kana": "ノダマチ",
    "street": null,
    "office_name": null,
    "office_name_kana": null
  },
  "8056": {
    "postcode": "9608056",
    "prefecture": "福島県",
    "prefecture_kana": "フクシマケン",
    "prefecture_code": 7,
    "city": "福島市",
    "city_kana": "フクシマシ",
    "town": "八島田",
    "town_kana": "ヤシマダ",
    "street": null,
    "office_name": null,
    "office_name_kana": null
  },
  "8057": {
    "postcode": "9608057",
    "prefecture": "福島県",
    "prefecture_kana": "フクシマケン",
    "prefecture_code": 7,
    "city": "福島市",
    "city_kana": "フクシマシ",
    "town": "笹木野",
    "town_kana": "ササキノ",
    "street": null,
    "office_name": null,
    "office_name_kana": null
  },
  "8058": {
    "postcode": "9608058",
    "prefecture": "福島県",
    "prefecture_kana": "フクシマケン",
    "prefecture_code": 7,
    "city": "福島市",
    "city_kana": "フクシマシ",
    "town": "下谷地",
    "town_kana": "シモヤジ",
    "street": null,
    "office_name": null,
    "office_name_kana": null
  },
  "8061": {
    "postcode": "9608061",
    "prefecture": "福島県",
    "prefecture_kana": "フクシマケン",
    "prefecture_code": 7,
    "city": "福島市",
    "city_kana": "フクシマシ",
    "town": "五月町",
    "town_kana": "サツキチョウ",
    "street": null,
    "office_name": null,
    "office_name_kana": null
  },
  "8062": {
    "postcode": "9608062",
    "prefecture": "福島県",
    "prefecture_kana": "フクシマケン",
    "prefecture_code": 7,
    "city": "福島市",
    "city_kana": "フクシマシ",
    "town": "清明町",
    "town_kana": "セイメイチョウ",
    "street": null,
    "office_name": null,
    "office_name_kana": null
  },
  "8063": {
    "postcode": "9608063",
    "prefecture": "福島県",
    "prefecture_kana": "フクシマケン",
    "prefecture_code": 7,
    "city": "福島市",
    "city_kana": "フクシマシ",
    "town": "柳町",
    "town_kana": "ヤナギマチ",
    "street": null,
    "office_name": null,
    "office_name_kana": null
  },
  "8064": {
    "postcode": "9608064",
    "prefecture": "福島県",
    "prefecture_kana": "フクシマケン",
    "prefecture_code": 7,
    "city": "福島市",
    "city_kana": "フクシマシ",
    "town": "御倉町",
    "town_kana": "オグラチョウ",
    "street": null,
    "office_name": null,
    "office_name_kana": null
  },
  "8065": {
    "postcode": "9608065",
    "prefecture": "福島県",
    "prefecture_kana": "フクシマケン",
    "prefecture_code": 7,
    "city": "福島市",
    "city_kana": "フクシマシ",
    "town": "杉妻町",
    "town_kana": "スギツマチョウ",
    "street": null,
    "office_name": null,
    "office_name_kana": null
  },
  "8066": {
    "postcode": "9608066",
    "prefecture": "福島県",
    "prefecture_kana": "フクシマケン",
    "prefecture_code": 7,
    "city": "福島市",
    "city_kana": "フクシマシ",
    "town": "矢剣町",
    "town_kana": "ヤツルギチョウ",
    "street": null,
    "office_name": null,
    "office_name_kana": null
  },
  "8067": {
    "postcode": "9608067",
    "prefecture": "福島県",
    "prefecture_kana": "フクシマケン",
    "prefecture_code": 7,
    "city": "福島市",
    "city_kana": "フクシマシ",
    "town": "須川町",
    "town_kana": "スカワチョウ",
    "street": null,
    "office_name": null,
    "office_name_kana": null
  },
  "8068": {
    "postcode": "9608068",
    "prefecture": "福島県",
    "prefecture_kana": "フクシマケン",
    "prefecture_code": 7,
    "city": "福島市",
    "city_kana": "フクシマシ",
    "town": "太田町",
    "town_kana": "オオタマチ",
    "street": null,
    "office_name": null,
    "office_name_kana": null
  },
  "8071": {
    "postcode": "9608071",
    "prefecture": "福島県",
    "prefecture_kana": "フクシマケン",
    "prefecture_code": 7,
    "city": "福島市",
    "city_kana": "フクシマシ",
    "town": "東中央",
    "town_kana": "ヒガシチュウオウ",
    "street": null,
    "office_name": null,
    "office_name_kana": null
  },
  "8072": {
    "postcode": "9608072",
    "prefecture": "福島県",
    "prefecture_kana": "フクシマケン",
    "prefecture_code": 7,
    "city": "福島市",
    "city_kana": "フクシマシ",
    "town": "北中央",
    "town_kana": "キタチュウオウ",
    "street": null,
    "office_name": null,
    "office_name_kana": null
  },
  "8073": {
    "postcode": "9608073",
    "prefecture": "福島県",
    "prefecture_kana": "フクシマケン",
    "prefecture_code": 7,
    "city": "福島市",
    "city_kana": "フクシマシ",
    "town": "南中央",
    "town_kana": "ミナミチュウオウ",
    "street": null,
    "office_name": null,
    "office_name_kana": null
  },
  "8074": {
    "postcode": "9608074",
    "prefecture": "福島県",
    "prefecture_kana": "フクシマケン",
    "prefecture_code": 7,
    "city": "福島市",
    "city_kana": "フクシマシ",
    "town": "西中央",
    "town_kana": "ニシチュウオウ",
    "street": null,
    "office_name": null,
    "office_name_kana": null
  },
  "8075": {
    "postcode": "9608075",
    "prefecture": "福島県",
    "prefecture_kana": "フクシマケン",
    "prefecture_code": 7,
    "city": "福島市",
    "city_kana": "フクシマシ",
    "town": "下野寺",
    "town_kana": "シモノデラ",
    "street": null,
    "office_name": null,
    "office_name_kana": null
  },
  "8076": {
    "postcode": "9608076",
    "prefecture": "福島県",
    "prefecture_kana": "フクシマケン",
    "prefecture_code": 7,
    "city": "福島市",
    "city_kana": "フクシマシ",
    "town": "上野寺",
    "town_kana": "カミノデラ",
    "street": null,
    "office_name": null,
    "office_name_kana": null
  },
  "8101": {
    "postcode": "9608101",
    "prefecture": "福島県",
    "prefecture_kana": "フクシマケン",
    "prefecture_code": 7,
    "city": "福島市",
    "city_kana": "フクシマシ",
    "town": "上町",
    "town_kana": "ウワマチ",
    "street": null,
    "office_name": null,
    "office_name_kana": null
  },
  "8102": {
    "postcode": "9608102",
    "prefecture": "福島県",
    "prefecture_kana": "フクシマケン",
    "prefecture_code": 7,
    "city": "福島市",
    "city_kana": "フクシマシ",
    "town": "北町",
    "town_kana": "キタマチ",
    "street": null,
    "office_name": null,
    "office_name_kana": null
  },
  "8103": {
    "postcode": "9608103",
    "prefecture": "福島県",
    "prefecture_kana": "フクシマケン",
    "prefecture_code": 7,
    "city": "福島市",
    "city_kana": "フクシマシ",
    "town": "舟場町",
    "town_kana": "フナバチョウ",
    "street": null,
    "office_name": null,
    "office_name_kana": null
  },
  "8104": {
    "postcode": "9608104",
    "prefecture": "福島県",
    "prefecture_kana": "フクシマケン",
    "prefecture_code": 7,
    "city": "福島市",
    "city_kana": "フクシマシ",
    "town": "豊田町",
    "town_kana": "トヨダマチ",
    "street": null,
    "office_name": null,
    "office_name_kana": null
  },
  "8105": {
    "postcode": "9608105",
    "prefecture": "福島県",
    "prefecture_kana": "フクシマケン",
    "prefecture_code": 7,
    "city": "福島市",
    "city_kana": "フクシマシ",
    "town": "仲間町",
    "town_kana": "チュウゲンチョウ",
    "street": null,
    "office_name": null,
    "office_name_kana": null
  },
  "8106": {
    "postcode": "9608106",
    "prefecture": "福島県",
    "prefecture_kana": "フクシマケン",
    "prefecture_code": 7,
    "city": "福島市",
    "city_kana": "フクシマシ",
    "town": "宮町",
    "town_kana": "ミヤマチ",
    "street": null,
    "office_name": null,
    "office_name_kana": null
  },
  "8107": {
    "postcode": "9608107",
    "prefecture": "福島県",
    "prefecture_kana": "フクシマケン",
    "prefecture_code": 7,
    "city": "福島市",
    "city_kana": "フクシマシ",
    "town": "浜田町",
    "town_kana": "ハマダチョウ",
    "street": null,
    "office_name": null,
    "office_name_kana": null
  },
  "8111": {
    "postcode": "9608111",
    "prefecture": "福島県",
    "prefecture_kana": "フクシマケン",
    "prefecture_code": 7,
    "city": "福島市",
    "city_kana": "フクシマシ",
    "town": "五老内町",
    "town_kana": "ゴロウウチマチ",
    "street": null,
    "office_name": null,
    "office_name_kana": null
  },
  "8112": {
    "postcode": "9608112",
    "prefecture": "福島県",
    "prefecture_kana": "フクシマケン",
    "prefecture_code": 7,
    "city": "福島市",
    "city_kana": "フクシマシ",
    "town": "花園町",
    "town_kana": "ハナゾノチョウ",
    "street": null,
    "office_name": null,
    "office_name_kana": null
  },
  "8113": {
    "postcode": "9608113",
    "prefecture": "福島県",
    "prefecture_kana": "フクシマケン",
    "prefecture_code": 7,
    "city": "福島市",
    "city_kana": "フクシマシ",
    "town": "旭町",
    "town_kana": "アサヒチョウ",
    "street": null,
    "office_name": null,
    "office_name_kana": null
  },
  "8114": {
    "postcode": "9608114",
    "prefecture": "福島県",
    "prefecture_kana": "フクシマケン",
    "prefecture_code": 7,
    "city": "福島市",
    "city_kana": "フクシマシ",
    "town": "松浪町",
    "town_kana": "マツナミチョウ",
    "street": null,
    "office_name": null,
    "office_name_kana": null
  },
  "8115": {
    "postcode": "9608115",
    "prefecture": "福島県",
    "prefecture_kana": "フクシマケン",
    "prefecture_code": 7,
    "city": "福島市",
    "city_kana": "フクシマシ",
    "town": "山下町",
    "town_kana": "ヤマシタチョウ",
    "street": null,
    "office_name": null,
    "office_name_kana": null
  },
  "8116": {
    "postcode": "9608116",
    "prefecture": "福島県",
    "prefecture_kana": "フクシマケン",
    "prefecture_code": 7,
    "city": "福島市",
    "city_kana": "フクシマシ",
    "town": "春日町",
    "town_kana": "カスガチョウ",
    "street": null,
    "office_name": null,
    "office_name_kana": null
  },
  "8117": {
    "postcode": "9608117",
    "prefecture": "福島県",
    "prefecture_kana": "フクシマケン",
    "prefecture_code": 7,
    "city": "福島市",
    "city_kana": "フクシマシ",
    "town": "入江町",
    "town_kana": "イリエチョウ",
    "street": null,
    "office_name": null,
    "office_name_kana": null
  },
  "8121": {
    "postcode": "9608121",
    "prefecture": "福島県",
    "prefecture_kana": "フクシマケン",
    "prefecture_code": 7,
    "city": "福島市",
    "city_kana": "フクシマシ",
    "town": "小金山",
    "town_kana": "コガネヤマ",
    "street": null,
    "office_name": null,
    "office_name_kana": null
  },
  "8122": {
    "postcode": "9608122",
    "prefecture": "福島県",
    "prefecture_kana": "フクシマケン",
    "prefecture_code": 7,
    "city": "福島市",
    "city_kana": "フクシマシ",
    "town": "清水山",
    "town_kana": "シミズヤマ",
    "street": null,
    "office_name": null,
    "office_name_kana": null
  },
  "8123": {
    "postcode": "9608123",
    "prefecture": "福島県",
    "prefecture_kana": "フクシマケン",
    "prefecture_code": 7,
    "city": "福島市",
    "city_kana": "フクシマシ",
    "town": "所窪",
    "town_kana": "トコロクボ",
    "street": null,
    "office_name": null,
    "office_name_kana": null
  },
  "8124": {
    "postcode": "9608124",
    "prefecture": "福島県",
    "prefecture_kana": "フクシマケン",
    "prefecture_code": 7,
    "city": "福島市",
    "city_kana": "フクシマシ",
    "town": "山居上",
    "town_kana": "サンキョウエ",
    "street": null,
    "office_name": null,
    "office_name_kana": null
  },
  "8125": {
    "postcode": "9608125",
    "prefecture": "福島県",
    "prefecture_kana": "フクシマケン",
    "prefecture_code": 7,
    "city": "福島市",
    "city_kana": "フクシマシ",
    "town": "鴇頭森",
    "town_kana": "トキトウモリ",
    "street": null,
    "office_name": null,
    "office_name_kana": null
  },
  "8131": {
    "postcode": "9608131",
    "prefecture": "福島県",
    "prefecture_kana": "フクシマケン",
    "prefecture_code": 7,
    "city": "福島市",
    "city_kana": "フクシマシ",
    "town": "北五老内町",
    "town_kana": "キタゴロウウチマチ",
    "street": null,
    "office_name": null,
    "office_name_kana": null
  },
  "8132": {
    "postcode": "9608132",
    "prefecture": "福島県",
    "prefecture_kana": "フクシマケン",
    "prefecture_code": 7,
    "city": "福島市",
    "city_kana": "フクシマシ",
    "town": "東浜町",
    "town_kana": "ヒガシハマチョウ",
    "street": null,
    "office_name": null,
    "office_name_kana": null
  },
  "8133": {
    "postcode": "9608133",
    "prefecture": "福島県",
    "prefecture_kana": "フクシマケン",
    "prefecture_code": 7,
    "city": "福島市",
    "city_kana": "フクシマシ",
    "town": "桜木町",
    "town_kana": "サクラギチョウ",
    "street": null,
    "office_name": null,
    "office_name_kana": null
  },
  "8134": {
    "postcode": "9608134",
    "prefecture": "福島県",
    "prefecture_kana": "フクシマケン",
    "prefecture_code": 7,
    "city": "福島市",
    "city_kana": "フクシマシ",
    "town": "上浜町",
    "town_kana": "カミハマチョウ",
    "street": null,
    "office_name": null,
    "office_name_kana": null
  },
  "8135": {
    "postcode": "9608135",
    "prefecture": "福島県",
    "prefecture_kana": "フクシマケン",
    "prefecture_code": 7,
    "city": "福島市",
    "city_kana": "フクシマシ",
    "town": "腰浜町",
    "town_kana": "コシハマチョウ",
    "street": null,
    "office_name": null,
    "office_name_kana": null
  },
  "8136": {
    "postcode": "9608136",
    "prefecture": "福島県",
    "prefecture_kana": "フクシマケン",
    "prefecture_code": 7,
    "city": "福島市",
    "city_kana": "フクシマシ",
    "town": "八島町",
    "town_kana": "ヤシマチョウ",
    "street": null,
    "office_name": null,
    "office_name_kana": null
  },
  "8137": {
    "postcode": "9608137",
    "prefecture": "福島県",
    "prefecture_kana": "フクシマケン",
    "prefecture_code": 7,
    "city": "福島市",
    "city_kana": "フクシマシ",
    "town": "堀河町",
    "town_kana": "ホリカワチョウ",
    "street": null,
    "office_name": null,
    "office_name_kana": null
  },
  "8141": {
    "postcode": "9608141",
    "prefecture": "福島県",
    "prefecture_kana": "フクシマケン",
    "prefecture_code": 7,
    "city": "福島市",
    "city_kana": "フクシマシ",
    "town": "渡利",
    "town_kana": "ワタリ",
    "street": null,
    "office_name": null,
    "office_name_kana": null
  },
  "8142": {
    "postcode": "9608142",
    "prefecture": "福島県",
    "prefecture_kana": "フクシマケン",
    "prefecture_code": 7,
    "city": "福島市",
    "city_kana": "フクシマシ",
    "town": "小倉寺",
    "town_kana": "オグラジ",
    "street": null,
    "office_name": null,
    "office_name_kana": null
  },
  "8143": {
    "postcode": "9608143",
    "prefecture": "福島県",
    "prefecture_kana": "フクシマケン",
    "prefecture_code": 7,
    "city": "福島市",
    "city_kana": "フクシマシ",
    "town": "南向台",
    "town_kana": "ナンコウダイ",
    "street": null,
    "office_name": null,
    "office_name_kana": null
  },
  "8151": {
    "postcode": "9608151",
    "prefecture": "福島県",
    "prefecture_kana": "フクシマケン",
    "prefecture_code": 7,
    "city": "福島市",
    "city_kana": "フクシマシ",
    "town": "太平寺",
    "town_kana": "タイヘイジ",
    "street": null,
    "office_name": null,
    "office_name_kana": null
  },
  "8152": {
    "postcode": "9608152",
    "prefecture": "福島県",
    "prefecture_kana": "フクシマケン",
    "prefecture_code": 7,
    "city": "福島市",
    "city_kana": "フクシマシ",
    "town": "鳥谷野",
    "town_kana": "トヤノ",
    "street": null,
    "office_name": null,
    "office_name_kana": null
  },
  "8153": {
    "postcode": "9608153",
    "prefecture": "福島県",
    "prefecture_kana": "フクシマケン",
    "prefecture_code": 7,
    "city": "福島市",
    "city_kana": "フクシマシ",
    "town": "黒岩",
    "town_kana": "クロイワ",
    "street": null,
    "office_name": null,
    "office_name_kana": null
  },
  "8154": {
    "postcode": "9608154",
    "prefecture": "福島県",
    "prefecture_kana": "フクシマケン",
    "prefecture_code": 7,
    "city": "福島市",
    "city_kana": "フクシマシ",
    "town": "伏拝",
    "town_kana": "フシオガミ",
    "street": null,
    "office_name": null,
    "office_name_kana": null
  },
  "8155": {
    "postcode": "9608155",
    "prefecture": "福島県",
    "prefecture_kana": "フクシマケン",
    "prefecture_code": 7,
    "city": "福島市",
    "city_kana": "フクシマシ",
    "town": "清水町",
    "town_kana": "シミズマチ",
    "street": null,
    "office_name": null,
    "office_name_kana": null
  },
  "8156": {
    "postcode": "9608156",
    "prefecture": "福島県",
    "prefecture_kana": "フクシマケン",
    "prefecture_code": 7,
    "city": "福島市",
    "city_kana": "フクシマシ",
    "town": "田沢",
    "town_kana": "タザワ",
    "street": null,
    "office_name": null,
    "office_name_kana": null
  },
  "8157": {
    "postcode": "9608157",
    "prefecture": "福島県",
    "prefecture_kana": "フクシマケン",
    "prefecture_code": 7,
    "city": "福島市",
    "city_kana": "フクシマシ",
    "town": "蓬莱町",
    "town_kana": "ホウライチョウ",
    "street": null,
    "office_name": null,
    "office_name_kana": null
  },
  "8161": {
    "postcode": "9608161",
    "prefecture": "福島県",
    "prefecture_kana": "フクシマケン",
    "prefecture_code": 7,
    "city": "福島市",
    "city_kana": "フクシマシ",
    "town": "郷野目",
    "town_kana": "ゴウノメ",
    "street": null,
    "office_name": null,
    "office_name_kana": null
  },
  "8162": {
    "postcode": "9608162",
    "prefecture": "福島県",
    "prefecture_kana": "フクシマケン",
    "prefecture_code": 7,
    "city": "福島市",
    "city_kana": "フクシマシ",
    "town": "南町",
    "town_kana": "ミナミマチ",
    "street": null,
    "office_name": null,
    "office_name_kana": null
  },
  "8163": {
    "postcode": "9608163",
    "prefecture": "福島県",
    "prefecture_kana": "フクシマケン",
    "prefecture_code": 7,
    "city": "福島市",
    "city_kana": "フクシマシ",
    "town": "方木田",
    "town_kana": "ホウキダ",
    "street": null,
    "office_name": null,
    "office_name_kana": null
  },
  "8164": {
    "postcode": "9608164",
    "prefecture": "福島県",
    "prefecture_kana": "フクシマケン",
    "prefecture_code": 7,
    "city": "福島市",
    "city_kana": "フクシマシ",
    "town": "八木田",
    "town_kana": "ヤギタ",
    "street": null,
    "office_name": null,
    "office_name_kana": null
  },
  "8165": {
    "postcode": "9608165",
    "prefecture": "福島県",
    "prefecture_kana": "フクシマケン",
    "prefecture_code": 7,
    "city": "福島市",
    "city_kana": "フクシマシ",
    "town": "吉倉",
    "town_kana": "ヨシクラ",
    "street": null,
    "office_name": null,
    "office_name_kana": null
  },
  "8166": {
    "postcode": "9608166",
    "prefecture": "福島県",
    "prefecture_kana": "フクシマケン",
    "prefecture_code": 7,
    "city": "福島市",
    "city_kana": "フクシマシ",
    "town": "仁井田",
    "town_kana": "ニイダ",
    "street": null,
    "office_name": null,
    "office_name_kana": null
  },
  "8201": {
    "postcode": "9608201",
    "prefecture": "福島県",
    "prefecture_kana": "フクシマケン",
    "prefecture_code": 7,
    "city": "福島市",
    "city_kana": "フクシマシ",
    "town": "岡島",
    "town_kana": "オカジマ",
    "street": null,
    "office_name": null,
    "office_name_kana": null
  },
  "8202": {
    "postcode": "9608202",
    "prefecture": "福島県",
    "prefecture_kana": "フクシマケン",
    "prefecture_code": 7,
    "city": "福島市",
    "city_kana": "フクシマシ",
    "town": "山口",
    "town_kana": "ヤマグチ",
    "street": null,
    "office_name": null,
    "office_name_kana": null
  },
  "8203": [
    {
      "postcode": "9608203",
      "prefecture": "福島県",
      "prefecture_kana": "フクシマケン",
      "prefecture_code": 7,
      "city": "福島市",
      "city_kana": "フクシマシ",
      "town": "本内",
      "town_kana": "モトウチ",
      "street": null,
      "office_name": null,
      "office_name_kana": null
    },
    {
      "postcode": "9608203",
      "prefecture": "福島県",
      "prefecture_kana": "フクシマケン",
      "prefecture_code": 7,
      "city": "福島市",
      "city_kana": "フクシマシ",
      "town": "本内南下釜",
      "town_kana": "モトウチミナミシモガマ",
      "street": null,
      "office_name": null,
      "office_name_kana": null
    }
  ],
  "8204": {
    "postcode": "9608204",
    "prefecture": "福島県",
    "prefecture_kana": "フクシマケン",
    "prefecture_code": 7,
    "city": "福島市",
    "city_kana": "フクシマシ",
    "town": "岡部",
    "town_kana": "オカベ",
    "street": null,
    "office_name": null,
    "office_name_kana": null
  },
  "8211": {
    "postcode": "9608211",
    "prefecture": "福島県",
    "prefecture_kana": "フクシマケン",
    "prefecture_code": 7,
    "city": "福島市",
    "city_kana": "フクシマシ",
    "town": "茶屋下",
    "town_kana": "チャヤシタ",
    "street": null,
    "office_name": null,
    "office_name_kana": null
  },
  "8212": {
    "postcode": "9608212",
    "prefecture": "福島県",
    "prefecture_kana": "フクシマケン",
    "prefecture_code": 7,
    "city": "福島市",
    "city_kana": "フクシマシ",
    "town": "道前",
    "town_kana": "ミチマエ",
    "street": null,
    "office_name": null,
    "office_name_kana": null
  },
  "8213": {
    "postcode": "9608213",
    "prefecture": "福島県",
    "prefecture_kana": "フクシマケン",
    "prefecture_code": 7,
    "city": "福島市",
    "city_kana": "フクシマシ",
    "town": "遠瀬戸",
    "town_kana": "トオセト",
    "street": null,
    "office_name": null,
    "office_name_kana": null
  },
  "8214": {
    "postcode": "9608214",
    "prefecture": "福島県",
    "prefecture_kana": "フクシマケン",
    "prefecture_code": 7,
    "city": "福島市",
    "city_kana": "フクシマシ",
    "town": "古川",
    "town_kana": "フルカワ",
    "street": null,
    "office_name": null,
    "office_name_kana": null
  },
  "8215": {
    "postcode": "9608215",
    "prefecture": "福島県",
    "prefecture_kana": "フクシマケン",
    "prefecture_code": 7,
    "city": "福島市",
    "city_kana": "フクシマシ",
    "town": "下荒子",
    "town_kana": "シモアラコ",
    "street": null,
    "office_name": null,
    "office_name_kana": null
  },
  "8216": {
    "postcode": "9608216",
    "prefecture": "福島県",
    "prefecture_kana": "フクシマケン",
    "prefecture_code": 7,
    "city": "福島市",
    "city_kana": "フクシマシ",
    "town": "中荒子",
    "town_kana": "ナカアラコ",
    "street": null,
    "office_name": null,
    "office_name_kana": null
  },
  "8217": {
    "postcode": "9608217",
    "prefecture": "福島県",
    "prefecture_kana": "フクシマケン",
    "prefecture_code": 7,
    "city": "福島市",
    "city_kana": "フクシマシ",
    "town": "上荒子",
    "town_kana": "カミアラコ",
    "street": null,
    "office_name": null,
    "office_name_kana": null
  },
  "8218": {
    "postcode": "9608218",
    "prefecture": "福島県",
    "prefecture_kana": "フクシマケン",
    "prefecture_code": 7,
    "city": "福島市",
    "city_kana": "フクシマシ",
    "town": "高野河原下",
    "town_kana": "コウヤカワハラシタ",
    "street": null,
    "office_name": null,
    "office_name_kana": null
  },
  "8221": {
    "postcode": "9608221",
    "prefecture": "福島県",
    "prefecture_kana": "フクシマケン",
    "prefecture_code": 7,
    "city": "福島市",
    "city_kana": "フクシマシ",
    "town": "北中川原",
    "town_kana": "キタナカカワハラ",
    "street": null,
    "office_name": null,
    "office_name_kana": null
  },
  "8222": {
    "postcode": "9608222",
    "prefecture": "福島県",
    "prefecture_kana": "フクシマケン",
    "prefecture_code": 7,
    "city": "福島市",
    "city_kana": "フクシマシ",
    "town": "蝦貫",
    "town_kana": "エゾヌキ",
    "street": null,
    "office_name": null,
    "office_name_kana": null
  },
  "8223": {
    "postcode": "9608223",
    "prefecture": "福島県",
    "prefecture_kana": "フクシマケン",
    "prefecture_code": 7,
    "city": "福島市",
    "city_kana": "フクシマシ",
    "town": "矢倉下",
    "town_kana": "ヤグラシタ",
    "street": null,
    "office_name": null,
    "office_name_kana": null
  },
  "8224": {
    "postcode": "9608224",
    "prefecture": "福島県",
    "prefecture_kana": "フクシマケン",
    "prefecture_code": 7,
    "city": "福島市",
    "city_kana": "フクシマシ",
    "town": "舘ノ前",
    "town_kana": "タテノマエ",
    "street": null,
    "office_name": null,
    "office_name_kana": null
  },
  "8225": {
    "postcode": "9608225",
    "prefecture": "福島県",
    "prefecture_kana": "フクシマケン",
    "prefecture_code": 7,
    "city": "福島市",
    "city_kana": "フクシマシ",
    "town": "舘ノ内",
    "town_kana": "タテノウチ",
    "street": null,
    "office_name": null,
    "office_name_kana": null
  },
  "8226": {
    "postcode": "9608226",
    "prefecture": "福島県",
    "prefecture_kana": "フクシマケン",
    "prefecture_code": 7,
    "city": "福島市",
    "city_kana": "フクシマシ",
    "town": "北ノ前",
    "town_kana": "キタノマエ",
    "street": null,
    "office_name": null,
    "office_name_kana": null
  },
  "8227": {
    "postcode": "9608227",
    "prefecture": "福島県",
    "prefecture_kana": "フクシマケン",
    "prefecture_code": 7,
    "city": "福島市",
    "city_kana": "フクシマシ",
    "town": "田中島",
    "town_kana": "タナカジマ",
    "street": null,
    "office_name": null,
    "office_name_kana": null
  },
  "8228": {
    "postcode": "9608228",
    "prefecture": "福島県",
    "prefecture_kana": "フクシマケン",
    "prefecture_code": 7,
    "city": "福島市",
    "city_kana": "フクシマシ",
    "town": "松山町",
    "town_kana": "マツヤマチョウ",
    "street": null,
    "office_name": null,
    "office_name_kana": null
  },
  "8231": {
    "postcode": "9608231",
    "prefecture": "福島県",
    "prefecture_kana": "フクシマケン",
    "prefecture_code": 7,
    "city": "福島市",
    "city_kana": "フクシマシ",
    "town": "北原",
    "town_kana": "キタハラ",
    "street": null,
    "office_name": null,
    "office_name_kana": null
  },
  "8232": {
    "postcode": "9608232",
    "prefecture": "福島県",
    "prefecture_kana": "フクシマケン",
    "prefecture_code": 7,
    "city": "福島市",
    "city_kana": "フクシマシ",
    "town": "立石",
    "town_kana": "タテイシ",
    "street": null,
    "office_name": null,
    "office_name_kana": null
  },
  "8233": {
    "postcode": "9608233",
    "prefecture": "福島県",
    "prefecture_kana": "フクシマケン",
    "prefecture_code": 7,
    "city": "福島市",
    "city_kana": "フクシマシ",
    "town": "猫渕",
    "town_kana": "ネコブチ",
    "street": null,
    "office_name": null,
    "office_name_kana": null
  },
  "8234": {
    "postcode": "9608234",
    "prefecture": "福島県",
    "prefecture_kana": "フクシマケン",
    "prefecture_code": 7,
    "city": "福島市",
    "city_kana": "フクシマシ",
    "town": "山居",
    "town_kana": "サンキョ",
    "street": null,
    "office_name": null,
    "office_name_kana": null
  },
  "8235": {
    "postcode": "9608235",
    "prefecture": "福島県",
    "prefecture_kana": "フクシマケン",
    "prefecture_code": 7,
    "city": "福島市",
    "city_kana": "フクシマシ",
    "town": "滝元",
    "town_kana": "タキモト",
    "street": null,
    "office_name": null,
    "office_name_kana": null
  },
  "8236": {
    "postcode": "9608236",
    "prefecture": "福島県",
    "prefecture_kana": "フクシマケン",
    "prefecture_code": 7,
    "city": "福島市",
    "city_kana": "フクシマシ",
    "town": "山際",
    "town_kana": "ヤマギワ",
    "street": null,
    "office_name": null,
    "office_name_kana": null
  },
  "8237": {
    "postcode": "9608237",
    "prefecture": "福島県",
    "prefecture_kana": "フクシマケン",
    "prefecture_code": 7,
    "city": "福島市",
    "city_kana": "フクシマシ",
    "town": "大森",
    "town_kana": "オオモリ",
    "street": null,
    "office_name": null,
    "office_name_kana": null
  },
  "8241": {
    "postcode": "9608241",
    "prefecture": "福島県",
    "prefecture_kana": "フクシマケン",
    "prefecture_code": 7,
    "city": "福島市",
    "city_kana": "フクシマシ",
    "town": "岩ノ前",
    "town_kana": "イワノマエ",
    "street": null,
    "office_name": null,
    "office_name_kana": null
  },
  "8242": {
    "postcode": "9608242",
    "prefecture": "福島県",
    "prefecture_kana": "フクシマケン",
    "prefecture_code": 7,
    "city": "福島市",
    "city_kana": "フクシマシ",
    "town": "坂登",
    "town_kana": "サカノボリ",
    "street": null,
    "office_name": null,
    "office_name_kana": null
  },
  "8243": {
    "postcode": "9608243",
    "prefecture": "福島県",
    "prefecture_kana": "フクシマケン",
    "prefecture_code": 7,
    "city": "福島市",
    "city_kana": "フクシマシ",
    "town": "岩谷",
    "town_kana": "イワヤ",
    "street": null,
    "office_name": null,
    "office_name_kana": null
  },
  "8244": {
    "postcode": "9608244",
    "prefecture": "福島県",
    "prefecture_kana": "フクシマケン",
    "prefecture_code": 7,
    "city": "福島市",
    "city_kana": "フクシマシ",
    "town": "石田",
    "town_kana": "イシダ",
    "street": null,
    "office_name": null,
    "office_name_kana": null
  },
  "8251": {
    "postcode": "9608251",
    "prefecture": "福島県",
    "prefecture_kana": "フクシマケン",
    "prefecture_code": 7,
    "city": "福島市",
    "city_kana": "フクシマシ",
    "town": "北沢又",
    "town_kana": "キタサワマタ",
    "street": null,
    "office_name": null,
    "office_name_kana": null
  },
  "8252": {
    "postcode": "9608252",
    "prefecture": "福島県",
    "prefecture_kana": "フクシマケン",
    "prefecture_code": 7,
    "city": "福島市",
    "city_kana": "フクシマシ",
    "town": "御山",
    "town_kana": "オヤマ",
    "street": null,
    "office_name": null,
    "office_name_kana": null
  },
  "8253": {
    "postcode": "9608253",
    "prefecture": "福島県",
    "prefecture_kana": "フクシマケン",
    "prefecture_code": 7,
    "city": "福島市",
    "city_kana": "フクシマシ",
    "town": "泉",
    "town_kana": "イズミ",
    "street": null,
    "office_name": null,
    "office_name_kana": null
  },
  "8254": {
    "postcode": "9608254",
    "prefecture": "福島県",
    "prefecture_kana": "フクシマケン",
    "prefecture_code": 7,
    "city": "福島市",
    "city_kana": "フクシマシ",
    "town": "南沢又",
    "town_kana": "ミナミサワマタ",
    "street": null,
    "office_name": null,
    "office_name_kana": null
  },
  "8501": {
    "postcode": "9608501",
    "prefecture": "福島県",
    "prefecture_kana": "フクシマケン",
    "prefecture_code": 7,
    "city": "福島市",
    "city_kana": "フクシマシ",
    "town": "栄町",
    "town_kana": "サカエマチ",
    "street": "５−１",
    "office_name": "株式会社　中合",
    "office_name_kana": "カブシキガイシヤ ナカゴウ"
  },
  "8502": {
    "postcode": "9608502",
    "prefecture": "福島県",
    "prefecture_kana": "フクシマケン",
    "prefecture_code": 7,
    "city": "福島市",
    "city_kana": "フクシマシ",
    "town": "南中央",
    "town_kana": "ミナミチュウオウ",
    "street": "３丁目３６",
    "office_name": "福島県　土地改良事業団体連合会",
    "office_name_kana": "フクシマケン トチカイリヨウジギヨウダンタイレンゴウカイ"
  },
  "8503": {
    "postcode": "9608503",
    "prefecture": "福島県",
    "prefecture_kana": "フクシマケン",
    "prefecture_code": 7,
    "city": "福島市",
    "city_kana": "フクシマシ",
    "town": "山下町",
    "town_kana": "ヤマシタチョウ",
    "street": "５−１０",
    "office_name": "東日本電信電話　株式会社　福島支店",
    "office_name_kana": "ヒガシニホンデンシンデンワ カブシキガイシヤ フクシマシテン"
  },
  "8505": {
    "postcode": "9608505",
    "prefecture": "福島県",
    "prefecture_kana": "フクシマケン",
    "prefecture_code": 7,
    "city": "福島市",
    "city_kana": "フクシマシ",
    "town": "本町",
    "town_kana": "モトマチ",
    "street": "２−１０",
    "office_name": "福島学院大学",
    "office_name_kana": "フクシマガクインダイガク"
  },
  "8506": {
    "postcode": "9608506",
    "prefecture": "福島県",
    "prefecture_kana": "フクシマケン",
    "prefecture_code": 7,
    "city": "福島市",
    "city_kana": "フクシマシ",
    "town": "蓬莱町",
    "town_kana": "ホウライチョウ",
    "street": "１丁目１１−１",
    "office_name": "ムネカタ　株式会社",
    "office_name_kana": "ムネカタ カブシキガイシヤ"
  },
  "8507": {
    "postcode": "9608507",
    "prefecture": "福島県",
    "prefecture_kana": "フクシマケン",
    "prefecture_code": 7,
    "city": "福島市",
    "city_kana": "フクシマシ",
    "town": "栄町",
    "town_kana": "サカエマチ",
    "street": "６−６ＮＢＦユニックスビル４Ｆ",
    "office_name": "日本年金機構　福島事務センター",
    "office_name_kana": "ニツポンネンキンキコウ フクシマジムセンタ-"
  },
  "8508": {
    "postcode": "9608508",
    "prefecture": "福島県",
    "prefecture_kana": "フクシマケン",
    "prefecture_code": 7,
    "city": "福島市",
    "city_kana": "フクシマシ",
    "town": "御山町",
    "town_kana": "オヤマチョウ",
    "street": "２−５",
    "office_name": "福島テレビ",
    "office_name_kana": "フクシマテレビ"
  },
  "8509": {
    "postcode": "9608509",
    "prefecture": "福島県",
    "prefecture_kana": "フクシマケン",
    "prefecture_code": 7,
    "city": "福島市",
    "city_kana": "フクシマシ",
    "town": "森合町",
    "town_kana": "モリアイチョウ",
    "street": "１６番６号福島税務署内",
    "office_name": "仙台国税局業務センター福島分室",
    "office_name_kana": "センダイコクゼイキヨクギヨウムセンタ-フクシマブンシツ"
  },
  "8511": {
    "postcode": "9608511",
    "prefecture": "福島県",
    "prefecture_kana": "フクシマケン",
    "prefecture_code": 7,
    "city": "福島市",
    "city_kana": "フクシマシ",
    "town": "清水町",
    "town_kana": "シミズマチ",
    "street": "字一本松１−１",
    "office_name": "ＮＥＣネットワークプロダクツ　株式会社",
    "office_name_kana": "エヌイ-シ-ネツトワ-クプロダクツ カブシキガイシヤ"
  },
  "8512": {
    "postcode": "9608512",
    "prefecture": "福島県",
    "prefecture_kana": "フクシマケン",
    "prefecture_code": 7,
    "city": "福島市",
    "city_kana": "フクシマシ",
    "town": "花園町",
    "town_kana": "ハナゾノチョウ",
    "street": "５番３８号",
    "office_name": "福島地方・家庭・簡易裁判所",
    "office_name_kana": "フクシマチホウカテイカンイサイバンシヨ"
  },
  "8513": {
    "postcode": "9608513",
    "prefecture": "福島県",
    "prefecture_kana": "フクシマケン",
    "prefecture_code": 7,
    "city": "福島市",
    "city_kana": "フクシマシ",
    "town": "花園町",
    "town_kana": "ハナゾノチョウ",
    "street": "５番４６号",
    "office_name": "福島労働局",
    "office_name_kana": "フクシマロウドウキヨク"
  },
  "8515": {
    "postcode": "9608515",
    "prefecture": "福島県",
    "prefecture_kana": "フクシマケン",
    "prefecture_code": 7,
    "city": "福島市",
    "city_kana": "フクシマシ",
    "town": "太田町",
    "town_kana": "オオタマチ",
    "street": "１３−５３",
    "office_name": "福島県市町村職員　共済組合",
    "office_name_kana": "フクシマケンシチヨウソンシヨクイン キヨウサイクミアイ"
  },
  "8516": {
    "postcode": "9608516",
    "prefecture": "福島県",
    "prefecture_kana": "フクシマケン",
    "prefecture_code": 7,
    "city": "福島市",
    "city_kana": "フクシマシ",
    "town": "栄町",
    "town_kana": "サカエマチ",
    "street": "１０番６号",
    "office_name": "福島県立医科大学　福島駅前キャンパス",
    "office_name_kana": "フクシマケンリツイカダイガク フクシマエキマエキヤンパス"
  },
  "8518": {
    "postcode": "9608518",
    "prefecture": "福島県",
    "prefecture_kana": "フクシマケン",
    "prefecture_code": 7,
    "city": "福島市",
    "city_kana": "フクシマシ",
    "town": "大町",
    "town_kana": "オオマチ",
    "street": "７−１１明治安田生命福島ビル３階",
    "office_name": "株式会社　帝国データバンク　福島支店",
    "office_name_kana": "カブシキガイシヤ テイコクデ-タバンク フクシマシテン"
  },
  "8520": {
    "postcode": "9608520",
    "prefecture": "福島県",
    "prefecture_kana": "フクシマケン",
    "prefecture_code": 7,
    "city": "福島市",
    "city_kana": "フクシマシ",
    "town": "黒岩",
    "town_kana": "クロイワ",
    "street": "字遠沖１０−１",
    "office_name": "株式会社　ヤクルト本社　福島工場",
    "office_name_kana": "カブシキガイシヤ ヤクルトホンシヤ フクシマコウジヨウ"
  },
  "8521": {
    "postcode": "9608521",
    "prefecture": "福島県",
    "prefecture_kana": "フクシマケン",
    "prefecture_code": 7,
    "city": "福島市",
    "city_kana": "フクシマシ",
    "town": "北町",
    "town_kana": "キタマチ",
    "street": "１−１５",
    "office_name": "財団法人　電気通信共済会　福島営業所",
    "office_name_kana": "ザイダンホウジン デンキツウシンキヨウサイカイ フクシマエイギヨウシヨ"
  },
  "8522": {
    "postcode": "9608522",
    "prefecture": "福島県",
    "prefecture_kana": "フクシマケン",
    "prefecture_code": 7,
    "city": "福島市",
    "city_kana": "フクシマシ",
    "town": "置賜町",
    "town_kana": "オキタマチョウ",
    "street": "２番３５号",
    "office_name": "東北電力ネットワーク　株式会社　福島電力センター",
    "office_name_kana": "トウホクデンリヨクネツトワ-ク カブシキガイシヤ フクシマデンリヨクセンタ-"
  },
  "8523": {
    "postcode": "9608523",
    "prefecture": "福島県",
    "prefecture_kana": "フクシマケン",
    "prefecture_code": 7,
    "city": "福島市",
    "city_kana": "フクシマシ",
    "town": "仲間町",
    "town_kana": "チュウゲンチョウ",
    "street": "９−１６",
    "office_name": "損害保険ジャパン日本興亜　株式会社",
    "office_name_kana": "ソンガイホケンジヤパンニツポンコウア カブシキカイシヤ"
  },
  "8524": {
    "postcode": "9608524",
    "prefecture": "福島県",
    "prefecture_kana": "フクシマケン",
    "prefecture_code": 7,
    "city": "福島市",
    "city_kana": "フクシマシ",
    "town": "栄町",
    "town_kana": "サカエマチ",
    "street": "７番２１号",
    "office_name": "東北電力　（株）　福島支店",
    "office_name_kana": "トウホクデンリヨク (カブ) フクシマシテン"
  },
  "8530": {
    "postcode": "9608530",
    "prefecture": "福島県",
    "prefecture_kana": "フクシマケン",
    "prefecture_code": 7,
    "city": "福島市",
    "city_kana": "フクシマシ",
    "town": "八島町",
    "town_kana": "ヤシマチョウ",
    "street": "７番７号",
    "office_name": "福島赤十字病院",
    "office_name_kana": "フクシマセキジユウジビヨウイン"
  },
  "8531": {
    "postcode": "9608531",
    "prefecture": "福島県",
    "prefecture_kana": "フクシマケン",
    "prefecture_code": 7,
    "city": "福島市",
    "city_kana": "フクシマシ",
    "town": "西中央",
    "town_kana": "ニシチュウオウ",
    "street": "１丁目１",
    "office_name": "テレビユー福島",
    "office_name_kana": "テレビユ-フクシマ"
  },
  "8534": {
    "postcode": "9608534",
    "prefecture": "福島県",
    "prefecture_kana": "フクシマケン",
    "prefecture_code": 7,
    "city": "福島市",
    "city_kana": "フクシマシ",
    "town": "上浜町",
    "town_kana": "カミハマチョウ",
    "street": "１０−３８",
    "office_name": "（財）　福島県教育会館",
    "office_name_kana": "ザイダンホウジン フクシマケンキヨウイクカイカン"
  },
  "8536": {
    "postcode": "9608536",
    "prefecture": "福島県",
    "prefecture_kana": "フクシマケン",
    "prefecture_code": 7,
    "city": "福島市",
    "city_kana": "フクシマシ",
    "town": "南沢又",
    "town_kana": "ミナミサワマタ",
    "street": "字水門下６６番地",
    "office_name": "福島刑務支所",
    "office_name_kana": "フクシマケイムシシヨ"
  },
  "8540": {
    "postcode": "9608540",
    "prefecture": "福島県",
    "prefecture_kana": "フクシマケン",
    "prefecture_code": 7,
    "city": "福島市",
    "city_kana": "フクシマシ",
    "town": "荒町",
    "town_kana": "アラマチ",
    "street": "１−２１",
    "office_name": "全労災　福島県本部",
    "office_name_kana": "ゼンロウサイ フクシマケンホンブ"
  },
  "8546": {
    "postcode": "9608546",
    "prefecture": "福島県",
    "prefecture_kana": "フクシマケン",
    "prefecture_code": 7,
    "city": "福島市",
    "city_kana": "フクシマシ",
    "town": "栄町",
    "town_kana": "サカエマチ",
    "street": "６−６ＮＢＦユニックスビル",
    "office_name": "全国健康保険協会　福島支部",
    "office_name_kana": "ゼンコクケンコウホケンキヨウカイ フクシマシブ"
  },
  "8550": {
    "postcode": "9608550",
    "prefecture": "福島県",
    "prefecture_kana": "フクシマケン",
    "prefecture_code": 7,
    "city": "福島市",
    "city_kana": "フクシマシ",
    "town": "方木田",
    "town_kana": "ホウキダ",
    "street": "字水戸内１９−６",
    "office_name": "財団法人　福島県　保健衛生協会",
    "office_name_kana": "ザイダンホウジン フクシマケン ホケンエイセイキヨウカイ"
  },
  "8555": {
    "postcode": "9608555",
    "prefecture": "福島県",
    "prefecture_kana": "フクシマケン",
    "prefecture_code": 7,
    "city": "福島市",
    "city_kana": "フクシマシ",
    "town": "三河南町",
    "town_kana": "ミカワミナミマチ",
    "street": "１１−５",
    "office_name": "福島県　社会保険診療報酬支払基金",
    "office_name_kana": "フクシマケン シヤカイホケンシンリヨウホウシユウシハライキキン"
  },
  "8558": {
    "postcode": "9608558",
    "prefecture": "福島県",
    "prefecture_kana": "フクシマケン",
    "prefecture_code": 7,
    "city": "福島市",
    "city_kana": "フクシマシ",
    "town": "太平寺",
    "town_kana": "タイヘイジ",
    "street": "字一本柳１",
    "office_name": "松下電器産業　株式会社　オーディオ事業部　福島工場",
    "office_name_kana": "マツシタデンキサンギヨウ カブシキガイシヤ オ-デイオジギヨウブ フクシマコウジヨウ"
  },
  "8560": {
    "postcode": "9608560",
    "prefecture": "福島県",
    "prefecture_kana": "フクシマケン",
    "prefecture_code": 7,
    "city": "福島市",
    "city_kana": "フクシマシ",
    "town": "方木田",
    "town_kana": "ホウキダ",
    "street": "字水戸内１６−６",
    "office_name": "福島県　衛生公害研究所",
    "office_name_kana": "フクシマケン エイセイコウガイケンキユウジヨ"
  },
  "8566": {
    "postcode": "9608566",
    "prefecture": "福島県",
    "prefecture_kana": "フクシマケン",
    "prefecture_code": 7,
    "city": "福島市",
    "city_kana": "フクシマシ",
    "town": "森合",
    "town_kana": "モリアイ",
    "street": "字清水７番地",
    "office_name": "生活協同組合　コープふくしま",
    "office_name_kana": "セイカツキヨウドウクミアイ コ-プフクシマ"
  },
  "8567": {
    "postcode": "9608567",
    "prefecture": "福島県",
    "prefecture_kana": "フクシマケン",
    "prefecture_code": 7,
    "city": "福島市",
    "city_kana": "フクシマシ",
    "town": "北五老内町",
    "town_kana": "キタゴロウウチマチ",
    "street": "３−３０",
    "office_name": "日本年金機構　東北福島年金事務所",
    "office_name_kana": "ニツポンネンキンキコウ トウホクフクシマネンキンジムシヨ"
  },
  "8575": {
    "postcode": "9608575",
    "prefecture": "福島県",
    "prefecture_kana": "フクシマケン",
    "prefecture_code": 7,
    "city": "福島市",
    "city_kana": "フクシマシ",
    "town": "新町",
    "town_kana": "シンマチ",
    "street": "４番２２号",
    "office_name": "社団法人　福島県医師会",
    "office_name_kana": "シヤダンホウジン フクシマケンイシカイ"
  },
  "8580": {
    "postcode": "9608580",
    "prefecture": "福島県",
    "prefecture_kana": "フクシマケン",
    "prefecture_code": 7,
    "city": "福島市",
    "city_kana": "フクシマシ",
    "town": "伏拝",
    "town_kana": "フシオガミ",
    "street": "字沖３５−１",
    "office_name": "株式会社　ユアテック　福島支社",
    "office_name_kana": "カブシキガイシヤ ユアテツク フクシマシシヤ"
  },
  "8581": {
    "postcode": "9608581",
    "prefecture": "福島県",
    "prefecture_kana": "フクシマケン",
    "prefecture_code": 7,
    "city": "福島市",
    "city_kana": "フクシマシ",
    "town": "郷野目",
    "town_kana": "ゴウノメ",
    "street": "字東１",
    "office_name": "日東紡績　株式会社　福島事業センター",
    "office_name_kana": "ニツトウボウセキ カブシキガイシヤ フクシマジギヨウセンタ-"
  },
  "8584": {
    "postcode": "9608584",
    "prefecture": "福島県",
    "prefecture_kana": "フクシマケン",
    "prefecture_code": 7,
    "city": "福島市",
    "city_kana": "フクシマシ",
    "town": "黒岩",
    "town_kana": "クロイワ",
    "street": "字榎平３６",
    "office_name": "国土交通省　東北地方整備局　福島河川国道事務所",
    "office_name_kana": "コクドコウツウシヨウ トウホクチホウセイビキヨク フクシマカセンコクドウジムシヨ"
  },
  "8585": {
    "postcode": "9608585",
    "prefecture": "福島県",
    "prefecture_kana": "フクシマケン",
    "prefecture_code": 7,
    "city": "福島市",
    "city_kana": "フクシマシ",
    "town": "花園町",
    "town_kana": "ハナゾノチョウ",
    "street": "３−６",
    "office_name": "桜の聖母短期大学",
    "office_name_kana": "サクラノセイボタンキダイガク"
  },
  "8588": {
    "postcode": "9608588",
    "prefecture": "福島県",
    "prefecture_kana": "フクシマケン",
    "prefecture_code": 7,
    "city": "福島市",
    "city_kana": "フクシマシ",
    "town": "早稲町",
    "town_kana": "ワセチョウ",
    "street": "１−２",
    "office_name": "日本放送協会　福島放送局",
    "office_name_kana": "ニツポンホウソウキヨウカイ フクシマホウソウキヨク"
  },
  "8589": {
    "postcode": "9608589",
    "prefecture": "福島県",
    "prefecture_kana": "フクシマケン",
    "prefecture_code": 7,
    "city": "福島市",
    "city_kana": "フクシマシ",
    "town": "狐塚",
    "town_kana": "キツネヅカ",
    "street": "１７−４０",
    "office_name": "福島公共職業安定所",
    "office_name_kana": "フクシマコウキヨウシヨクギヨウアンテイシヨ"
  },
  "8601": {
    "postcode": "9608601",
    "prefecture": "福島県",
    "prefecture_kana": "フクシマケン",
    "prefecture_code": 7,
    "city": "福島市",
    "city_kana": "フクシマシ",
    "town": "五老内町",
    "town_kana": "ゴロウウチマチ",
    "street": "３−１（福島中央郵便局私書箱第３号）",
    "office_name": "福島市役所",
    "office_name_kana": "フクシマシヤクシヨ"
  },
  "8602": {
    "postcode": "9608602",
    "prefecture": "福島県",
    "prefecture_kana": "フクシマケン",
    "prefecture_code": 7,
    "city": "福島市",
    "city_kana": "フクシマシ",
    "town": "太田町",
    "town_kana": "オオタマチ",
    "street": "１３−１７（福島中央郵便局私書箱第１号）",
    "office_name": "株式会社　福島民報社",
    "office_name_kana": "カブシキガイシヤ フクシマミンポウシヤ"
  },
  "8603": {
    "postcode": "9608603",
    "prefecture": "福島県",
    "prefecture_kana": "フクシマケン",
    "prefecture_code": 7,
    "city": "福島市",
    "city_kana": "フクシマシ",
    "town": "置賜町",
    "town_kana": "オキタマチョウ",
    "street": "６番２０号",
    "office_name": "株式会社　みずほ銀行　福島支店",
    "office_name_kana": "カブシキガイシヤ ミズホギンコウ フクシマシテン"
  },
  "8605": {
    "postcode": "9608605",
    "prefecture": "福島県",
    "prefecture_kana": "フクシマケン",
    "prefecture_code": 7,
    "city": "福島市",
    "city_kana": "フクシマシ",
    "town": "御山",
    "town_kana": "オヤマ",
    "street": "字中川原８０−１（福島中央郵便局私書箱第８４号）",
    "office_name": "株式会社　岩瀬書店",
    "office_name_kana": "カブシキガイシヤ イワセシヨテン"
  },
  "8607": {
    "postcode": "9608607",
    "prefecture": "福島県",
    "prefecture_kana": "フクシマケン",
    "prefecture_code": 7,
    "city": "福島市",
    "city_kana": "フクシマシ",
    "town": "宮町",
    "town_kana": "ミヤマチ",
    "street": "３−１６（福島中央郵便局私書箱第６７号）",
    "office_name": "東北労働金庫　福島県本部",
    "office_name_kana": "トウホクロウドウキンコ フクシマケンホンブ"
  },
  "8610": {
    "postcode": "9608610",
    "prefecture": "福島県",
    "prefecture_kana": "フクシマケン",
    "prefecture_code": 7,
    "city": "福島市",
    "city_kana": "フクシマシ",
    "town": "泉",
    "town_kana": "イズミ",
    "street": "字清水内１（福島中央郵便局私書箱第３８号）",
    "office_name": "佐藤工業　株式会社",
    "office_name_kana": "サトウコウギヨウ カブシキガイシヤ"
  },
  "8611": {
    "postcode": "9608611",
    "prefecture": "福島県",
    "prefecture_kana": "フクシマケン",
    "prefecture_code": 7,
    "city": "福島市",
    "city_kana": "フクシマシ",
    "town": "上町",
    "town_kana": "ウワマチ",
    "street": "６番１号（福島中央郵便局私書箱第５５号）",
    "office_name": "一般財団法人　大原記念財団　大原綜合病院",
    "office_name_kana": "イツパンザイダンホウジン オオハラキネンザイダン オオハラソウゴウビヨウイン"
  },
  "8614": {
    "postcode": "9608614",
    "prefecture": "福島県",
    "prefecture_kana": "フクシマケン",
    "prefecture_code": 7,
    "city": "福島市",
    "city_kana": "フクシマシ",
    "town": "本町",
    "town_kana": "モトマチ",
    "street": "６−２４（福島中央郵便局私書箱第４６号）",
    "office_name": "日本銀行　福島支店",
    "office_name_kana": "ニツポンギンコウ フクシマシテン"
  },
  "8620": {
    "postcode": "9608620",
    "prefecture": "福島県",
    "prefecture_kana": "フクシマケン",
    "prefecture_code": 7,
    "city": "福島市",
    "city_kana": "フクシマシ",
    "town": "森合町",
    "town_kana": "モリアイチョウ",
    "street": "１６−６",
    "office_name": "福島　税務署",
    "office_name_kana": "フクシマ ゼイムシヨ"
  },
  "8625": {
    "postcode": "9608625",
    "prefecture": "福島県",
    "prefecture_kana": "フクシマケン",
    "prefecture_code": 7,
    "city": "福島市",
    "city_kana": "フクシマシ",
    "town": "万世町",
    "town_kana": "バンセイチョウ",
    "street": "２−５（福島中央郵便局私書箱第５７号）",
    "office_name": "株式会社　福島銀行",
    "office_name_kana": "カブシキガイシヤ フクシマギンコウ"
  },
  "8626": {
    "postcode": "9608626",
    "prefecture": "福島県",
    "prefecture_kana": "フクシマケン",
    "prefecture_code": 7,
    "city": "福島市",
    "city_kana": "フクシマシ",
    "town": "飯坂町平野",
    "town_kana": "イイザカマチヒラノ",
    "street": "字桜田３−４（福島中央郵便局私書箱第２６号）",
    "office_name": "（株）　東邦銀行事務センター",
    "office_name_kana": "カブシキガイシヤ トウホウギンコウジムセンタ-"
  },
  "8633": {
    "postcode": "9608633",
    "prefecture": "福島県",
    "prefecture_kana": "フクシマケン",
    "prefecture_code": 7,
    "city": "福島市",
    "city_kana": "フクシマシ",
    "town": "大町",
    "town_kana": "オオマチ",
    "street": "３−２５（福島中央郵便局私書箱第３３号）",
    "office_name": "株式会社　東邦銀行　本店",
    "office_name_kana": "カブシキガイシヤ トウホウギンコウ ホンテン"
  },
  "8639": {
    "postcode": "9608639",
    "prefecture": "福島県",
    "prefecture_kana": "フクシマケン",
    "prefecture_code": 7,
    "city": "福島市",
    "city_kana": "フクシマシ",
    "town": "太田町",
    "town_kana": "オオタマチ",
    "street": "１３−８（福島中央郵便局私書箱第３９号）",
    "office_name": "福島交通　株式会社",
    "office_name_kana": "フクシマコウツウ カブシキカイシヤ"
  },
  "8648": {
    "postcode": "9608648",
    "prefecture": "福島県",
    "prefecture_kana": "フクシマケン",
    "prefecture_code": 7,
    "city": "福島市",
    "city_kana": "フクシマシ",
    "town": "柳町",
    "town_kana": "ヤナギマチ",
    "street": "４−２９（福島中央郵便局私書箱第６４号）",
    "office_name": "福島民友新聞　株式会社",
    "office_name_kana": "フクシマミンユウシンブン カブシキガイシヤ"
  },
  "8651": {
    "postcode": "9608651",
    "prefecture": "福島県",
    "prefecture_kana": "フクシマケン",
    "prefecture_code": 7,
    "city": "福島市",
    "city_kana": "フクシマシ",
    "town": "栄町",
    "town_kana": "サカエマチ",
    "street": "１１−２５（福島中央郵便局私書箱第４号）",
    "office_name": "大和証券　株式会社　福島支店",
    "office_name_kana": "ダイワシヨウケン カブシキカイシヤ フクシマシテン"
  },
  "8655": {
    "postcode": "9608655",
    "prefecture": "福島県",
    "prefecture_kana": "フクシマケン",
    "prefecture_code": 7,
    "city": "福島市",
    "city_kana": "フクシマシ",
    "town": "太田町",
    "town_kana": "オオタマチ",
    "street": "１３−１７",
    "office_name": "株式会社　ラジオ福島",
    "office_name_kana": "カブシキガイシヤ ラジオフクシマ"
  },
  "8660": {
    "postcode": "9608660",
    "prefecture": "福島県",
    "prefecture_kana": "フクシマケン",
    "prefecture_code": 7,
    "city": "福島市",
    "city_kana": "フクシマシ",
    "town": "万世町",
    "town_kana": "バンセイチョウ",
    "street": "１−５（福島中央郵便局私書箱第７１号）",
    "office_name": "福島信用金庫",
    "office_name_kana": "フクシマシンヨウキンコ"
  },
  "8666": {
    "postcode": "9608666",
    "prefecture": "福島県",
    "prefecture_kana": "フクシマケン",
    "prefecture_code": 7,
    "city": "福島市",
    "city_kana": "フクシマシ",
    "town": "杉妻町",
    "town_kana": "スギツマチョウ",
    "street": "２−１６（福島県庁内郵便局私書箱第３４号）",
    "office_name": "福島県　自動車県税事務所",
    "office_name_kana": "フクシマケン ジドウシヤケンゼイジムシヨ"
  },
  "8668": {
    "postcode": "9608668",
    "prefecture": "福島県",
    "prefecture_kana": "フクシマケン",
    "prefecture_code": 7,
    "city": "福島市",
    "city_kana": "フクシマシ",
    "town": "杉妻町",
    "town_kana": "スギツマチョウ",
    "street": "５−７５（福島県庁内郵便局私書箱第１７号）",
    "office_name": "福島県　県北建設事務所",
    "office_name_kana": "フクシマケン ケンポクケンセツジムシヨ"
  },
  "8670": {
    "postcode": "9608670",
    "prefecture": "福島県",
    "prefecture_kana": "フクシマケン",
    "prefecture_code": 7,
    "city": "福島市",
    "city_kana": "フクシマシ",
    "town": "杉妻町",
    "town_kana": "スギツマチョウ",
    "street": "２−１６（福島県庁内郵便局私書箱第１号）",
    "office_name": "福島県庁",
    "office_name_kana": "フクシマケンチヨウ"
  },
  "8677": {
    "postcode": "9608677",
    "prefecture": "福島県",
    "prefecture_kana": "フクシマケン",
    "prefecture_code": 7,
    "city": "福島市",
    "city_kana": "フクシマシ",
    "town": "杉妻町",
    "town_kana": "スギツマチョウ",
    "street": "５−７５（福島県庁内郵便局私書箱第３号）",
    "office_name": "福島県　県北地方振興局　県税部",
    "office_name_kana": "フクシマケン ケンポクチホウシンコウキヨク ケンゼイブ"
  },
  "8686": {
    "postcode": "9608686",
    "prefecture": "福島県",
    "prefecture_kana": "フクシマケン",
    "prefecture_code": 7,
    "city": "福島市",
    "city_kana": "フクシマシ",
    "town": "杉妻町",
    "town_kana": "スギツマチョウ",
    "street": "２−１６（福島県庁内郵便局私書箱第２２号）",
    "office_name": "福島県警察本部",
    "office_name_kana": "フクシマケンケイサツホンブ"
  },
  "8688": {
    "postcode": "9608688",
    "prefecture": "福島県",
    "prefecture_kana": "フクシマケン",
    "prefecture_code": 7,
    "city": "福島市",
    "city_kana": "フクシマシ",
    "town": "杉妻町",
    "town_kana": "スギツマチョウ",
    "street": "２−１６（福島県庁内郵便局私書箱第２０号）",
    "office_name": "福島県教育庁",
    "office_name_kana": "フクシマケンキヨウイクチヨウ"
  }
}