{
  "0000": {
    "postcode": "9650000",
    "prefecture": "福島県",
    "prefecture_kana": "フクシマケン",
    "prefecture_code": 7,
    "city": "会津若松市",
    "city_kana": "アイヅワカマツシ",
    "town": "",
    "town_kana": "",
    "street": null,
    "office_name": null,
    "office_name_kana": null
  },
  "0001": {
    "postcode": "9650001",
    "prefecture": "福島県",
    "prefecture_kana": "フクシマケン",
    "prefecture_code": 7,
    "city": "会津若松市",
    "city_kana": "アイヅワカマツシ",
    "town": "一箕町松長",
    "town_kana": "イッキマチマツナガ",
    "street": null,
    "office_name": null,
    "office_name_kana": null
  },
  "0002": {
    "postcode": "9650002",
    "prefecture": "福島県",
    "prefecture_kana": "フクシマケン",
    "prefecture_code": 7,
    "city": "会津若松市",
    "city_kana": "アイヅワカマツシ",
    "town": "一箕町金堀",
    "town_kana": "イッキマチカネホリ",
    "street": null,
    "office_name": null,
    "office_name_kana": null
  },
  "0003": {
    "postcode": "9650003",
    "prefecture": "福島県",
    "prefecture_kana": "フクシマケン",
    "prefecture_code": 7,
    "city": "会津若松市",
    "city_kana": "アイヅワカマツシ",
    "town": "一箕町八幡",
    "town_kana": "イッキマチヤハタ",
    "street": null,
    "office_name": null,
    "office_name_kana": null
  },
  "0004": {
    "postcode": "9650004",
    "prefecture": "福島県",
    "prefecture_kana": "フクシマケン",
    "prefecture_code": 7,
    "city": "会津若松市",
    "city_kana": "アイヅワカマツシ",
    "town": "一箕町八角",
    "town_kana": "イッキマチヤスミ",
    "street": null,
    "office_name": null,
    "office_name_kana": null
  },
  "0005": {
    "postcode": "9650005",
    "prefecture": "福島県",
    "prefecture_kana": "フクシマケン",
    "prefecture_code": 7,
    "city": "会津若松市",
    "city_kana": "アイヅワカマツシ",
    "town": "一箕町亀賀",
    "town_kana": "イッキマチカメガ",
    "street": null,
    "office_name": null,
    "office_name_kana": null
  },
  "0006": {
    "postcode": "9650006",
    "prefecture": "福島県",
    "prefecture_kana": "フクシマケン",
    "prefecture_code": 7,
    "city": "会津若松市",
    "city_kana": "アイヅワカマツシ",
    "town": "一箕町鶴賀",
    "town_kana": "イッキマチツルガ",
    "street": null,
    "office_name": null,
    "office_name_kana": null
  },
  "0007": {
    "postcode": "9650007",
    "prefecture": "福島県",
    "prefecture_kana": "フクシマケン",
    "prefecture_code": 7,
    "city": "会津若松市",
    "city_kana": "アイヅワカマツシ",
    "town": "飯盛",
    "town_kana": "イイモリ",
    "street": null,
    "office_name": null,
    "office_name_kana": null
  },
  "0008": {
    "postcode": "9650008",
    "prefecture": "福島県",
    "prefecture_kana": "フクシマケン",
    "prefecture_code": 7,
    "city": "会津若松市",
    "city_kana": "アイヅワカマツシ",
    "town": "桧町",
    "town_kana": "ヒノキマチ",
    "street": null,
    "office_name": null,
    "office_name_kana": null
  },
  "0009": {
    "postcode": "9650009",
    "prefecture": "福島県",
    "prefecture_kana": "フクシマケン",
    "prefecture_code": 7,
    "city": "会津若松市",
    "city_kana": "アイヅワカマツシ",
    "town": "八角町",
    "town_kana": "ヤスミマチ",
    "street": null,
    "office_name": null,
    "office_name_kana": null
  },
  "0011": {
    "postcode": "9650011",
    "prefecture": "福島県",
    "prefecture_kana": "フクシマケン",
    "prefecture_code": 7,
    "city": "会津若松市",
    "city_kana": "アイヅワカマツシ",
    "town": "鶴賀町",
    "town_kana": "ツルガマチ",
    "street": null,
    "office_name": null,
    "office_name_kana": null
  },
  "0012": {
    "postcode": "9650012",
    "prefecture": "福島県",
    "prefecture_kana": "フクシマケン",
    "prefecture_code": 7,
    "city": "会津若松市",
    "city_kana": "アイヅワカマツシ",
    "town": "居合町",
    "town_kana": "イアワセマチ",
    "street": null,
    "office_name": null,
    "office_name_kana": null
  },
  "0013": {
    "postcode": "9650013",
    "prefecture": "福島県",
    "prefecture_kana": "フクシマケン",
    "prefecture_code": 7,
    "city": "会津若松市",
    "city_kana": "アイヅワカマツシ",
    "town": "堤町",
    "town_kana": "ツツミマチ",
    "street": null,
    "office_name": null,
    "office_name_kana": null
  },
  "0014": {
    "postcode": "9650014",
    "prefecture": "福島県",
    "prefecture_kana": "フクシマケン",
    "prefecture_code": 7,
    "city": "会津若松市",
    "city_kana": "アイヅワカマツシ",
    "town": "大塚",
    "town_kana": "オオツカ",
    "street": null,
    "office_name": null,
    "office_name_kana": null
  },
  "0015": {
    "postcode": "9650015",
    "prefecture": "福島県",
    "prefecture_kana": "フクシマケン",
    "prefecture_code": 7,
    "city": "会津若松市",
    "city_kana": "アイヅワカマツシ",
    "town": "北滝沢",
    "town_kana": "キタタキザワ",
    "street": null,
    "office_name": null,
    "office_name_kana": null
  },
  "0016": {
    "postcode": "9650016",
    "prefecture": "福島県",
    "prefecture_kana": "フクシマケン",
    "prefecture_code": 7,
    "city": "会津若松市",
    "city_kana": "アイヅワカマツシ",
    "town": "中島町",
    "town_kana": "ナカジママチ",
    "street": null,
    "office_name": null,
    "office_name_kana": null
  },
  "0020": {
    "postcode": "9650020",
    "prefecture": "福島県",
    "prefecture_kana": "フクシマケン",
    "prefecture_code": 7,
    "city": "会津若松市",
    "city_kana": "アイヅワカマツシ",
    "town": "山見",
    "town_kana": "ヤマミ",
    "street": null,
    "office_name": null,
    "office_name_kana": null
  },
  "0021": {
    "postcode": "9650021",
    "prefecture": "福島県",
    "prefecture_kana": "フクシマケン",
    "prefecture_code": 7,
    "city": "会津若松市",
    "city_kana": "アイヅワカマツシ",
    "town": "山見町",
    "town_kana": "ヤマミマチ",
    "street": null,
    "office_name": null,
    "office_name_kana": null
  },
  "0022": {
    "postcode": "9650022",
    "prefecture": "福島県",
    "prefecture_kana": "フクシマケン",
    "prefecture_code": 7,
    "city": "会津若松市",
    "city_kana": "アイヅワカマツシ",
    "town": "滝沢町",
    "town_kana": "タキザワマチ",
    "street": null,
    "office_name": null,
    "office_name_kana": null
  },
  "0023": {
    "postcode": "9650023",
    "prefecture": "福島県",
    "prefecture_kana": "フクシマケン",
    "prefecture_code": 7,
    "city": "会津若松市",
    "city_kana": "アイヅワカマツシ",
    "town": "蚕養町",
    "town_kana": "コガイマチ",
    "street": null,
    "office_name": null,
    "office_name_kana": null
  },
  "0024": {
    "postcode": "9650024",
    "prefecture": "福島県",
    "prefecture_kana": "フクシマケン",
    "prefecture_code": 7,
    "city": "会津若松市",
    "city_kana": "アイヅワカマツシ",
    "town": "白虎町",
    "town_kana": "ビャッコマチ",
    "street": null,
    "office_name": null,
    "office_name_kana": null
  },
  "0025": {
    "postcode": "9650025",
    "prefecture": "福島県",
    "prefecture_kana": "フクシマケン",
    "prefecture_code": 7,
    "city": "会津若松市",
    "city_kana": "アイヅワカマツシ",
    "town": "扇町",
    "town_kana": "オウギマチ",
    "street": null,
    "office_name": null,
    "office_name_kana": null
  },
  "0026": {
    "postcode": "9650026",
    "prefecture": "福島県",
    "prefecture_kana": "フクシマケン",
    "prefecture_code": 7,
    "city": "会津若松市",
    "city_kana": "アイヅワカマツシ",
    "town": "平安町",
    "town_kana": "ヘイアンマチ",
    "street": null,
    "office_name": null,
    "office_name_kana": null
  },
  "0027": {
    "postcode": "9650027",
    "prefecture": "福島県",
    "prefecture_kana": "フクシマケン",
    "prefecture_code": 7,
    "city": "会津若松市",
    "city_kana": "アイヅワカマツシ",
    "town": "花畑東",
    "town_kana": "ハナバタケヒガシ",
    "street": null,
    "office_name": null,
    "office_name_kana": null
  },
  "0028": {
    "postcode": "9650028",
    "prefecture": "福島県",
    "prefecture_kana": "フクシマケン",
    "prefecture_code": 7,
    "city": "会津若松市",
    "city_kana": "アイヅワカマツシ",
    "town": "亀賀",
    "town_kana": "カメガ",
    "street": null,
    "office_name": null,
    "office_name_kana": null
  },
  "0029": {
    "postcode": "9650029",
    "prefecture": "福島県",
    "prefecture_kana": "フクシマケン",
    "prefecture_code": 7,
    "city": "会津若松市",
    "city_kana": "アイヅワカマツシ",
    "town": "藤原",
    "town_kana": "フジワラ",
    "street": null,
    "office_name": null,
    "office_name_kana": null
  },
  "0031": {
    "postcode": "9650031",
    "prefecture": "福島県",
    "prefecture_kana": "フクシマケン",
    "prefecture_code": 7,
    "city": "会津若松市",
    "city_kana": "アイヅワカマツシ",
    "town": "相生町",
    "town_kana": "アイオイマチ",
    "street": null,
    "office_name": null,
    "office_name_kana": null
  },
  "0032": {
    "postcode": "9650032",
    "prefecture": "福島県",
    "prefecture_kana": "フクシマケン",
    "prefecture_code": 7,
    "city": "会津若松市",
    "city_kana": "アイヅワカマツシ",
    "town": "旭町",
    "town_kana": "アサヒマチ",
    "street": null,
    "office_name": null,
    "office_name_kana": null
  },
  "0033": {
    "postcode": "9650033",
    "prefecture": "福島県",
    "prefecture_kana": "フクシマケン",
    "prefecture_code": 7,
    "city": "会津若松市",
    "city_kana": "アイヅワカマツシ",
    "town": "行仁町",
    "town_kana": "ギョウニンマチ",
    "street": null,
    "office_name": null,
    "office_name_kana": null
  },
  "0034": {
    "postcode": "9650034",
    "prefecture": "福島県",
    "prefecture_kana": "フクシマケン",
    "prefecture_code": 7,
    "city": "会津若松市",
    "city_kana": "アイヅワカマツシ",
    "town": "上町",
    "town_kana": "ウワマチ",
    "street": null,
    "office_name": null,
    "office_name_kana": null
  },
  "0035": {
    "postcode": "9650035",
    "prefecture": "福島県",
    "prefecture_kana": "フクシマケン",
    "prefecture_code": 7,
    "city": "会津若松市",
    "city_kana": "アイヅワカマツシ",
    "town": "馬場町",
    "town_kana": "ババマチ",
    "street": null,
    "office_name": null,
    "office_name_kana": null
  },
  "0036": {
    "postcode": "9650036",
    "prefecture": "福島県",
    "prefecture_kana": "フクシマケン",
    "prefecture_code": 7,
    "city": "会津若松市",
    "city_kana": "アイヅワカマツシ",
    "town": "馬場本町",
    "town_kana": "ババモトマチ",
    "street": null,
    "office_name": null,
    "office_name_kana": null
  },
  "0037": {
    "postcode": "9650037",
    "prefecture": "福島県",
    "prefecture_kana": "フクシマケン",
    "prefecture_code": 7,
    "city": "会津若松市",
    "city_kana": "アイヅワカマツシ",
    "town": "中央",
    "town_kana": "チュウオウ",
    "street": null,
    "office_name": null,
    "office_name_kana": null
  },
  "0038": {
    "postcode": "9650038",
    "prefecture": "福島県",
    "prefecture_kana": "フクシマケン",
    "prefecture_code": 7,
    "city": "会津若松市",
    "city_kana": "アイヅワカマツシ",
    "town": "昭和町",
    "town_kana": "ショウワマチ",
    "street": null,
    "office_name": null,
    "office_name_kana": null
  },
  "0039": {
    "postcode": "9650039",
    "prefecture": "福島県",
    "prefecture_kana": "フクシマケン",
    "prefecture_code": 7,
    "city": "会津若松市",
    "city_kana": "アイヅワカマツシ",
    "town": "白虎",
    "town_kana": "ビャッコ",
    "street": null,
    "office_name": null,
    "office_name_kana": null
  },
  "0041": {
    "postcode": "9650041",
    "prefecture": "福島県",
    "prefecture_kana": "フクシマケン",
    "prefecture_code": 7,
    "city": "会津若松市",
    "city_kana": "アイヅワカマツシ",
    "town": "駅前町",
    "town_kana": "エキマエマチ",
    "street": null,
    "office_name": null,
    "office_name_kana": null
  },
  "0042": {
    "postcode": "9650042",
    "prefecture": "福島県",
    "prefecture_kana": "フクシマケン",
    "prefecture_code": 7,
    "city": "会津若松市",
    "city_kana": "アイヅワカマツシ",
    "town": "大町",
    "town_kana": "オオマチ",
    "street": null,
    "office_name": null,
    "office_name_kana": null
  },
  "0043": {
    "postcode": "9650043",
    "prefecture": "福島県",
    "prefecture_kana": "フクシマケン",
    "prefecture_code": 7,
    "city": "会津若松市",
    "city_kana": "アイヅワカマツシ",
    "town": "城北町",
    "town_kana": "ジョウホクマチ",
    "street": null,
    "office_name": null,
    "office_name_kana": null
  },
  "0044": {
    "postcode": "9650044",
    "prefecture": "福島県",
    "prefecture_kana": "フクシマケン",
    "prefecture_code": 7,
    "city": "会津若松市",
    "city_kana": "アイヅワカマツシ",
    "town": "七日町",
    "town_kana": "ナノカマチ",
    "street": null,
    "office_name": null,
    "office_name_kana": null
  },
  "0045": {
    "postcode": "9650045",
    "prefecture": "福島県",
    "prefecture_kana": "フクシマケン",
    "prefecture_code": 7,
    "city": "会津若松市",
    "city_kana": "アイヅワカマツシ",
    "town": "西七日町",
    "town_kana": "ニシナノカマチ",
    "street": null,
    "office_name": null,
    "office_name_kana": null
  },
  "0046": {
    "postcode": "9650046",
    "prefecture": "福島県",
    "prefecture_kana": "フクシマケン",
    "prefecture_code": 7,
    "city": "会津若松市",
    "city_kana": "アイヅワカマツシ",
    "town": "八日町",
    "town_kana": "ヨウカマチ",
    "street": null,
    "office_name": null,
    "office_name_kana": null
  },
  "0047": {
    "postcode": "9650047",
    "prefecture": "福島県",
    "prefecture_kana": "フクシマケン",
    "prefecture_code": 7,
    "city": "会津若松市",
    "city_kana": "アイヅワカマツシ",
    "town": "五月町",
    "town_kana": "サツキマチ",
    "street": null,
    "office_name": null,
    "office_name_kana": null
  },
  "0048": {
    "postcode": "9650048",
    "prefecture": "福島県",
    "prefecture_kana": "フクシマケン",
    "prefecture_code": 7,
    "city": "会津若松市",
    "city_kana": "アイヅワカマツシ",
    "town": "橋本",
    "town_kana": "ハシモト",
    "street": null,
    "office_name": null,
    "office_name_kana": null
  },
  "0051": {
    "postcode": "9650051",
    "prefecture": "福島県",
    "prefecture_kana": "フクシマケン",
    "prefecture_code": 7,
    "city": "会津若松市",
    "city_kana": "アイヅワカマツシ",
    "town": "町北町谷地",
    "town_kana": "マチキタマチヤチ",
    "street": null,
    "office_name": null,
    "office_name_kana": null
  },
  "0052": {
    "postcode": "9650052",
    "prefecture": "福島県",
    "prefecture_kana": "フクシマケン",
    "prefecture_code": 7,
    "city": "会津若松市",
    "city_kana": "アイヅワカマツシ",
    "town": "町北町始",
    "town_kana": "マチキタマチハシメ",
    "street": null,
    "office_name": null,
    "office_name_kana": null
  },
  "0053": {
    "postcode": "9650053",
    "prefecture": "福島県",
    "prefecture_kana": "フクシマケン",
    "prefecture_code": 7,
    "city": "会津若松市",
    "city_kana": "アイヅワカマツシ",
    "town": "町北町上荒久田",
    "town_kana": "マチキタマチカミアラクダ",
    "street": null,
    "office_name": null,
    "office_name_kana": null
  },
  "0054": {
    "postcode": "9650054",
    "prefecture": "福島県",
    "prefecture_kana": "フクシマケン",
    "prefecture_code": 7,
    "city": "会津若松市",
    "city_kana": "アイヅワカマツシ",
    "town": "町北町石堂",
    "town_kana": "マチキタマチイシドウ",
    "street": null,
    "office_name": null,
    "office_name_kana": null
  },
  "0055": {
    "postcode": "9650055",
    "prefecture": "福島県",
    "prefecture_kana": "フクシマケン",
    "prefecture_code": 7,
    "city": "会津若松市",
    "city_kana": "アイヅワカマツシ",
    "town": "石堂町",
    "town_kana": "イシドウマチ",
    "street": null,
    "office_name": null,
    "office_name_kana": null
  },
  "0056": {
    "postcode": "9650056",
    "prefecture": "福島県",
    "prefecture_kana": "フクシマケン",
    "prefecture_code": 7,
    "city": "会津若松市",
    "city_kana": "アイヅワカマツシ",
    "town": "金川町",
    "town_kana": "カナガワマチ",
    "street": null,
    "office_name": null,
    "office_name_kana": null
  },
  "0057": {
    "postcode": "9650057",
    "prefecture": "福島県",
    "prefecture_kana": "フクシマケン",
    "prefecture_code": 7,
    "city": "会津若松市",
    "city_kana": "アイヅワカマツシ",
    "town": "町北町藤室",
    "town_kana": "マチキタマチフジムロ",
    "street": null,
    "office_name": null,
    "office_name_kana": null
  },
  "0058": {
    "postcode": "9650058",
    "prefecture": "福島県",
    "prefecture_kana": "フクシマケン",
    "prefecture_code": 7,
    "city": "会津若松市",
    "city_kana": "アイヅワカマツシ",
    "town": "町北町中沢",
    "town_kana": "マチキタマチナカサワ",
    "street": null,
    "office_name": null,
    "office_name_kana": null
  },
  "0059": {
    "postcode": "9650059",
    "prefecture": "福島県",
    "prefecture_kana": "フクシマケン",
    "prefecture_code": 7,
    "city": "会津若松市",
    "city_kana": "アイヅワカマツシ",
    "town": "インター西",
    "town_kana": "インターニシ",
    "street": null,
    "office_name": null,
    "office_name_kana": null
  },
  "0060": {
    "postcode": "9650060",
    "prefecture": "福島県",
    "prefecture_kana": "フクシマケン",
    "prefecture_code": 7,
    "city": "会津若松市",
    "city_kana": "アイヅワカマツシ",
    "town": "高久工業団地",
    "town_kana": "タカクコウギョウダンチ",
    "street": null,
    "office_name": null,
    "office_name_kana": null
  },
  "0061": {
    "postcode": "9650061",
    "prefecture": "福島県",
    "prefecture_kana": "フクシマケン",
    "prefecture_code": 7,
    "city": "会津若松市",
    "city_kana": "アイヅワカマツシ",
    "town": "神指町高久",
    "town_kana": "コウザシマチタカク",
    "street": null,
    "office_name": null,
    "office_name_kana": null
  },
  "0062": {
    "postcode": "9650062",
    "prefecture": "福島県",
    "prefecture_kana": "フクシマケン",
    "prefecture_code": 7,
    "city": "会津若松市",
    "city_kana": "アイヅワカマツシ",
    "town": "神指町北四合",
    "town_kana": "コウザシマチキタシゴウ",
    "street": null,
    "office_name": null,
    "office_name_kana": null
  },
  "0063": {
    "postcode": "9650063",
    "prefecture": "福島県",
    "prefecture_kana": "フクシマケン",
    "prefecture_code": 7,
    "city": "会津若松市",
    "city_kana": "アイヅワカマツシ",
    "town": "神指町高瀬",
    "town_kana": "コウザシマチタカセ",
    "street": null,
    "office_name": null,
    "office_name_kana": null
  },
  "0064": {
    "postcode": "9650064",
    "prefecture": "福島県",
    "prefecture_kana": "フクシマケン",
    "prefecture_code": 7,
    "city": "会津若松市",
    "city_kana": "アイヅワカマツシ",
    "town": "神指町黒川",
    "town_kana": "コウザシマチクロカワ",
    "street": null,
    "office_name": null,
    "office_name_kana": null
  },
  "0065": {
    "postcode": "9650065",
    "prefecture": "福島県",
    "prefecture_kana": "フクシマケン",
    "prefecture_code": 7,
    "city": "会津若松市",
    "city_kana": "アイヅワカマツシ",
    "town": "神指町中四合",
    "town_kana": "コウザシマチナカシゴウ",
    "street": null,
    "office_name": null,
    "office_name_kana": null
  },
  "0066": {
    "postcode": "9650066",
    "prefecture": "福島県",
    "prefecture_kana": "フクシマケン",
    "prefecture_code": 7,
    "city": "会津若松市",
    "city_kana": "アイヅワカマツシ",
    "town": "神指町横沼",
    "town_kana": "コウザシマチヨコヌマ",
    "street": null,
    "office_name": null,
    "office_name_kana": null
  },
  "0067": {
    "postcode": "9650067",
    "prefecture": "福島県",
    "prefecture_kana": "フクシマケン",
    "prefecture_code": 7,
    "city": "会津若松市",
    "city_kana": "アイヅワカマツシ",
    "town": "神指町下神指",
    "town_kana": "コウザシマチシモコウザシ",
    "street": null,
    "office_name": null,
    "office_name_kana": null
  },
  "0068": {
    "postcode": "9650068",
    "prefecture": "福島県",
    "prefecture_kana": "フクシマケン",
    "prefecture_code": 7,
    "city": "会津若松市",
    "city_kana": "アイヅワカマツシ",
    "town": "神指町小見",
    "town_kana": "コウザシマチオミ",
    "street": null,
    "office_name": null,
    "office_name_kana": null
  },
  "0069": {
    "postcode": "9650069",
    "prefecture": "福島県",
    "prefecture_kana": "フクシマケン",
    "prefecture_code": 7,
    "city": "会津若松市",
    "city_kana": "アイヅワカマツシ",
    "town": "神指町天満",
    "town_kana": "コウザシマチテンマン",
    "street": null,
    "office_name": null,
    "office_name_kana": null
  },
  "0071": {
    "postcode": "9650071",
    "prefecture": "福島県",
    "prefecture_kana": "フクシマケン",
    "prefecture_code": 7,
    "city": "会津若松市",
    "city_kana": "アイヅワカマツシ",
    "town": "高野町木流",
    "town_kana": "コウヤマチキナガシ",
    "street": null,
    "office_name": null,
    "office_name_kana": null
  },
  "0072": {
    "postcode": "9650072",
    "prefecture": "福島県",
    "prefecture_kana": "フクシマケン",
    "prefecture_code": 7,
    "city": "会津若松市",
    "city_kana": "アイヅワカマツシ",
    "town": "高野町橋本木流",
    "town_kana": "コウヤマチハシモトキナガシ",
    "street": null,
    "office_name": null,
    "office_name_kana": null
  },
  "0073": {
    "postcode": "9650073",
    "prefecture": "福島県",
    "prefecture_kana": "フクシマケン",
    "prefecture_code": 7,
    "city": "会津若松市",
    "city_kana": "アイヅワカマツシ",
    "town": "高野町上沼",
    "town_kana": "コウヤマチウワヌマ",
    "street": null,
    "office_name": null,
    "office_name_kana": null
  },
  "0074": {
    "postcode": "9650074",
    "prefecture": "福島県",
    "prefecture_kana": "フクシマケン",
    "prefecture_code": 7,
    "city": "会津若松市",
    "city_kana": "アイヅワカマツシ",
    "town": "高野町平塚",
    "town_kana": "コウヤマチヒラツカ",
    "street": null,
    "office_name": null,
    "office_name_kana": null
  },
  "0075": {
    "postcode": "9650075",
    "prefecture": "福島県",
    "prefecture_kana": "フクシマケン",
    "prefecture_code": 7,
    "city": "会津若松市",
    "city_kana": "アイヅワカマツシ",
    "town": "高野町中前田",
    "town_kana": "コウヤマチナカマエダ",
    "street": null,
    "office_name": null,
    "office_name_kana": null
  },
  "0076": {
    "postcode": "9650076",
    "prefecture": "福島県",
    "prefecture_kana": "フクシマケン",
    "prefecture_code": 7,
    "city": "会津若松市",
    "city_kana": "アイヅワカマツシ",
    "town": "高野町中沼",
    "town_kana": "コウヤマチナカヌマ",
    "street": null,
    "office_name": null,
    "office_name_kana": null
  },
  "0077": {
    "postcode": "9650077",
    "prefecture": "福島県",
    "prefecture_kana": "フクシマケン",
    "prefecture_code": 7,
    "city": "会津若松市",
    "city_kana": "アイヅワカマツシ",
    "town": "高野町上高野",
    "town_kana": "コウヤマチカミコウヤ",
    "street": null,
    "office_name": null,
    "office_name_kana": null
  },
  "0078": {
    "postcode": "9650078",
    "prefecture": "福島県",
    "prefecture_kana": "フクシマケン",
    "prefecture_code": 7,
    "city": "会津若松市",
    "city_kana": "アイヅワカマツシ",
    "town": "高野町柳川",
    "town_kana": "コウヤマチヤナガワ",
    "street": null,
    "office_name": null,
    "office_name_kana": null
  },
  "0079": {
    "postcode": "9650079",
    "prefecture": "福島県",
    "prefecture_kana": "フクシマケン",
    "prefecture_code": 7,
    "city": "会津若松市",
    "city_kana": "アイヅワカマツシ",
    "town": "高野町界沢",
    "town_kana": "コウヤマチサカイザワ",
    "street": null,
    "office_name": null,
    "office_name_kana": null
  },
  "0080": {
    "postcode": "9650080",
    "prefecture": "福島県",
    "prefecture_kana": "フクシマケン",
    "prefecture_code": 7,
    "city": "会津若松市",
    "city_kana": "アイヅワカマツシ",
    "town": "神指町橋本",
    "town_kana": "コウザシマチハシモト",
    "street": null,
    "office_name": null,
    "office_name_kana": null
  },
  "0081": {
    "postcode": "9650081",
    "prefecture": "福島県",
    "prefecture_kana": "フクシマケン",
    "prefecture_code": 7,
    "city": "会津若松市",
    "city_kana": "アイヅワカマツシ",
    "town": "神指町西城戸",
    "town_kana": "コウザシマチニシキド",
    "street": null,
    "office_name": null,
    "office_name_kana": null
  },
  "0082": {
    "postcode": "9650082",
    "prefecture": "福島県",
    "prefecture_kana": "フクシマケン",
    "prefecture_code": 7,
    "city": "会津若松市",
    "city_kana": "アイヅワカマツシ",
    "town": "神指町榎木檀",
    "town_kana": "コウザシマチエノキダン",
    "street": null,
    "office_name": null,
    "office_name_kana": null
  },
  "0083": {
    "postcode": "9650083",
    "prefecture": "福島県",
    "prefecture_kana": "フクシマケン",
    "prefecture_code": 7,
    "city": "会津若松市",
    "city_kana": "アイヅワカマツシ",
    "town": "神指町上神指",
    "town_kana": "コウザシマチカミコウザシ",
    "street": null,
    "office_name": null,
    "office_name_kana": null
  },
  "0084": {
    "postcode": "9650084",
    "prefecture": "福島県",
    "prefecture_kana": "フクシマケン",
    "prefecture_code": 7,
    "city": "会津若松市",
    "city_kana": "アイヅワカマツシ",
    "town": "神指町東神指",
    "town_kana": "コウザシマチヒガシコウザシ",
    "street": null,
    "office_name": null,
    "office_name_kana": null
  },
  "0085": {
    "postcode": "9650085",
    "prefecture": "福島県",
    "prefecture_kana": "フクシマケン",
    "prefecture_code": 7,
    "city": "会津若松市",
    "city_kana": "アイヅワカマツシ",
    "town": "神指町如来堂",
    "town_kana": "コウザシマチニョライドウ",
    "street": null,
    "office_name": null,
    "office_name_kana": null
  },
  "0086": {
    "postcode": "9650086",
    "prefecture": "福島県",
    "prefecture_kana": "フクシマケン",
    "prefecture_code": 7,
    "city": "会津若松市",
    "city_kana": "アイヅワカマツシ",
    "town": "神指町本丸",
    "town_kana": "コウザシマチホンマル",
    "street": null,
    "office_name": null,
    "office_name_kana": null
  },
  "0087": {
    "postcode": "9650087",
    "prefecture": "福島県",
    "prefecture_kana": "フクシマケン",
    "prefecture_code": 7,
    "city": "会津若松市",
    "city_kana": "アイヅワカマツシ",
    "town": "神指町高瀬新田",
    "town_kana": "コウザシマチタカセシンデン",
    "street": null,
    "office_name": null,
    "office_name_kana": null
  },
  "0088": {
    "postcode": "9650088",
    "prefecture": "福島県",
    "prefecture_kana": "フクシマケン",
    "prefecture_code": 7,
    "city": "会津若松市",
    "city_kana": "アイヅワカマツシ",
    "town": "町北町中沢西",
    "town_kana": "マチキタマチナカサワニシ",
    "street": null,
    "office_name": null,
    "office_name_kana": null
  },
  "0089": {
    "postcode": "9650089",
    "prefecture": "福島県",
    "prefecture_kana": "フクシマケン",
    "prefecture_code": 7,
    "city": "会津若松市",
    "city_kana": "アイヅワカマツシ",
    "town": "神指町東城戸",
    "town_kana": "コウザシマチヒガシキド",
    "street": null,
    "office_name": null,
    "office_name_kana": null
  },
  "0101": {
    "postcode": "9650101",
    "prefecture": "福島県",
    "prefecture_kana": "フクシマケン",
    "prefecture_code": 7,
    "city": "会津若松市",
    "city_kana": "アイヅワカマツシ",
    "town": "北会津町真宮",
    "town_kana": "キタアイヅマチマミヤ",
    "street": null,
    "office_name": null,
    "office_name_kana": null
  },
  "0102": {
    "postcode": "9650102",
    "prefecture": "福島県",
    "prefecture_kana": "フクシマケン",
    "prefecture_code": 7,
    "city": "会津若松市",
    "city_kana": "アイヅワカマツシ",
    "town": "真宮新町北",
    "town_kana": "マミヤシンマチキタ",
    "street": null,
    "office_name": null,
    "office_name_kana": null
  },
  "0103": {
    "postcode": "9650103",
    "prefecture": "福島県",
    "prefecture_kana": "フクシマケン",
    "prefecture_code": 7,
    "city": "会津若松市",
    "city_kana": "アイヅワカマツシ",
    "town": "真宮新町南",
    "town_kana": "マミヤシンマチミナミ",
    "street": null,
    "office_name": null,
    "office_name_kana": null
  },
  "0107": {
    "postcode": "9650107",
    "prefecture": "福島県",
    "prefecture_kana": "フクシマケン",
    "prefecture_code": 7,
    "city": "会津若松市",
    "city_kana": "アイヅワカマツシ",
    "town": "北会津町和泉",
    "town_kana": "キタアイヅマチイズミ",
    "street": null,
    "office_name": null,
    "office_name_kana": null
  },
  "0110": {
    "postcode": "9650110",
    "prefecture": "福島県",
    "prefecture_kana": "フクシマケン",
    "prefecture_code": 7,
    "city": "会津若松市",
    "city_kana": "アイヅワカマツシ",
    "town": "北会津町中里",
    "town_kana": "キタアイヅマチナカザト",
    "street": null,
    "office_name": null,
    "office_name_kana": null
  },
  "0111": {
    "postcode": "9650111",
    "prefecture": "福島県",
    "prefecture_kana": "フクシマケン",
    "prefecture_code": 7,
    "city": "会津若松市",
    "city_kana": "アイヅワカマツシ",
    "town": "北会津町下荒井",
    "town_kana": "キタアイヅマチシモアライ",
    "street": null,
    "office_name": null,
    "office_name_kana": null
  },
  "0112": {
    "postcode": "9650112",
    "prefecture": "福島県",
    "prefecture_kana": "フクシマケン",
    "prefecture_code": 7,
    "city": "会津若松市",
    "city_kana": "アイヅワカマツシ",
    "town": "北会津町白山",
    "town_kana": "キタアイヅマチハクサン",
    "street": null,
    "office_name": null,
    "office_name_kana": null
  },
  "0113": {
    "postcode": "9650113",
    "prefecture": "福島県",
    "prefecture_kana": "フクシマケン",
    "prefecture_code": 7,
    "city": "会津若松市",
    "city_kana": "アイヅワカマツシ",
    "town": "北会津町安良田",
    "town_kana": "キタアイヅマチアラタ",
    "street": null,
    "office_name": null,
    "office_name_kana": null
  },
  "0114": {
    "postcode": "9650114",
    "prefecture": "福島県",
    "prefecture_kana": "フクシマケン",
    "prefecture_code": 7,
    "city": "会津若松市",
    "city_kana": "アイヅワカマツシ",
    "town": "北会津町宮ノ下",
    "town_kana": "キタアイヅマチミヤノシタ",
    "street": null,
    "office_name": null,
    "office_name_kana": null
  },
  "0115": {
    "postcode": "9650115",
    "prefecture": "福島県",
    "prefecture_kana": "フクシマケン",
    "prefecture_code": 7,
    "city": "会津若松市",
    "city_kana": "アイヅワカマツシ",
    "town": "北会津町舘",
    "town_kana": "キタアイヅマチタテ",
    "street": null,
    "office_name": null,
    "office_name_kana": null
  },
  "0116": {
    "postcode": "9650116",
    "prefecture": "福島県",
    "prefecture_kana": "フクシマケン",
    "prefecture_code": 7,
    "city": "会津若松市",
    "city_kana": "アイヅワカマツシ",
    "town": "北会津町出尻",
    "town_kana": "キタアイヅマチイデジリ",
    "street": null,
    "office_name": null,
    "office_name_kana": null
  },
  "0117": {
    "postcode": "9650117",
    "prefecture": "福島県",
    "prefecture_kana": "フクシマケン",
    "prefecture_code": 7,
    "city": "会津若松市",
    "city_kana": "アイヅワカマツシ",
    "town": "北会津町田村山",
    "town_kana": "キタアイヅマチタムラヤマ",
    "street": null,
    "office_name": null,
    "office_name_kana": null
  },
  "0118": {
    "postcode": "9650118",
    "prefecture": "福島県",
    "prefecture_kana": "フクシマケン",
    "prefecture_code": 7,
    "city": "会津若松市",
    "city_kana": "アイヅワカマツシ",
    "town": "北会津町石原",
    "town_kana": "キタアイヅマチイシハラ",
    "street": null,
    "office_name": null,
    "office_name_kana": null
  },
  "0121": {
    "postcode": "9650121",
    "prefecture": "福島県",
    "prefecture_kana": "フクシマケン",
    "prefecture_code": 7,
    "city": "会津若松市",
    "city_kana": "アイヅワカマツシ",
    "town": "北会津町蟹川",
    "town_kana": "キタアイヅマチカニカワ",
    "street": null,
    "office_name": null,
    "office_name_kana": null
  },
  "0124": {
    "postcode": "9650124",
    "prefecture": "福島県",
    "prefecture_kana": "フクシマケン",
    "prefecture_code": 7,
    "city": "会津若松市",
    "city_kana": "アイヅワカマツシ",
    "town": "北会津町宮袋",
    "town_kana": "キタアイヅマチミヤブクロ",
    "street": null,
    "office_name": null,
    "office_name_kana": null
  },
  "0126": {
    "postcode": "9650126",
    "prefecture": "福島県",
    "prefecture_kana": "フクシマケン",
    "prefecture_code": 7,
    "city": "会津若松市",
    "city_kana": "アイヅワカマツシ",
    "town": "北会津町鷺林",
    "town_kana": "キタアイヅマチサギバヤシ",
    "street": null,
    "office_name": null,
    "office_name_kana": null
  },
  "0127": {
    "postcode": "9650127",
    "prefecture": "福島県",
    "prefecture_kana": "フクシマケン",
    "prefecture_code": 7,
    "city": "会津若松市",
    "city_kana": "アイヅワカマツシ",
    "town": "北会津町宮袋新田",
    "town_kana": "キタアイヅマチミヤブクロシンデン",
    "street": null,
    "office_name": null,
    "office_name_kana": null
  },
  "0128": {
    "postcode": "9650128",
    "prefecture": "福島県",
    "prefecture_kana": "フクシマケン",
    "prefecture_code": 7,
    "city": "会津若松市",
    "city_kana": "アイヅワカマツシ",
    "town": "北会津町十二所",
    "town_kana": "キタアイヅマチジュウニショ",
    "street": null,
    "office_name": null,
    "office_name_kana": null
  },
  "0129": {
    "postcode": "9650129",
    "prefecture": "福島県",
    "prefecture_kana": "フクシマケン",
    "prefecture_code": 7,
    "city": "会津若松市",
    "city_kana": "アイヅワカマツシ",
    "town": "北会津町本田",
    "town_kana": "キタアイヅマチホンダ",
    "street": null,
    "office_name": null,
    "office_name_kana": null
  },
  "0131": {
    "postcode": "9650131",
    "prefecture": "福島県",
    "prefecture_kana": "フクシマケン",
    "prefecture_code": 7,
    "city": "会津若松市",
    "city_kana": "アイヅワカマツシ",
    "town": "北会津町中荒井",
    "town_kana": "キタアイヅマチナカアライ",
    "street": null,
    "office_name": null,
    "office_name_kana": null
  },
  "0132": {
    "postcode": "9650132",
    "prefecture": "福島県",
    "prefecture_kana": "フクシマケン",
    "prefecture_code": 7,
    "city": "会津若松市",
    "city_kana": "アイヅワカマツシ",
    "town": "北会津町ほたるの森",
    "town_kana": "キタアイヅマチホタルノモリ",
    "street": null,
    "office_name": null,
    "office_name_kana": null
  },
  "0133": {
    "postcode": "9650133",
    "prefecture": "福島県",
    "prefecture_kana": "フクシマケン",
    "prefecture_code": 7,
    "city": "会津若松市",
    "city_kana": "アイヅワカマツシ",
    "town": "北会津町二日町",
    "town_kana": "キタアイヅマチフツカマチ",
    "street": null,
    "office_name": null,
    "office_name_kana": null
  },
  "0134": {
    "postcode": "9650134",
    "prefecture": "福島県",
    "prefecture_kana": "フクシマケン",
    "prefecture_code": 7,
    "city": "会津若松市",
    "city_kana": "アイヅワカマツシ",
    "town": "北会津町東麻生",
    "town_kana": "キタアイヅマチヒガシアソウ",
    "street": null,
    "office_name": null,
    "office_name_kana": null
  },
  "0135": {
    "postcode": "9650135",
    "prefecture": "福島県",
    "prefecture_kana": "フクシマケン",
    "prefecture_code": 7,
    "city": "会津若松市",
    "city_kana": "アイヅワカマツシ",
    "town": "北会津町寺堀",
    "town_kana": "キタアイヅマチテラボリ",
    "street": null,
    "office_name": null,
    "office_name_kana": null
  },
  "0136": {
    "postcode": "9650136",
    "prefecture": "福島県",
    "prefecture_kana": "フクシマケン",
    "prefecture_code": 7,
    "city": "会津若松市",
    "city_kana": "アイヅワカマツシ",
    "town": "北会津町今和泉",
    "town_kana": "キタアイヅマチイマイズミ",
    "street": null,
    "office_name": null,
    "office_name_kana": null
  },
  "0201": {
    "postcode": "9650201",
    "prefecture": "福島県",
    "prefecture_kana": "フクシマケン",
    "prefecture_code": 7,
    "city": "会津若松市",
    "city_kana": "アイヅワカマツシ",
    "town": "湊町赤井",
    "town_kana": "ミナトマチアカイ",
    "street": null,
    "office_name": null,
    "office_name_kana": null
  },
  "0202": {
    "postcode": "9650202",
    "prefecture": "福島県",
    "prefecture_kana": "フクシマケン",
    "prefecture_code": 7,
    "city": "会津若松市",
    "city_kana": "アイヅワカマツシ",
    "town": "湊町共和",
    "town_kana": "ミナトマチキョウワ",
    "street": null,
    "office_name": null,
    "office_name_kana": null
  },
  "0203": {
    "postcode": "9650203",
    "prefecture": "福島県",
    "prefecture_kana": "フクシマケン",
    "prefecture_code": 7,
    "city": "会津若松市",
    "city_kana": "アイヅワカマツシ",
    "town": "湊町静潟",
    "town_kana": "ミナトマチシズカタ",
    "street": null,
    "office_name": null,
    "office_name_kana": null
  },
  "0204": {
    "postcode": "9650204",
    "prefecture": "福島県",
    "prefecture_kana": "フクシマケン",
    "prefecture_code": 7,
    "city": "会津若松市",
    "city_kana": "アイヅワカマツシ",
    "town": "湊町原",
    "town_kana": "ミナトマチハラ",
    "street": null,
    "office_name": null,
    "office_name_kana": null
  },
  "0205": {
    "postcode": "9650205",
    "prefecture": "福島県",
    "prefecture_kana": "フクシマケン",
    "prefecture_code": 7,
    "city": "会津若松市",
    "city_kana": "アイヅワカマツシ",
    "town": "湊町平潟",
    "town_kana": "ミナトマチヒラカタ",
    "street": null,
    "office_name": null,
    "office_name_kana": null
  },
  "0801": {
    "postcode": "9650801",
    "prefecture": "福島県",
    "prefecture_kana": "フクシマケン",
    "prefecture_code": 7,
    "city": "会津若松市",
    "city_kana": "アイヅワカマツシ",
    "town": "宮町",
    "town_kana": "ミヤマチ",
    "street": null,
    "office_name": null,
    "office_name_kana": null
  },
  "0802": {
    "postcode": "9650802",
    "prefecture": "福島県",
    "prefecture_kana": "フクシマケン",
    "prefecture_code": 7,
    "city": "会津若松市",
    "city_kana": "アイヅワカマツシ",
    "town": "徒之町",
    "town_kana": "カチノマチ",
    "street": null,
    "office_name": null,
    "office_name_kana": null
  },
  "0803": {
    "postcode": "9650803",
    "prefecture": "福島県",
    "prefecture_kana": "フクシマケン",
    "prefecture_code": 7,
    "city": "会津若松市",
    "city_kana": "アイヅワカマツシ",
    "town": "城前",
    "town_kana": "シロマエ",
    "street": null,
    "office_name": null,
    "office_name_kana": null
  },
  "0804": {
    "postcode": "9650804",
    "prefecture": "福島県",
    "prefecture_kana": "フクシマケン",
    "prefecture_code": 7,
    "city": "会津若松市",
    "city_kana": "アイヅワカマツシ",
    "town": "花春町",
    "town_kana": "ハナハルマチ",
    "street": null,
    "office_name": null,
    "office_name_kana": null
  },
  "0805": {
    "postcode": "9650805",
    "prefecture": "福島県",
    "prefecture_kana": "フクシマケン",
    "prefecture_code": 7,
    "city": "会津若松市",
    "city_kana": "アイヅワカマツシ",
    "town": "天寧寺町",
    "town_kana": "テンネイジマチ",
    "street": null,
    "office_name": null,
    "office_name_kana": null
  },
  "0806": {
    "postcode": "9650806",
    "prefecture": "福島県",
    "prefecture_kana": "フクシマケン",
    "prefecture_code": 7,
    "city": "会津若松市",
    "city_kana": "アイヅワカマツシ",
    "town": "宝町",
    "town_kana": "タカラマチ",
    "street": null,
    "office_name": null,
    "office_name_kana": null
  },
  "0807": {
    "postcode": "9650807",
    "prefecture": "福島県",
    "prefecture_kana": "フクシマケン",
    "prefecture_code": 7,
    "city": "会津若松市",
    "city_kana": "アイヅワカマツシ",
    "town": "城東町",
    "town_kana": "ジョウトウマチ",
    "street": null,
    "office_name": null,
    "office_name_kana": null
  },
  "0808": {
    "postcode": "9650808",
    "prefecture": "福島県",
    "prefecture_kana": "フクシマケン",
    "prefecture_code": 7,
    "city": "会津若松市",
    "city_kana": "アイヅワカマツシ",
    "town": "南町",
    "town_kana": "ミナミマチ",
    "street": null,
    "office_name": null,
    "office_name_kana": null
  },
  "0809": {
    "postcode": "9650809",
    "prefecture": "福島県",
    "prefecture_kana": "フクシマケン",
    "prefecture_code": 7,
    "city": "会津若松市",
    "city_kana": "アイヅワカマツシ",
    "town": "城南町",
    "town_kana": "ジョウナンマチ",
    "street": null,
    "office_name": null,
    "office_name_kana": null
  },
  "0811": {
    "postcode": "9650811",
    "prefecture": "福島県",
    "prefecture_kana": "フクシマケン",
    "prefecture_code": 7,
    "city": "会津若松市",
    "city_kana": "アイヅワカマツシ",
    "town": "和田",
    "town_kana": "ワダ",
    "street": null,
    "office_name": null,
    "office_name_kana": null
  },
  "0812": {
    "postcode": "9650812",
    "prefecture": "福島県",
    "prefecture_kana": "フクシマケン",
    "prefecture_code": 7,
    "city": "会津若松市",
    "city_kana": "アイヅワカマツシ",
    "town": "慶山",
    "town_kana": "ケイザン",
    "street": null,
    "office_name": null,
    "office_name_kana": null
  },
  "0813": {
    "postcode": "9650813",
    "prefecture": "福島県",
    "prefecture_kana": "フクシマケン",
    "prefecture_code": 7,
    "city": "会津若松市",
    "city_kana": "アイヅワカマツシ",
    "town": "東山町石山",
    "town_kana": "ヒガシヤママチイシヤマ",
    "street": null,
    "office_name": null,
    "office_name_kana": null
  },
  "0814": {
    "postcode": "9650814",
    "prefecture": "福島県",
    "prefecture_kana": "フクシマケン",
    "prefecture_code": 7,
    "city": "会津若松市",
    "city_kana": "アイヅワカマツシ",
    "town": "東山町湯本",
    "town_kana": "ヒガシヤママチユモト",
    "street": null,
    "office_name": null,
    "office_name_kana": null
  },
  "0815": {
    "postcode": "9650815",
    "prefecture": "福島県",
    "prefecture_kana": "フクシマケン",
    "prefecture_code": 7,
    "city": "会津若松市",
    "city_kana": "アイヅワカマツシ",
    "town": "東山町湯川",
    "town_kana": "ヒガシヤママチユガワ",
    "street": null,
    "office_name": null,
    "office_name_kana": null
  },
  "0816": {
    "postcode": "9650816",
    "prefecture": "福島県",
    "prefecture_kana": "フクシマケン",
    "prefecture_code": 7,
    "city": "会津若松市",
    "city_kana": "アイヅワカマツシ",
    "town": "南千石町",
    "town_kana": "ミナミセンゴクマチ",
    "street": null,
    "office_name": null,
    "office_name_kana": null
  },
  "0817": {
    "postcode": "9650817",
    "prefecture": "福島県",
    "prefecture_kana": "フクシマケン",
    "prefecture_code": 7,
    "city": "会津若松市",
    "city_kana": "アイヅワカマツシ",
    "town": "千石町",
    "town_kana": "センゴクマチ",
    "street": null,
    "office_name": null,
    "office_name_kana": null
  },
  "0818": {
    "postcode": "9650818",
    "prefecture": "福島県",
    "prefecture_kana": "フクシマケン",
    "prefecture_code": 7,
    "city": "会津若松市",
    "city_kana": "アイヅワカマツシ",
    "town": "東千石",
    "town_kana": "ヒガシセンゴク",
    "street": null,
    "office_name": null,
    "office_name_kana": null
  },
  "0821": {
    "postcode": "9650821",
    "prefecture": "福島県",
    "prefecture_kana": "フクシマケン",
    "prefecture_code": 7,
    "city": "会津若松市",
    "city_kana": "アイヅワカマツシ",
    "town": "湯川南",
    "town_kana": "ユガワミナミ",
    "street": null,
    "office_name": null,
    "office_name_kana": null
  },
  "0822": {
    "postcode": "9650822",
    "prefecture": "福島県",
    "prefecture_kana": "フクシマケン",
    "prefecture_code": 7,
    "city": "会津若松市",
    "city_kana": "アイヅワカマツシ",
    "town": "花見ケ丘",
    "town_kana": "ハナミガオカ",
    "street": null,
    "office_name": null,
    "office_name_kana": null
  },
  "0823": {
    "postcode": "9650823",
    "prefecture": "福島県",
    "prefecture_kana": "フクシマケン",
    "prefecture_code": 7,
    "city": "会津若松市",
    "city_kana": "アイヅワカマツシ",
    "town": "建福寺前",
    "town_kana": "ケンプクジマエ",
    "street": null,
    "office_name": null,
    "office_name_kana": null
  },
  "0824": {
    "postcode": "9650824",
    "prefecture": "福島県",
    "prefecture_kana": "フクシマケン",
    "prefecture_code": 7,
    "city": "会津若松市",
    "city_kana": "アイヅワカマツシ",
    "town": "北青木",
    "town_kana": "キタアオキ",
    "street": null,
    "office_name": null,
    "office_name_kana": null
  },
  "0825": {
    "postcode": "9650825",
    "prefecture": "福島県",
    "prefecture_kana": "フクシマケン",
    "prefecture_code": 7,
    "city": "会津若松市",
    "city_kana": "アイヅワカマツシ",
    "town": "門田町黒岩",
    "town_kana": "モンデンマチクロイワ",
    "street": null,
    "office_name": null,
    "office_name_kana": null
  },
  "0826": {
    "postcode": "9650826",
    "prefecture": "福島県",
    "prefecture_kana": "フクシマケン",
    "prefecture_code": 7,
    "city": "会津若松市",
    "city_kana": "アイヅワカマツシ",
    "town": "門田町御山",
    "town_kana": "モンデンマチオヤマ",
    "street": null,
    "office_name": null,
    "office_name_kana": null
  },
  "0827": {
    "postcode": "9650827",
    "prefecture": "福島県",
    "prefecture_kana": "フクシマケン",
    "prefecture_code": 7,
    "city": "会津若松市",
    "city_kana": "アイヅワカマツシ",
    "town": "門田町堤沢",
    "town_kana": "モンデンマチツツミザワ",
    "street": null,
    "office_name": null,
    "office_name_kana": null
  },
  "0828": {
    "postcode": "9650828",
    "prefecture": "福島県",
    "prefecture_kana": "フクシマケン",
    "prefecture_code": 7,
    "city": "会津若松市",
    "city_kana": "アイヅワカマツシ",
    "town": "門田町面川",
    "town_kana": "モンデンマチオモガワ",
    "street": null,
    "office_name": null,
    "office_name_kana": null
  },
  "0829": {
    "postcode": "9650829",
    "prefecture": "福島県",
    "prefecture_kana": "フクシマケン",
    "prefecture_code": 7,
    "city": "会津若松市",
    "city_kana": "アイヅワカマツシ",
    "town": "門田町根岸東",
    "town_kana": "モンデンマチネギシヒガシ",
    "street": null,
    "office_name": null,
    "office_name_kana": null
  },
  "0830": {
    "postcode": "9650830",
    "prefecture": "福島県",
    "prefecture_kana": "フクシマケン",
    "prefecture_code": 7,
    "city": "会津若松市",
    "city_kana": "アイヅワカマツシ",
    "town": "西年貢",
    "town_kana": "ニシネング",
    "street": null,
    "office_name": null,
    "office_name_kana": null
  },
  "0831": {
    "postcode": "9650831",
    "prefecture": "福島県",
    "prefecture_kana": "フクシマケン",
    "prefecture_code": 7,
    "city": "会津若松市",
    "city_kana": "アイヅワカマツシ",
    "town": "表町",
    "town_kana": "オモテマチ",
    "street": null,
    "office_name": null,
    "office_name_kana": null
  },
  "0832": {
    "postcode": "9650832",
    "prefecture": "福島県",
    "prefecture_kana": "フクシマケン",
    "prefecture_code": 7,
    "city": "会津若松市",
    "city_kana": "アイヅワカマツシ",
    "town": "天神町",
    "town_kana": "テンジンマチ",
    "street": null,
    "office_name": null,
    "office_name_kana": null
  },
  "0833": {
    "postcode": "9650833",
    "prefecture": "福島県",
    "prefecture_kana": "フクシマケン",
    "prefecture_code": 7,
    "city": "会津若松市",
    "city_kana": "アイヅワカマツシ",
    "town": "明和町",
    "town_kana": "メイワマチ",
    "street": null,
    "office_name": null,
    "office_name_kana": null
  },
  "0834": {
    "postcode": "9650834",
    "prefecture": "福島県",
    "prefecture_kana": "フクシマケン",
    "prefecture_code": 7,
    "city": "会津若松市",
    "city_kana": "アイヅワカマツシ",
    "town": "門田町年貢町",
    "town_kana": "モンデンマチネングマチ",
    "street": null,
    "office_name": null,
    "office_name_kana": null
  },
  "0835": {
    "postcode": "9650835",
    "prefecture": "福島県",
    "prefecture_kana": "フクシマケン",
    "prefecture_code": 7,
    "city": "会津若松市",
    "city_kana": "アイヅワカマツシ",
    "town": "館馬町",
    "town_kana": "タテウママチ",
    "street": null,
    "office_name": null,
    "office_name_kana": null
  },
  "0836": {
    "postcode": "9650836",
    "prefecture": "福島県",
    "prefecture_kana": "フクシマケン",
    "prefecture_code": 7,
    "city": "会津若松市",
    "city_kana": "アイヅワカマツシ",
    "town": "館脇町",
    "town_kana": "タテワキマチ",
    "street": null,
    "office_name": null,
    "office_name_kana": null
  },
  "0837": {
    "postcode": "9650837",
    "prefecture": "福島県",
    "prefecture_kana": "フクシマケン",
    "prefecture_code": 7,
    "city": "会津若松市",
    "city_kana": "アイヅワカマツシ",
    "town": "錦町",
    "town_kana": "ニシキマチ",
    "street": null,
    "office_name": null,
    "office_name_kana": null
  },
  "0838": {
    "postcode": "9650838",
    "prefecture": "福島県",
    "prefecture_kana": "フクシマケン",
    "prefecture_code": 7,
    "city": "会津若松市",
    "city_kana": "アイヅワカマツシ",
    "town": "古川町",
    "town_kana": "フルカワマチ",
    "street": null,
    "office_name": null,
    "office_name_kana": null
  },
  "0839": {
    "postcode": "9650839",
    "prefecture": "福島県",
    "prefecture_kana": "フクシマケン",
    "prefecture_code": 7,
    "city": "会津若松市",
    "city_kana": "アイヅワカマツシ",
    "town": "東年貢",
    "town_kana": "ヒガシネング",
    "street": null,
    "office_name": null,
    "office_name_kana": null
  },
  "0840": {
    "postcode": "9650840",
    "prefecture": "福島県",
    "prefecture_kana": "フクシマケン",
    "prefecture_code": 7,
    "city": "会津若松市",
    "city_kana": "アイヅワカマツシ",
    "town": "飯寺南",
    "town_kana": "ニイデラミナミ",
    "street": null,
    "office_name": null,
    "office_name_kana": null
  },
  "0841": {
    "postcode": "9650841",
    "prefecture": "福島県",
    "prefecture_kana": "フクシマケン",
    "prefecture_code": 7,
    "city": "会津若松市",
    "city_kana": "アイヅワカマツシ",
    "town": "門田町日吉",
    "town_kana": "モンデンマチヒヨシ",
    "street": null,
    "office_name": null,
    "office_name_kana": null
  },
  "0842": {
    "postcode": "9650842",
    "prefecture": "福島県",
    "prefecture_kana": "フクシマケン",
    "prefecture_code": 7,
    "city": "会津若松市",
    "city_kana": "アイヅワカマツシ",
    "town": "門田町中野",
    "town_kana": "モンデンマチナカノ",
    "street": null,
    "office_name": null,
    "office_name_kana": null
  },
  "0843": {
    "postcode": "9650843",
    "prefecture": "福島県",
    "prefecture_kana": "フクシマケン",
    "prefecture_code": 7,
    "city": "会津若松市",
    "city_kana": "アイヅワカマツシ",
    "town": "門田町徳久",
    "town_kana": "モンデンマチトクヒサ",
    "street": null,
    "office_name": null,
    "office_name_kana": null
  },
  "0844": {
    "postcode": "9650844",
    "prefecture": "福島県",
    "prefecture_kana": "フクシマケン",
    "prefecture_code": 7,
    "city": "会津若松市",
    "city_kana": "アイヅワカマツシ",
    "town": "門田町一ノ堰",
    "town_kana": "モンデンマチイチノセキ",
    "street": null,
    "office_name": null,
    "office_name_kana": null
  },
  "0845": {
    "postcode": "9650845",
    "prefecture": "福島県",
    "prefecture_kana": "フクシマケン",
    "prefecture_code": 7,
    "city": "会津若松市",
    "city_kana": "アイヅワカマツシ",
    "town": "門田町工業団地",
    "town_kana": "モンデンマチコウギョウダンチ",
    "street": null,
    "office_name": null,
    "office_name_kana": null
  },
  "0846": {
    "postcode": "9650846",
    "prefecture": "福島県",
    "prefecture_kana": "フクシマケン",
    "prefecture_code": 7,
    "city": "会津若松市",
    "city_kana": "アイヅワカマツシ",
    "town": "門田町飯寺",
    "town_kana": "モンデンマチニイデラ",
    "street": null,
    "office_name": null,
    "office_name_kana": null
  },
  "0847": {
    "postcode": "9650847",
    "prefecture": "福島県",
    "prefecture_kana": "フクシマケン",
    "prefecture_code": 7,
    "city": "会津若松市",
    "city_kana": "アイヅワカマツシ",
    "town": "対馬館町",
    "town_kana": "ツシマダテマチ",
    "street": null,
    "office_name": null,
    "office_name_kana": null
  },
  "0848": {
    "postcode": "9650848",
    "prefecture": "福島県",
    "prefecture_kana": "フクシマケン",
    "prefecture_code": 7,
    "city": "会津若松市",
    "city_kana": "アイヅワカマツシ",
    "town": "飯寺北",
    "town_kana": "ニイデラキタ",
    "street": null,
    "office_name": null,
    "office_name_kana": null
  },
  "0849": {
    "postcode": "9650849",
    "prefecture": "福島県",
    "prefecture_kana": "フクシマケン",
    "prefecture_code": 7,
    "city": "会津若松市",
    "city_kana": "アイヅワカマツシ",
    "town": "幕内南町",
    "town_kana": "マクウチミナミマチ",
    "street": null,
    "office_name": null,
    "office_name_kana": null
  },
  "0851": {
    "postcode": "9650851",
    "prefecture": "福島県",
    "prefecture_kana": "フクシマケン",
    "prefecture_code": 7,
    "city": "会津若松市",
    "city_kana": "アイヅワカマツシ",
    "town": "御旗町",
    "town_kana": "オハタマチ",
    "street": null,
    "office_name": null,
    "office_name_kana": null
  },
  "0852": {
    "postcode": "9650852",
    "prefecture": "福島県",
    "prefecture_kana": "フクシマケン",
    "prefecture_code": 7,
    "city": "会津若松市",
    "city_kana": "アイヅワカマツシ",
    "town": "日吉町",
    "town_kana": "ヒヨシマチ",
    "street": null,
    "office_name": null,
    "office_name_kana": null
  },
  "0853": {
    "postcode": "9650853",
    "prefecture": "福島県",
    "prefecture_kana": "フクシマケン",
    "prefecture_code": 7,
    "city": "会津若松市",
    "city_kana": "アイヅワカマツシ",
    "town": "材木町",
    "town_kana": "ザイモクマチ",
    "street": null,
    "office_name": null,
    "office_name_kana": null
  },
  "0854": {
    "postcode": "9650854",
    "prefecture": "福島県",
    "prefecture_kana": "フクシマケン",
    "prefecture_code": 7,
    "city": "会津若松市",
    "city_kana": "アイヅワカマツシ",
    "town": "桜町",
    "town_kana": "サクラマチ",
    "street": null,
    "office_name": null,
    "office_name_kana": null
  },
  "0855": {
    "postcode": "9650855",
    "prefecture": "福島県",
    "prefecture_kana": "フクシマケン",
    "prefecture_code": 7,
    "city": "会津若松市",
    "city_kana": "アイヅワカマツシ",
    "town": "住吉町",
    "town_kana": "スミヨシマチ",
    "street": null,
    "office_name": null,
    "office_name_kana": null
  },
  "0856": {
    "postcode": "9650856",
    "prefecture": "福島県",
    "prefecture_kana": "フクシマケン",
    "prefecture_code": 7,
    "city": "会津若松市",
    "city_kana": "アイヅワカマツシ",
    "town": "幕内東町",
    "town_kana": "マクウチヒガシマチ",
    "street": null,
    "office_name": null,
    "office_name_kana": null
  },
  "0857": {
    "postcode": "9650857",
    "prefecture": "福島県",
    "prefecture_kana": "フクシマケン",
    "prefecture_code": 7,
    "city": "会津若松市",
    "city_kana": "アイヅワカマツシ",
    "town": "柳原町",
    "town_kana": "ヤナギワラマチ",
    "street": null,
    "office_name": null,
    "office_name_kana": null
  },
  "0858": {
    "postcode": "9650858",
    "prefecture": "福島県",
    "prefecture_kana": "フクシマケン",
    "prefecture_code": 7,
    "city": "会津若松市",
    "city_kana": "アイヅワカマツシ",
    "town": "神指町南四合",
    "town_kana": "コウザシマチミナミシゴウ",
    "street": null,
    "office_name": null,
    "office_name_kana": null
  },
  "0859": {
    "postcode": "9650859",
    "prefecture": "福島県",
    "prefecture_kana": "フクシマケン",
    "prefecture_code": 7,
    "city": "会津若松市",
    "city_kana": "アイヅワカマツシ",
    "town": "神指町幕内",
    "town_kana": "コウザシマチマクウチ",
    "street": null,
    "office_name": null,
    "office_name_kana": null
  },
  "0861": {
    "postcode": "9650861",
    "prefecture": "福島県",
    "prefecture_kana": "フクシマケン",
    "prefecture_code": 7,
    "city": "会津若松市",
    "city_kana": "アイヅワカマツシ",
    "town": "日新町",
    "town_kana": "ニッシンマチ",
    "street": null,
    "office_name": null,
    "office_name_kana": null
  },
  "0862": {
    "postcode": "9650862",
    "prefecture": "福島県",
    "prefecture_kana": "フクシマケン",
    "prefecture_code": 7,
    "city": "会津若松市",
    "city_kana": "アイヅワカマツシ",
    "town": "本町",
    "town_kana": "ホンマチ",
    "street": null,
    "office_name": null,
    "office_name_kana": null
  },
  "0863": {
    "postcode": "9650863",
    "prefecture": "福島県",
    "prefecture_kana": "フクシマケン",
    "prefecture_code": 7,
    "city": "会津若松市",
    "city_kana": "アイヅワカマツシ",
    "town": "湯川町",
    "town_kana": "ユガワマチ",
    "street": null,
    "office_name": null,
    "office_name_kana": null
  },
  "0864": {
    "postcode": "9650864",
    "prefecture": "福島県",
    "prefecture_kana": "フクシマケン",
    "prefecture_code": 7,
    "city": "会津若松市",
    "city_kana": "アイヅワカマツシ",
    "town": "城西町",
    "town_kana": "ジョウサイマチ",
    "street": null,
    "office_name": null,
    "office_name_kana": null
  },
  "0865": {
    "postcode": "9650865",
    "prefecture": "福島県",
    "prefecture_kana": "フクシマケン",
    "prefecture_code": 7,
    "city": "会津若松市",
    "city_kana": "アイヅワカマツシ",
    "town": "川原町",
    "town_kana": "カワラマチ",
    "street": null,
    "office_name": null,
    "office_name_kana": null
  },
  "0866": {
    "postcode": "9650866",
    "prefecture": "福島県",
    "prefecture_kana": "フクシマケン",
    "prefecture_code": 7,
    "city": "会津若松市",
    "city_kana": "アイヅワカマツシ",
    "town": "新横町",
    "town_kana": "シンヨコマチ",
    "street": null,
    "office_name": null,
    "office_name_kana": null
  },
  "0867": {
    "postcode": "9650867",
    "prefecture": "福島県",
    "prefecture_kana": "フクシマケン",
    "prefecture_code": 7,
    "city": "会津若松市",
    "city_kana": "アイヅワカマツシ",
    "town": "緑町",
    "town_kana": "ミドリマチ",
    "street": null,
    "office_name": null,
    "office_name_kana": null
  },
  "0871": {
    "postcode": "9650871",
    "prefecture": "福島県",
    "prefecture_kana": "フクシマケン",
    "prefecture_code": 7,
    "city": "会津若松市",
    "city_kana": "アイヅワカマツシ",
    "town": "栄町",
    "town_kana": "サカエマチ",
    "street": null,
    "office_name": null,
    "office_name_kana": null
  },
  "0872": {
    "postcode": "9650872",
    "prefecture": "福島県",
    "prefecture_kana": "フクシマケン",
    "prefecture_code": 7,
    "city": "会津若松市",
    "city_kana": "アイヅワカマツシ",
    "town": "東栄町",
    "town_kana": "ヒガシサカエマチ",
    "street": null,
    "office_name": null,
    "office_name_kana": null
  },
  "0873": {
    "postcode": "9650873",
    "prefecture": "福島県",
    "prefecture_kana": "フクシマケン",
    "prefecture_code": 7,
    "city": "会津若松市",
    "city_kana": "アイヅワカマツシ",
    "town": "追手町",
    "town_kana": "オウテマチ",
    "street": null,
    "office_name": null,
    "office_name_kana": null
  },
  "0874": {
    "postcode": "9650874",
    "prefecture": "福島県",
    "prefecture_kana": "フクシマケン",
    "prefecture_code": 7,
    "city": "会津若松市",
    "city_kana": "アイヅワカマツシ",
    "town": "南花畑",
    "town_kana": "ミナミハナバタケ",
    "street": null,
    "office_name": null,
    "office_name_kana": null
  },
  "0875": {
    "postcode": "9650875",
    "prefecture": "福島県",
    "prefecture_kana": "フクシマケン",
    "prefecture_code": 7,
    "city": "会津若松市",
    "city_kana": "アイヅワカマツシ",
    "town": "米代",
    "town_kana": "ヨネダイ",
    "street": null,
    "office_name": null,
    "office_name_kana": null
  },
  "0876": {
    "postcode": "9650876",
    "prefecture": "福島県",
    "prefecture_kana": "フクシマケン",
    "prefecture_code": 7,
    "city": "会津若松市",
    "city_kana": "アイヅワカマツシ",
    "town": "山鹿町",
    "town_kana": "ヤマガマチ",
    "street": null,
    "office_name": null,
    "office_name_kana": null
  },
  "0877": {
    "postcode": "9650877",
    "prefecture": "福島県",
    "prefecture_kana": "フクシマケン",
    "prefecture_code": 7,
    "city": "会津若松市",
    "city_kana": "アイヅワカマツシ",
    "town": "西栄町",
    "town_kana": "ニシサカエマチ",
    "street": null,
    "office_name": null,
    "office_name_kana": null
  },
  "0878": {
    "postcode": "9650878",
    "prefecture": "福島県",
    "prefecture_kana": "フクシマケン",
    "prefecture_code": 7,
    "city": "会津若松市",
    "city_kana": "アイヅワカマツシ",
    "town": "中町",
    "town_kana": "ナカマチ",
    "street": null,
    "office_name": null,
    "office_name_kana": null
  },
  "8501": {
    "postcode": "9658501",
    "prefecture": "福島県",
    "prefecture_kana": "フクシマケン",
    "prefecture_code": 7,
    "city": "会津若松市",
    "city_kana": "アイヅワカマツシ",
    "town": "追手町",
    "town_kana": "オウテマチ",
    "street": "７−５",
    "office_name": "福島県　会津地方振興局",
    "office_name_kana": "フクシマケン アイヅチホウシンコウキヨク"
  },
  "8502": {
    "postcode": "9658502",
    "prefecture": "福島県",
    "prefecture_kana": "フクシマケン",
    "prefecture_code": 7,
    "city": "会津若松市",
    "city_kana": "アイヅワカマツシ",
    "town": "門田町工業団地",
    "town_kana": "モンデンマチコウギョウダンチ",
    "street": "４番地",
    "office_name": "会津富士通セミコンダクター　株式会社",
    "office_name_kana": "アイヅフジツウセミコンダクタ- カブシキガイシヤ"
  },
  "8503": {
    "postcode": "9658503",
    "prefecture": "福島県",
    "prefecture_kana": "フクシマケン",
    "prefecture_code": 7,
    "city": "会津若松市",
    "city_kana": "アイヅワカマツシ",
    "town": "山見町",
    "town_kana": "ヤマミマチ",
    "street": "２４８",
    "office_name": "会津若松警察署",
    "office_name_kana": "アイヅワカマツケイサツシヨ"
  },
  "8504": {
    "postcode": "9658504",
    "prefecture": "福島県",
    "prefecture_kana": "フクシマケン",
    "prefecture_code": 7,
    "city": "会津若松市",
    "city_kana": "アイヅワカマツシ",
    "town": "門田町工業団地",
    "town_kana": "モンデンマチコウギョウダンチ",
    "street": "４番６号",
    "office_name": "会津富士通セミコンダクターウェハーソリューション　株式会社",
    "office_name_kana": "アイヅフジツウセミコンダクタ-ウエハ-ソリユ-シヨン カブシキカイシヤ"
  },
  "8505": {
    "postcode": "9658505",
    "prefecture": "福島県",
    "prefecture_kana": "フクシマケン",
    "prefecture_code": 7,
    "city": "会津若松市",
    "city_kana": "アイヅワカマツシ",
    "town": "東栄町",
    "town_kana": "ヒガシサカエマチ",
    "street": "３−３８",
    "office_name": "東北電力　株式会社　会津若松支社",
    "office_name_kana": "トウホクデンリヨク カブシキガイシヤ アイヅワカマツシシヤ"
  },
  "8506": {
    "postcode": "9658506",
    "prefecture": "福島県",
    "prefecture_kana": "フクシマケン",
    "prefecture_code": 7,
    "city": "会津若松市",
    "city_kana": "アイヅワカマツシ",
    "town": "門田町工業団地",
    "town_kana": "モンデンマチコウギョウダンチ",
    "street": "６番地",
    "office_name": "会津富士通セミコンダクターマニュファクチャリング　株式会社",
    "office_name_kana": "アイヅフジツウセミコンダクタ-マニユフアクチヤリング カブシキガイシヤ"
  },
  "8510": {
    "postcode": "9658510",
    "prefecture": "福島県",
    "prefecture_kana": "フクシマケン",
    "prefecture_code": 7,
    "city": "会津若松市",
    "city_kana": "アイヅワカマツシ",
    "town": "栄町",
    "town_kana": "サカエマチ",
    "street": "２−４",
    "office_name": "ＮＴＴ東日本−福島　（株）　会津支店",
    "office_name_kana": "エヌテイテイヒガシニホン-フクシマ (カブ) アイヅシテン"
  },
  "8511": {
    "postcode": "9658511",
    "prefecture": "福島県",
    "prefecture_kana": "フクシマケン",
    "prefecture_code": 7,
    "city": "会津若松市",
    "city_kana": "アイヅワカマツシ",
    "town": "神指町東城戸",
    "town_kana": "コウザシマチヒガシキド",
    "street": "２０２番地",
    "office_name": "会津天宝醸造　株式会社",
    "office_name_kana": "アイヅテンポウジヨウゾウ カブシキガイシヤ"
  },
  "8516": {
    "postcode": "9658516",
    "prefecture": "福島県",
    "prefecture_kana": "フクシマケン",
    "prefecture_code": 7,
    "city": "会津若松市",
    "city_kana": "アイヅワカマツシ",
    "town": "追手町",
    "town_kana": "オウテマチ",
    "street": "５−１６",
    "office_name": "日本年金機構　会津若松年金事務所",
    "office_name_kana": "ニツポンネンキンキコウ アイヅワカマツネンキンジムシヨ"
  },
  "8520": {
    "postcode": "9658520",
    "prefecture": "福島県",
    "prefecture_kana": "フクシマケン",
    "prefecture_code": 7,
    "city": "会津若松市",
    "city_kana": "アイヅワカマツシ",
    "town": "門田町大字飯寺",
    "town_kana": null,
    "street": "字村西５００",
    "office_name": "オリンパス光電子　（株）　会津事業場",
    "office_name_kana": "オリンパスヒカリデンシ カブシキカイシヤ アイヅジギヨウジヨウ"
  },
  "8522": {
    "postcode": "9658522",
    "prefecture": "福島県",
    "prefecture_kana": "フクシマケン",
    "prefecture_code": 7,
    "city": "会津若松市",
    "city_kana": "アイヅワカマツシ",
    "town": "扇町",
    "town_kana": "オウギマチ",
    "street": "１２８−７",
    "office_name": "三菱伸銅　株式会社　若松製作所",
    "office_name_kana": "ミツビシシンドウ カブシキガイシヤ ワカマツセイサクシヨ"
  },
  "8530": {
    "postcode": "9658530",
    "prefecture": "福島県",
    "prefecture_kana": "フクシマケン",
    "prefecture_code": 7,
    "city": "会津若松市",
    "city_kana": "アイヅワカマツシ",
    "town": "神指町大字南四合",
    "town_kana": null,
    "street": "字幕内南１５４番地",
    "office_name": "アピタ会津若松店",
    "office_name_kana": "アピタアイヅワカマツテン"
  },
  "8540": {
    "postcode": "9658540",
    "prefecture": "福島県",
    "prefecture_kana": "フクシマケン",
    "prefecture_code": 7,
    "city": "会津若松市",
    "city_kana": "アイヅワカマツシ",
    "town": "追手町",
    "town_kana": "オウテマチ",
    "street": "６−６",
    "office_name": "福島地方裁判所　会津若松支部",
    "office_name_kana": "フクシマチホウサイバンシヨ アイヅワカマツシブ"
  },
  "8550": {
    "postcode": "9658550",
    "prefecture": "福島県",
    "prefecture_kana": "フクシマケン",
    "prefecture_code": 7,
    "city": "会津若松市",
    "city_kana": "アイヅワカマツシ",
    "town": "追手町",
    "town_kana": "オウテマチ",
    "street": "５−２２",
    "office_name": "若松営林署",
    "office_name_kana": "ワカマツエイリンシヨ"
  },
  "8558": {
    "postcode": "9658558",
    "prefecture": "福島県",
    "prefecture_kana": "フクシマケン",
    "prefecture_code": 7,
    "city": "会津若松市",
    "city_kana": "アイヅワカマツシ",
    "town": "門田町大字一ノ堰",
    "town_kana": null,
    "street": "字土手外１６８番地",
    "office_name": "リズム工機　株式会社",
    "office_name_kana": "リズムコウキ カブシキカイシヤ"
  },
  "8567": {
    "postcode": "9658567",
    "prefecture": "福島県",
    "prefecture_kana": "フクシマケン",
    "prefecture_code": 7,
    "city": "会津若松市",
    "city_kana": "アイヅワカマツシ",
    "town": "表町",
    "town_kana": "オモテマチ",
    "street": "２−７０",
    "office_name": "国土交通省　北陸地方整備局　阿賀川河川事務所",
    "office_name_kana": "コクドコウツウシヨウ ホクリクチホウセイビキヨク アガガワカセンジムシヨ"
  },
  "8570": {
    "postcode": "9658570",
    "prefecture": "福島県",
    "prefecture_kana": "フクシマケン",
    "prefecture_code": 7,
    "city": "会津若松市",
    "city_kana": "アイヅワカマツシ",
    "town": "一箕町大字八幡",
    "town_kana": null,
    "street": "字門田１−１",
    "office_name": "会津大学短期大学部",
    "office_name_kana": "アイヅダイガクタンキダイガクブ"
  },
  "8580": {
    "postcode": "9658580",
    "prefecture": "福島県",
    "prefecture_kana": "フクシマケン",
    "prefecture_code": 7,
    "city": "会津若松市",
    "city_kana": "アイヅワカマツシ",
    "town": "一箕町大字鶴賀",
    "town_kana": null,
    "street": "字上居合９０",
    "office_name": "会津大学",
    "office_name_kana": "アイヅダイガク"
  },
  "8585": {
    "postcode": "9658585",
    "prefecture": "福島県",
    "prefecture_kana": "フクシマケン",
    "prefecture_code": 7,
    "city": "会津若松市",
    "city_kana": "アイヅワカマツシ",
    "town": "山鹿町",
    "town_kana": "ヤマガマチ",
    "street": "３−２７",
    "office_name": "財団法人　竹田綜合病院",
    "office_name_kana": "ザイダンホウジン タケダソウゴウビヨウイン"
  },
  "8588": {
    "postcode": "9658588",
    "prefecture": "福島県",
    "prefecture_kana": "フクシマケン",
    "prefecture_code": 7,
    "city": "会津若松市",
    "city_kana": "アイヅワカマツシ",
    "town": "東山町大字石山",
    "town_kana": null,
    "street": "字院内７０６",
    "office_name": "（有）　東鳳",
    "office_name_kana": "ユウゲンカイシヤ トウホウ"
  },
  "8601": {
    "postcode": "9658601",
    "prefecture": "福島県",
    "prefecture_kana": "フクシマケン",
    "prefecture_code": 7,
    "city": "会津若松市",
    "city_kana": "アイヅワカマツシ",
    "town": "東栄町",
    "town_kana": "ヒガシサカエマチ",
    "street": "３−４６",
    "office_name": "会津若松市役所",
    "office_name_kana": "アイヅワカマツシヤクシヨ"
  },
  "8611": {
    "postcode": "9658611",
    "prefecture": "福島県",
    "prefecture_kana": "フクシマケン",
    "prefecture_code": 7,
    "city": "会津若松市",
    "city_kana": "アイヅワカマツシ",
    "town": "鶴賀町",
    "town_kana": "ツルガマチ",
    "street": "１−１",
    "office_name": "総合会津中央病院",
    "office_name_kana": "ソウゴウアイヅチユウオウビヨウイン"
  },
  "8678": {
    "postcode": "9658678",
    "prefecture": "福島県",
    "prefecture_kana": "フクシマケン",
    "prefecture_code": 7,
    "city": "会津若松市",
    "city_kana": "アイヅワカマツシ",
    "town": "大町",
    "town_kana": "オオマチ",
    "street": "１丁目１０−２８（会津若松郵便局私書箱第１号）",
    "office_name": "東邦銀行　会津支店",
    "office_name_kana": "トウホウギンコウ アイヅシテン"
  }
}