{
  "0000": {
    "postcode": "9660000",
    "prefecture": "福島県",
    "prefecture_kana": "フクシマケン",
    "prefecture_code": 7,
    "city": "喜多方市",
    "city_kana": "キタカタシ",
    "town": "",
    "town_kana": "",
    "street": null,
    "office_name": null,
    "office_name_kana": null
  },
  "0001": {
    "postcode": "9660001",
    "prefecture": "福島県",
    "prefecture_kana": "フクシマケン",
    "prefecture_code": 7,
    "city": "喜多方市",
    "city_kana": "キタカタシ",
    "town": "岩月町入田付",
    "town_kana": "イワツキマチイリタツキ",
    "street": null,
    "office_name": null,
    "office_name_kana": null
  },
  "0002": {
    "postcode": "9660002",
    "prefecture": "福島県",
    "prefecture_kana": "フクシマケン",
    "prefecture_code": 7,
    "city": "喜多方市",
    "city_kana": "キタカタシ",
    "town": "岩月町宮津",
    "town_kana": "イワツキマチミヤツ",
    "street": null,
    "office_name": null,
    "office_name_kana": null
  },
  "0003": {
    "postcode": "9660003",
    "prefecture": "福島県",
    "prefecture_kana": "フクシマケン",
    "prefecture_code": 7,
    "city": "喜多方市",
    "city_kana": "キタカタシ",
    "town": "岩月町橿野",
    "town_kana": "イワツキマチカシワノ",
    "street": null,
    "office_name": null,
    "office_name_kana": null
  },
  "0004": {
    "postcode": "9660004",
    "prefecture": "福島県",
    "prefecture_kana": "フクシマケン",
    "prefecture_code": 7,
    "city": "喜多方市",
    "city_kana": "キタカタシ",
    "town": "岩月町喜多方",
    "town_kana": "イワツキマチキタカタ",
    "street": null,
    "office_name": null,
    "office_name_kana": null
  },
  "0005": {
    "postcode": "9660005",
    "prefecture": "福島県",
    "prefecture_kana": "フクシマケン",
    "prefecture_code": 7,
    "city": "喜多方市",
    "city_kana": "キタカタシ",
    "town": "岩月町大都",
    "town_kana": "イワツキマチオオツ",
    "street": null,
    "office_name": null,
    "office_name_kana": null
  },
  "0006": {
    "postcode": "9660006",
    "prefecture": "福島県",
    "prefecture_kana": "フクシマケン",
    "prefecture_code": 7,
    "city": "喜多方市",
    "city_kana": "キタカタシ",
    "town": "北町上",
    "town_kana": "キタマチカミ",
    "street": null,
    "office_name": null,
    "office_name_kana": null
  },
  "0007": {
    "postcode": "9660007",
    "prefecture": "福島県",
    "prefecture_kana": "フクシマケン",
    "prefecture_code": 7,
    "city": "喜多方市",
    "city_kana": "キタカタシ",
    "town": "東桜ガ丘",
    "town_kana": "ヒガシサクラガオカ",
    "street": null,
    "office_name": null,
    "office_name_kana": null
  },
  "0011": {
    "postcode": "9660011",
    "prefecture": "福島県",
    "prefecture_kana": "フクシマケン",
    "prefecture_code": 7,
    "city": "喜多方市",
    "city_kana": "キタカタシ",
    "town": "関柴町関柴",
    "town_kana": "セキシバマチセキシバ",
    "street": null,
    "office_name": null,
    "office_name_kana": null
  },
  "0012": {
    "postcode": "9660012",
    "prefecture": "福島県",
    "prefecture_kana": "フクシマケン",
    "prefecture_code": 7,
    "city": "喜多方市",
    "city_kana": "キタカタシ",
    "town": "関柴町下柴",
    "town_kana": "セキシバマチシモシバ",
    "street": null,
    "office_name": null,
    "office_name_kana": null
  },
  "0013": {
    "postcode": "9660013",
    "prefecture": "福島県",
    "prefecture_kana": "フクシマケン",
    "prefecture_code": 7,
    "city": "喜多方市",
    "city_kana": "キタカタシ",
    "town": "関柴町豊芦",
    "town_kana": "セキシバマチトヨアシ",
    "street": null,
    "office_name": null,
    "office_name_kana": null
  },
  "0014": {
    "postcode": "9660014",
    "prefecture": "福島県",
    "prefecture_kana": "フクシマケン",
    "prefecture_code": 7,
    "city": "喜多方市",
    "city_kana": "キタカタシ",
    "town": "関柴町西勝",
    "town_kana": "セキシバマチサイカチ",
    "street": null,
    "office_name": null,
    "office_name_kana": null
  },
  "0015": {
    "postcode": "9660015",
    "prefecture": "福島県",
    "prefecture_kana": "フクシマケン",
    "prefecture_code": 7,
    "city": "喜多方市",
    "city_kana": "キタカタシ",
    "town": "関柴町上高額",
    "town_kana": "セキシバマチカミタカヒタイ",
    "street": null,
    "office_name": null,
    "office_name_kana": null
  },
  "0016": {
    "postcode": "9660016",
    "prefecture": "福島県",
    "prefecture_kana": "フクシマケン",
    "prefecture_code": 7,
    "city": "喜多方市",
    "city_kana": "キタカタシ",
    "town": "関柴町平林",
    "town_kana": "セキシバマチヒラバヤシ",
    "street": null,
    "office_name": null,
    "office_name_kana": null
  },
  "0017": {
    "postcode": "9660017",
    "prefecture": "福島県",
    "prefecture_kana": "フクシマケン",
    "prefecture_code": 7,
    "city": "喜多方市",
    "city_kana": "キタカタシ",
    "town": "関柴町三津井",
    "town_kana": "セキシバマチミツイ",
    "street": null,
    "office_name": null,
    "office_name_kana": null
  },
  "0021": {
    "postcode": "9660021",
    "prefecture": "福島県",
    "prefecture_kana": "フクシマケン",
    "prefecture_code": 7,
    "city": "喜多方市",
    "city_kana": "キタカタシ",
    "town": "熊倉町都",
    "town_kana": "クマグラマチミヤコ",
    "street": null,
    "office_name": null,
    "office_name_kana": null
  },
  "0022": {
    "postcode": "9660022",
    "prefecture": "福島県",
    "prefecture_kana": "フクシマケン",
    "prefecture_code": 7,
    "city": "喜多方市",
    "city_kana": "キタカタシ",
    "town": "熊倉町雄国",
    "town_kana": "クマグラマチオグニ",
    "street": null,
    "office_name": null,
    "office_name_kana": null
  },
  "0023": {
    "postcode": "9660023",
    "prefecture": "福島県",
    "prefecture_kana": "フクシマケン",
    "prefecture_code": 7,
    "city": "喜多方市",
    "city_kana": "キタカタシ",
    "town": "熊倉町新合",
    "town_kana": "クマグラマチシンゴウ",
    "street": null,
    "office_name": null,
    "office_name_kana": null
  },
  "0024": {
    "postcode": "9660024",
    "prefecture": "福島県",
    "prefecture_kana": "フクシマケン",
    "prefecture_code": 7,
    "city": "喜多方市",
    "city_kana": "キタカタシ",
    "town": "熊倉町熊倉",
    "town_kana": "クマグラマチクマグラ",
    "street": null,
    "office_name": null,
    "office_name_kana": null
  },
  "0031": {
    "postcode": "9660031",
    "prefecture": "福島県",
    "prefecture_kana": "フクシマケン",
    "prefecture_code": 7,
    "city": "喜多方市",
    "city_kana": "キタカタシ",
    "town": "舞台田",
    "town_kana": "ブタイダ",
    "street": null,
    "office_name": null,
    "office_name_kana": null
  },
  "0032": {
    "postcode": "9660032",
    "prefecture": "福島県",
    "prefecture_kana": "フクシマケン",
    "prefecture_code": 7,
    "city": "喜多方市",
    "city_kana": "キタカタシ",
    "town": "梨子ノ木",
    "town_kana": "ナシノキ",
    "street": null,
    "office_name": null,
    "office_name_kana": null
  },
  "0033": {
    "postcode": "9660033",
    "prefecture": "福島県",
    "prefecture_kana": "フクシマケン",
    "prefecture_code": 7,
    "city": "喜多方市",
    "city_kana": "キタカタシ",
    "town": "瀬戸",
    "town_kana": "セト",
    "street": null,
    "office_name": null,
    "office_name_kana": null
  },
  "0034": {
    "postcode": "9660034",
    "prefecture": "福島県",
    "prefecture_kana": "フクシマケン",
    "prefecture_code": 7,
    "city": "喜多方市",
    "city_kana": "キタカタシ",
    "town": "二本木",
    "town_kana": "ニホンギ",
    "street": null,
    "office_name": null,
    "office_name_kana": null
  },
  "0035": [
    {
      "postcode": "9660035",
      "prefecture": "福島県",
      "prefecture_kana": "フクシマケン",
      "prefecture_code": 7,
      "city": "喜多方市",
      "city_kana": "キタカタシ",
      "town": "中台",
      "town_kana": "ナカダイ",
      "street": null,
      "office_name": null,
      "office_name_kana": null
    },
    {
      "postcode": "9660035",
      "prefecture": "福島県",
      "prefecture_kana": "フクシマケン",
      "prefecture_code": 7,
      "city": "喜多方市",
      "city_kana": "キタカタシ",
      "town": "畑台",
      "town_kana": "ハタケダイ",
      "street": null,
      "office_name": null,
      "office_name_kana": null
    }
  ],
  "0036": {
    "postcode": "9660036",
    "prefecture": "福島県",
    "prefecture_kana": "フクシマケン",
    "prefecture_code": 7,
    "city": "喜多方市",
    "city_kana": "キタカタシ",
    "town": "柳清水",
    "town_kana": "ヤナギシミズ",
    "street": null,
    "office_name": null,
    "office_name_kana": null
  },
  "0037": {
    "postcode": "9660037",
    "prefecture": "福島県",
    "prefecture_kana": "フクシマケン",
    "prefecture_code": 7,
    "city": "喜多方市",
    "city_kana": "キタカタシ",
    "town": "大豆田",
    "town_kana": "オオマメダ",
    "street": null,
    "office_name": null,
    "office_name_kana": null
  },
  "0038": {
    "postcode": "9660038",
    "prefecture": "福島県",
    "prefecture_kana": "フクシマケン",
    "prefecture_code": 7,
    "city": "喜多方市",
    "city_kana": "キタカタシ",
    "town": "桜町",
    "town_kana": "サクラチョウ",
    "street": null,
    "office_name": null,
    "office_name_kana": null
  },
  "0039": {
    "postcode": "9660039",
    "prefecture": "福島県",
    "prefecture_kana": "フクシマケン",
    "prefecture_code": 7,
    "city": "喜多方市",
    "city_kana": "キタカタシ",
    "town": "加登",
    "town_kana": "カト",
    "street": null,
    "office_name": null,
    "office_name_kana": null
  },
  "0041": {
    "postcode": "9660041",
    "prefecture": "福島県",
    "prefecture_kana": "フクシマケン",
    "prefecture_code": 7,
    "city": "喜多方市",
    "city_kana": "キタカタシ",
    "town": "蒔田",
    "town_kana": "マキダ",
    "street": null,
    "office_name": null,
    "office_name_kana": null
  },
  "0042": {
    "postcode": "9660042",
    "prefecture": "福島県",
    "prefecture_kana": "フクシマケン",
    "prefecture_code": 7,
    "city": "喜多方市",
    "city_kana": "キタカタシ",
    "town": "下江",
    "town_kana": "シモエ",
    "street": null,
    "office_name": null,
    "office_name_kana": null
  },
  "0043": {
    "postcode": "9660043",
    "prefecture": "福島県",
    "prefecture_kana": "フクシマケン",
    "prefecture_code": 7,
    "city": "喜多方市",
    "city_kana": "キタカタシ",
    "town": "上江",
    "town_kana": "カミエ",
    "street": null,
    "office_name": null,
    "office_name_kana": null
  },
  "0044": {
    "postcode": "9660044",
    "prefecture": "福島県",
    "prefecture_kana": "フクシマケン",
    "prefecture_code": 7,
    "city": "喜多方市",
    "city_kana": "キタカタシ",
    "town": "沢ノ目",
    "town_kana": "サワノメ",
    "street": null,
    "office_name": null,
    "office_name_kana": null
  },
  "0045": {
    "postcode": "9660045",
    "prefecture": "福島県",
    "prefecture_kana": "フクシマケン",
    "prefecture_code": 7,
    "city": "喜多方市",
    "city_kana": "キタカタシ",
    "town": "南原",
    "town_kana": "ミナミハラ",
    "street": null,
    "office_name": null,
    "office_name_kana": null
  },
  "0046": {
    "postcode": "9660046",
    "prefecture": "福島県",
    "prefecture_kana": "フクシマケン",
    "prefecture_code": 7,
    "city": "喜多方市",
    "city_kana": "キタカタシ",
    "town": "原田",
    "town_kana": "ハラダ",
    "street": null,
    "office_name": null,
    "office_name_kana": null
  },
  "0047": {
    "postcode": "9660047",
    "prefecture": "福島県",
    "prefecture_kana": "フクシマケン",
    "prefecture_code": 7,
    "city": "喜多方市",
    "city_kana": "キタカタシ",
    "town": "銭田",
    "town_kana": "ゼニタ",
    "street": null,
    "office_name": null,
    "office_name_kana": null
  },
  "0048": {
    "postcode": "9660048",
    "prefecture": "福島県",
    "prefecture_kana": "フクシマケン",
    "prefecture_code": 7,
    "city": "喜多方市",
    "city_kana": "キタカタシ",
    "town": "越巻",
    "town_kana": "コシマキ",
    "street": null,
    "office_name": null,
    "office_name_kana": null
  },
  "0049": {
    "postcode": "9660049",
    "prefecture": "福島県",
    "prefecture_kana": "フクシマケン",
    "prefecture_code": 7,
    "city": "喜多方市",
    "city_kana": "キタカタシ",
    "town": "長面",
    "town_kana": "ナガオモテ",
    "street": null,
    "office_name": null,
    "office_name_kana": null
  },
  "0051": {
    "postcode": "9660051",
    "prefecture": "福島県",
    "prefecture_kana": "フクシマケン",
    "prefecture_code": 7,
    "city": "喜多方市",
    "city_kana": "キタカタシ",
    "town": "東町",
    "town_kana": "ヒガシマチ",
    "street": null,
    "office_name": null,
    "office_name_kana": null
  },
  "0052": {
    "postcode": "9660052",
    "prefecture": "福島県",
    "prefecture_kana": "フクシマケン",
    "prefecture_code": 7,
    "city": "喜多方市",
    "city_kana": "キタカタシ",
    "town": "四百苅",
    "town_kana": "ヨンヒャクガリ",
    "street": null,
    "office_name": null,
    "office_name_kana": null
  },
  "0053": {
    "postcode": "9660053",
    "prefecture": "福島県",
    "prefecture_kana": "フクシマケン",
    "prefecture_code": 7,
    "city": "喜多方市",
    "city_kana": "キタカタシ",
    "town": "石田",
    "town_kana": "イシダ",
    "street": null,
    "office_name": null,
    "office_name_kana": null
  },
  "0054": {
    "postcode": "9660054",
    "prefecture": "福島県",
    "prefecture_kana": "フクシマケン",
    "prefecture_code": 7,
    "city": "喜多方市",
    "city_kana": "キタカタシ",
    "town": "大谷地田",
    "town_kana": "オオヤチタ",
    "street": null,
    "office_name": null,
    "office_name_kana": null
  },
  "0055": {
    "postcode": "9660055",
    "prefecture": "福島県",
    "prefecture_kana": "フクシマケン",
    "prefecture_code": 7,
    "city": "喜多方市",
    "city_kana": "キタカタシ",
    "town": "台",
    "town_kana": "ダイ",
    "street": null,
    "office_name": null,
    "office_name_kana": null
  },
  "0056": {
    "postcode": "9660056",
    "prefecture": "福島県",
    "prefecture_kana": "フクシマケン",
    "prefecture_code": 7,
    "city": "喜多方市",
    "city_kana": "キタカタシ",
    "town": "屋敷免",
    "town_kana": "ヤシキメン",
    "street": null,
    "office_name": null,
    "office_name_kana": null
  },
  "0057": {
    "postcode": "9660057",
    "prefecture": "福島県",
    "prefecture_kana": "フクシマケン",
    "prefecture_code": 7,
    "city": "喜多方市",
    "city_kana": "キタカタシ",
    "town": "井戸尻",
    "town_kana": "イドジリ",
    "street": null,
    "office_name": null,
    "office_name_kana": null
  },
  "0058": {
    "postcode": "9660058",
    "prefecture": "福島県",
    "prefecture_kana": "フクシマケン",
    "prefecture_code": 7,
    "city": "喜多方市",
    "city_kana": "キタカタシ",
    "town": "広面",
    "town_kana": "ヒロオモテ",
    "street": null,
    "office_name": null,
    "office_name_kana": null
  },
  "0061": {
    "postcode": "9660061",
    "prefecture": "福島県",
    "prefecture_kana": "フクシマケン",
    "prefecture_code": 7,
    "city": "喜多方市",
    "city_kana": "キタカタシ",
    "town": "馬場",
    "town_kana": "ババ",
    "street": null,
    "office_name": null,
    "office_name_kana": null
  },
  "0062": {
    "postcode": "9660062",
    "prefecture": "福島県",
    "prefecture_kana": "フクシマケン",
    "prefecture_code": 7,
    "city": "喜多方市",
    "city_kana": "キタカタシ",
    "town": "寺南",
    "town_kana": "テラミナミ",
    "street": null,
    "office_name": null,
    "office_name_kana": null
  },
  "0063": {
    "postcode": "9660063",
    "prefecture": "福島県",
    "prefecture_kana": "フクシマケン",
    "prefecture_code": 7,
    "city": "喜多方市",
    "city_kana": "キタカタシ",
    "town": "五ノ神",
    "town_kana": "ゴノカミ",
    "street": null,
    "office_name": null,
    "office_name_kana": null
  },
  "0064": {
    "postcode": "9660064",
    "prefecture": "福島県",
    "prefecture_kana": "フクシマケン",
    "prefecture_code": 7,
    "city": "喜多方市",
    "city_kana": "キタカタシ",
    "town": "惣座宮",
    "town_kana": "ソウザノミヤ",
    "street": null,
    "office_name": null,
    "office_name_kana": null
  },
  "0065": {
    "postcode": "9660065",
    "prefecture": "福島県",
    "prefecture_kana": "フクシマケン",
    "prefecture_code": 7,
    "city": "喜多方市",
    "city_kana": "キタカタシ",
    "town": "中川原",
    "town_kana": "ナカガワラ",
    "street": null,
    "office_name": null,
    "office_name_kana": null
  },
  "0066": {
    "postcode": "9660066",
    "prefecture": "福島県",
    "prefecture_kana": "フクシマケン",
    "prefecture_code": 7,
    "city": "喜多方市",
    "city_kana": "キタカタシ",
    "town": "宮西",
    "town_kana": "ミヤニシ",
    "street": null,
    "office_name": null,
    "office_name_kana": null
  },
  "0067": {
    "postcode": "9660067",
    "prefecture": "福島県",
    "prefecture_kana": "フクシマケン",
    "prefecture_code": 7,
    "city": "喜多方市",
    "city_kana": "キタカタシ",
    "town": "村西",
    "town_kana": "ムラニシ",
    "street": null,
    "office_name": null,
    "office_name_kana": null
  },
  "0068": {
    "postcode": "9660068",
    "prefecture": "福島県",
    "prefecture_kana": "フクシマケン",
    "prefecture_code": 7,
    "city": "喜多方市",
    "city_kana": "キタカタシ",
    "town": "寺西",
    "town_kana": "テラニシ",
    "street": null,
    "office_name": null,
    "office_name_kana": null
  },
  "0069": {
    "postcode": "9660069",
    "prefecture": "福島県",
    "prefecture_kana": "フクシマケン",
    "prefecture_code": 7,
    "city": "喜多方市",
    "city_kana": "キタカタシ",
    "town": "稲清水",
    "town_kana": "イナシミズ",
    "street": null,
    "office_name": null,
    "office_name_kana": null
  },
  "0071": {
    "postcode": "9660071",
    "prefecture": "福島県",
    "prefecture_kana": "フクシマケン",
    "prefecture_code": 7,
    "city": "喜多方市",
    "city_kana": "キタカタシ",
    "town": "山ノ神",
    "town_kana": "ヤマノカミ",
    "street": null,
    "office_name": null,
    "office_name_kana": null
  },
  "0072": {
    "postcode": "9660072",
    "prefecture": "福島県",
    "prefecture_kana": "フクシマケン",
    "prefecture_code": 7,
    "city": "喜多方市",
    "city_kana": "キタカタシ",
    "town": "北町",
    "town_kana": "キタマチ",
    "street": null,
    "office_name": null,
    "office_name_kana": null
  },
  "0073": {
    "postcode": "9660073",
    "prefecture": "福島県",
    "prefecture_kana": "フクシマケン",
    "prefecture_code": 7,
    "city": "喜多方市",
    "city_kana": "キタカタシ",
    "town": "中町",
    "town_kana": "ナカマチ",
    "street": null,
    "office_name": null,
    "office_name_kana": null
  },
  "0074": {
    "postcode": "9660074",
    "prefecture": "福島県",
    "prefecture_kana": "フクシマケン",
    "prefecture_code": 7,
    "city": "喜多方市",
    "city_kana": "キタカタシ",
    "town": "南町",
    "town_kana": "ミナミマチ",
    "street": null,
    "office_name": null,
    "office_name_kana": null
  },
  "0081": {
    "postcode": "9660081",
    "prefecture": "福島県",
    "prefecture_kana": "フクシマケン",
    "prefecture_code": 7,
    "city": "喜多方市",
    "city_kana": "キタカタシ",
    "town": "西町",
    "town_kana": "ニシマチ",
    "street": null,
    "office_name": null,
    "office_name_kana": null
  },
  "0082": {
    "postcode": "9660082",
    "prefecture": "福島県",
    "prefecture_kana": "フクシマケン",
    "prefecture_code": 7,
    "city": "喜多方市",
    "city_kana": "キタカタシ",
    "town": "南條",
    "town_kana": "ナンジョウ",
    "street": null,
    "office_name": null,
    "office_name_kana": null
  },
  "0083": {
    "postcode": "9660083",
    "prefecture": "福島県",
    "prefecture_kana": "フクシマケン",
    "prefecture_code": 7,
    "city": "喜多方市",
    "city_kana": "キタカタシ",
    "town": "六枚長",
    "town_kana": "ロクマイオサ",
    "street": null,
    "office_name": null,
    "office_name_kana": null
  },
  "0084": {
    "postcode": "9660084",
    "prefecture": "福島県",
    "prefecture_kana": "フクシマケン",
    "prefecture_code": 7,
    "city": "喜多方市",
    "city_kana": "キタカタシ",
    "town": "西井戸尻",
    "town_kana": "ニシイドジリ",
    "street": null,
    "office_name": null,
    "office_name_kana": null
  },
  "0085": {
    "postcode": "9660085",
    "prefecture": "福島県",
    "prefecture_kana": "フクシマケン",
    "prefecture_code": 7,
    "city": "喜多方市",
    "city_kana": "キタカタシ",
    "town": "江中子",
    "town_kana": "エナカコ",
    "street": null,
    "office_name": null,
    "office_name_kana": null
  },
  "0086": {
    "postcode": "9660086",
    "prefecture": "福島県",
    "prefecture_kana": "フクシマケン",
    "prefecture_code": 7,
    "city": "喜多方市",
    "city_kana": "キタカタシ",
    "town": "西四ツ谷",
    "town_kana": "ニシヨツヤ",
    "street": null,
    "office_name": null,
    "office_name_kana": null
  },
  "0087": {
    "postcode": "9660087",
    "prefecture": "福島県",
    "prefecture_kana": "フクシマケン",
    "prefecture_code": 7,
    "city": "喜多方市",
    "city_kana": "キタカタシ",
    "town": "稲荷宮",
    "town_kana": "イナリノミヤ",
    "street": null,
    "office_name": null,
    "office_name_kana": null
  },
  "0091": {
    "postcode": "9660091",
    "prefecture": "福島県",
    "prefecture_kana": "フクシマケン",
    "prefecture_code": 7,
    "city": "喜多方市",
    "city_kana": "キタカタシ",
    "town": "青葉台",
    "town_kana": "アオバダイ",
    "street": null,
    "office_name": null,
    "office_name_kana": null
  },
  "0092": {
    "postcode": "9660092",
    "prefecture": "福島県",
    "prefecture_kana": "フクシマケン",
    "prefecture_code": 7,
    "city": "喜多方市",
    "city_kana": "キタカタシ",
    "town": "清水台",
    "town_kana": "シミズダイ",
    "street": null,
    "office_name": null,
    "office_name_kana": null
  },
  "0093": {
    "postcode": "9660093",
    "prefecture": "福島県",
    "prefecture_kana": "フクシマケン",
    "prefecture_code": 7,
    "city": "喜多方市",
    "city_kana": "キタカタシ",
    "town": "清水が丘",
    "town_kana": "シミズガオカ",
    "street": null,
    "office_name": null,
    "office_name_kana": null
  },
  "0094": {
    "postcode": "9660094",
    "prefecture": "福島県",
    "prefecture_kana": "フクシマケン",
    "prefecture_code": 7,
    "city": "喜多方市",
    "city_kana": "キタカタシ",
    "town": "押切",
    "town_kana": "オシキリ",
    "street": null,
    "office_name": null,
    "office_name_kana": null
  },
  "0095": {
    "postcode": "9660095",
    "prefecture": "福島県",
    "prefecture_kana": "フクシマケン",
    "prefecture_code": 7,
    "city": "喜多方市",
    "city_kana": "キタカタシ",
    "town": "押切東",
    "town_kana": "オシキリヒガシ",
    "street": null,
    "office_name": null,
    "office_name_kana": null
  },
  "0096": {
    "postcode": "9660096",
    "prefecture": "福島県",
    "prefecture_kana": "フクシマケン",
    "prefecture_code": 7,
    "city": "喜多方市",
    "city_kana": "キタカタシ",
    "town": "押切南",
    "town_kana": "オシキリミナミ",
    "street": null,
    "office_name": null,
    "office_name_kana": null
  },
  "0097": {
    "postcode": "9660097",
    "prefecture": "福島県",
    "prefecture_kana": "フクシマケン",
    "prefecture_code": 7,
    "city": "喜多方市",
    "city_kana": "キタカタシ",
    "town": "通船場",
    "town_kana": "ツウセンバ",
    "street": null,
    "office_name": null,
    "office_name_kana": null
  },
  "0101": {
    "postcode": "9660101",
    "prefecture": "福島県",
    "prefecture_kana": "フクシマケン",
    "prefecture_code": 7,
    "city": "喜多方市",
    "city_kana": "キタカタシ",
    "town": "熱塩加納町熱塩",
    "town_kana": "アツシオカノウマチアツシオ",
    "street": null,
    "office_name": null,
    "office_name_kana": null
  },
  "0102": {
    "postcode": "9660102",
    "prefecture": "福島県",
    "prefecture_kana": "フクシマケン",
    "prefecture_code": 7,
    "city": "喜多方市",
    "city_kana": "キタカタシ",
    "town": "熱塩加納町山田",
    "town_kana": "アツシオカノウマチヤマダ",
    "street": null,
    "office_name": null,
    "office_name_kana": null
  },
  "0103": {
    "postcode": "9660103",
    "prefecture": "福島県",
    "prefecture_kana": "フクシマケン",
    "prefecture_code": 7,
    "city": "喜多方市",
    "city_kana": "キタカタシ",
    "town": "熱塩加納町加納",
    "town_kana": "アツシオカノウマチカノウ",
    "street": null,
    "office_name": null,
    "office_name_kana": null
  },
  "0104": {
    "postcode": "9660104",
    "prefecture": "福島県",
    "prefecture_kana": "フクシマケン",
    "prefecture_code": 7,
    "city": "喜多方市",
    "city_kana": "キタカタシ",
    "town": "熱塩加納町米岡",
    "town_kana": "アツシオカノウマチヨネオカ",
    "street": null,
    "office_name": null,
    "office_name_kana": null
  },
  "0105": {
    "postcode": "9660105",
    "prefecture": "福島県",
    "prefecture_kana": "フクシマケン",
    "prefecture_code": 7,
    "city": "喜多方市",
    "city_kana": "キタカタシ",
    "town": "熱塩加納町宮川",
    "town_kana": "アツシオカノウマチミヤカワ",
    "street": null,
    "office_name": null,
    "office_name_kana": null
  },
  "0106": {
    "postcode": "9660106",
    "prefecture": "福島県",
    "prefecture_kana": "フクシマケン",
    "prefecture_code": 7,
    "city": "喜多方市",
    "city_kana": "キタカタシ",
    "town": "熱塩加納町林際",
    "town_kana": "アツシオカノウマチハヤシギワ",
    "street": null,
    "office_name": null,
    "office_name_kana": null
  },
  "0107": {
    "postcode": "9660107",
    "prefecture": "福島県",
    "prefecture_kana": "フクシマケン",
    "prefecture_code": 7,
    "city": "喜多方市",
    "city_kana": "キタカタシ",
    "town": "熱塩加納町居廻",
    "town_kana": "アツシオカノウマチイマワリ",
    "street": null,
    "office_name": null,
    "office_name_kana": null
  },
  "0108": {
    "postcode": "9660108",
    "prefecture": "福島県",
    "prefecture_kana": "フクシマケン",
    "prefecture_code": 7,
    "city": "喜多方市",
    "city_kana": "キタカタシ",
    "town": "熱塩加納町相田",
    "town_kana": "アツシオカノウマチアイタ",
    "street": null,
    "office_name": null,
    "office_name_kana": null
  },
  "0192": {
    "postcode": "9660192",
    "prefecture": "福島県",
    "prefecture_kana": "フクシマケン",
    "prefecture_code": 7,
    "city": "喜多方市",
    "city_kana": "キタカタシ",
    "town": "熱塩加納町相田",
    "town_kana": "アツシオカノウマチアイタ",
    "street": "字大森５０００",
    "office_name": "喜多方市　熱塩加納総合支所",
    "office_name_kana": "キタカタシ アツシオカノウソウゴウシシヨ"
  },
  "0193": {
    "postcode": "9660193",
    "prefecture": "福島県",
    "prefecture_kana": "フクシマケン",
    "prefecture_code": 7,
    "city": "喜多方市",
    "city_kana": "キタカタシ",
    "town": "熱塩加納町加納",
    "town_kana": "アツシオカノウマチカノウ",
    "street": "字根岸山甲１７−１",
    "office_name": "会津いいで農業協同組合　熱塩加納支所",
    "office_name_kana": "アイヅイイデノウギヨウキヨウドウクミアイ アツシオカノウシシヨ"
  },
  "0194": {
    "postcode": "9660194",
    "prefecture": "福島県",
    "prefecture_kana": "フクシマケン",
    "prefecture_code": 7,
    "city": "喜多方市",
    "city_kana": "キタカタシ",
    "town": "熱塩加納町熱塩",
    "town_kana": "アツシオカノウマチアツシオ",
    "street": "字熱塩甲８０７",
    "office_name": "有限会社　ホテルふじや",
    "office_name_kana": "ユウゲンガイシヤ ホテルフジヤ"
  },
  "0400": {
    "postcode": "9660400",
    "prefecture": "福島県",
    "prefecture_kana": "フクシマケン",
    "prefecture_code": 7,
    "city": "耶麻郡北塩原村",
    "city_kana": "ヤマグンキタシオバラムラ",
    "town": "",
    "town_kana": "",
    "street": null,
    "office_name": null,
    "office_name_kana": null
  },
  "0401": [
    {
      "postcode": "9660401",
      "prefecture": "福島県",
      "prefecture_kana": "フクシマケン",
      "prefecture_code": 7,
      "city": "耶麻郡北塩原村",
      "city_kana": "ヤマグンキタシオバラムラ",
      "town": "桧原",
      "town_kana": "ヒバラ",
      "street": null,
      "office_name": null,
      "office_name_kana": null
    },
    {
      "postcode": "9660401",
      "prefecture": "福島県",
      "prefecture_kana": "フクシマケン",
      "prefecture_code": 7,
      "city": "耶麻郡北塩原村",
      "city_kana": "ヤマグンキタシオバラムラ",
      "town": "桧原雄子沢",
      "town_kana": "ヒバラオシザワ",
      "street": null,
      "office_name": null,
      "office_name_kana": null
    },
    {
      "postcode": "9660401",
      "prefecture": "福島県",
      "prefecture_kana": "フクシマケン",
      "prefecture_code": 7,
      "city": "耶麻郡北塩原村",
      "city_kana": "ヤマグンキタシオバラムラ",
      "town": "桧原雄子沢原",
      "town_kana": "ヒバラオシザワハラ",
      "street": null,
      "office_name": null,
      "office_name_kana": null
    },
    {
      "postcode": "9660401",
      "prefecture": "福島県",
      "prefecture_kana": "フクシマケン",
      "prefecture_code": 7,
      "city": "耶麻郡北塩原村",
      "city_kana": "ヤマグンキタシオバラムラ",
      "town": "桧原細野",
      "town_kana": "ヒバラホソノ",
      "street": null,
      "office_name": null,
      "office_name_kana": null
    },
    {
      "postcode": "9660401",
      "prefecture": "福島県",
      "prefecture_kana": "フクシマケン",
      "prefecture_code": 7,
      "city": "耶麻郡北塩原村",
      "city_kana": "ヤマグンキタシオバラムラ",
      "town": "桧原南黄連沢",
      "town_kana": "ヒバラミナミオウレンサワ",
      "street": null,
      "office_name": null,
      "office_name_kana": null
    },
    {
      "postcode": "9660401",
      "prefecture": "福島県",
      "prefecture_kana": "フクシマケン",
      "prefecture_code": 7,
      "city": "耶麻郡北塩原村",
      "city_kana": "ヤマグンキタシオバラムラ",
      "town": "桧原南黄連沢山",
      "town_kana": "ヒバラミナミオウレンサワヤマ",
      "street": null,
      "office_name": null,
      "office_name_kana": null
    },
    {
      "postcode": "9660401",
      "prefecture": "福島県",
      "prefecture_kana": "フクシマケン",
      "prefecture_code": 7,
      "city": "耶麻郡北塩原村",
      "city_kana": "ヤマグンキタシオバラムラ",
      "town": "桧原黄連沢山",
      "town_kana": "ヒバラオウレンサワヤマ",
      "street": null,
      "office_name": null,
      "office_name_kana": null
    },
    {
      "postcode": "9660401",
      "prefecture": "福島県",
      "prefecture_kana": "フクシマケン",
      "prefecture_code": 7,
      "city": "耶麻郡北塩原村",
      "city_kana": "ヤマグンキタシオバラムラ",
      "town": "桧原黄連原山",
      "town_kana": "ヒバラオウレンハラヤマ",
      "street": null,
      "office_name": null,
      "office_name_kana": null
    }
  ],
  "0402": {
    "postcode": "9660402",
    "prefecture": "福島県",
    "prefecture_kana": "フクシマケン",
    "prefecture_code": 7,
    "city": "耶麻郡北塩原村",
    "city_kana": "ヤマグンキタシオバラムラ",
    "town": "大塩",
    "town_kana": "オオシオ",
    "street": null,
    "office_name": null,
    "office_name_kana": null
  },
  "0403": {
    "postcode": "9660403",
    "prefecture": "福島県",
    "prefecture_kana": "フクシマケン",
    "prefecture_code": 7,
    "city": "耶麻郡北塩原村",
    "city_kana": "ヤマグンキタシオバラムラ",
    "town": "関屋",
    "town_kana": "セキヤ",
    "street": null,
    "office_name": null,
    "office_name_kana": null
  },
  "0404": {
    "postcode": "9660404",
    "prefecture": "福島県",
    "prefecture_kana": "フクシマケン",
    "prefecture_code": 7,
    "city": "耶麻郡北塩原村",
    "city_kana": "ヤマグンキタシオバラムラ",
    "town": "北山",
    "town_kana": "キタヤマ",
    "street": null,
    "office_name": null,
    "office_name_kana": null
  },
  "0405": {
    "postcode": "9660405",
    "prefecture": "福島県",
    "prefecture_kana": "フクシマケン",
    "prefecture_code": 7,
    "city": "耶麻郡北塩原村",
    "city_kana": "ヤマグンキタシオバラムラ",
    "town": "下吉",
    "town_kana": "シモヨシ",
    "street": null,
    "office_name": null,
    "office_name_kana": null
  },
  "0485": {
    "postcode": "9660485",
    "prefecture": "福島県",
    "prefecture_kana": "フクシマケン",
    "prefecture_code": 7,
    "city": "耶麻郡北塩原村",
    "city_kana": "ヤマグンキタシオバラムラ",
    "town": "大字北山",
    "town_kana": null,
    "street": "字姥ケ作３１５１",
    "office_name": "北塩原村役場",
    "office_name_kana": "キタシオバラムラヤクバ"
  },
  "0501": [
    {
      "postcode": "9660501",
      "prefecture": "福島県",
      "prefecture_kana": "フクシマケン",
      "prefecture_code": 7,
      "city": "耶麻郡北塩原村",
      "city_kana": "ヤマグンキタシオバラムラ",
      "town": "桧原",
      "town_kana": "ヒバラ",
      "street": null,
      "office_name": null,
      "office_name_kana": null
    },
    {
      "postcode": "9660501",
      "prefecture": "福島県",
      "prefecture_kana": "フクシマケン",
      "prefecture_code": 7,
      "city": "耶麻郡北塩原村",
      "city_kana": "ヤマグンキタシオバラムラ",
      "town": "桧原苧畑沢",
      "town_kana": "ヒバラウバタサワ",
      "street": null,
      "office_name": null,
      "office_name_kana": null
    },
    {
      "postcode": "9660501",
      "prefecture": "福島県",
      "prefecture_kana": "フクシマケン",
      "prefecture_code": 7,
      "city": "耶麻郡北塩原村",
      "city_kana": "ヤマグンキタシオバラムラ",
      "town": "桧原金山",
      "town_kana": "ヒバラカナヤマ",
      "street": null,
      "office_name": null,
      "office_name_kana": null
    },
    {
      "postcode": "9660501",
      "prefecture": "福島県",
      "prefecture_kana": "フクシマケン",
      "prefecture_code": 7,
      "city": "耶麻郡北塩原村",
      "city_kana": "ヤマグンキタシオバラムラ",
      "town": "桧原五十両原",
      "town_kana": "ヒバラゴジュウリョウハラ",
      "street": null,
      "office_name": null,
      "office_name_kana": null
    },
    {
      "postcode": "9660501",
      "prefecture": "福島県",
      "prefecture_kana": "フクシマケン",
      "prefecture_code": 7,
      "city": "耶麻郡北塩原村",
      "city_kana": "ヤマグンキタシオバラムラ",
      "town": "桧原巣ノ山",
      "town_kana": "ヒバラスノヤマ",
      "street": null,
      "office_name": null,
      "office_name_kana": null
    },
    {
      "postcode": "9660501",
      "prefecture": "福島県",
      "prefecture_kana": "フクシマケン",
      "prefecture_code": 7,
      "city": "耶麻郡北塩原村",
      "city_kana": "ヤマグンキタシオバラムラ",
      "town": "桧原滝ノ原",
      "town_kana": "ヒバラタキノハラ",
      "street": null,
      "office_name": null,
      "office_name_kana": null
    },
    {
      "postcode": "9660501",
      "prefecture": "福島県",
      "prefecture_kana": "フクシマケン",
      "prefecture_code": 7,
      "city": "耶麻郡北塩原村",
      "city_kana": "ヤマグンキタシオバラムラ",
      "town": "桧原道前原",
      "town_kana": "ヒバラドウゼンハラ",
      "street": null,
      "office_name": null,
      "office_name_kana": null
    },
    {
      "postcode": "9660501",
      "prefecture": "福島県",
      "prefecture_kana": "フクシマケン",
      "prefecture_code": 7,
      "city": "耶麻郡北塩原村",
      "city_kana": "ヤマグンキタシオバラムラ",
      "town": "桧原墓下",
      "town_kana": "ヒバラハカシタ",
      "street": null,
      "office_name": null,
      "office_name_kana": null
    },
    {
      "postcode": "9660501",
      "prefecture": "福島県",
      "prefecture_kana": "フクシマケン",
      "prefecture_code": 7,
      "city": "耶麻郡北塩原村",
      "city_kana": "ヤマグンキタシオバラムラ",
      "town": "桧原無縁原",
      "town_kana": "ヒバラムエンハラ",
      "street": null,
      "office_name": null,
      "office_name_kana": null
    },
    {
      "postcode": "9660501",
      "prefecture": "福島県",
      "prefecture_kana": "フクシマケン",
      "prefecture_code": 7,
      "city": "耶麻郡北塩原村",
      "city_kana": "ヤマグンキタシオバラムラ",
      "town": "桧原早稲沢",
      "town_kana": "ヒバラワセザワ",
      "street": null,
      "office_name": null,
      "office_name_kana": null
    },
    {
      "postcode": "9660501",
      "prefecture": "福島県",
      "prefecture_kana": "フクシマケン",
      "prefecture_code": 7,
      "city": "耶麻郡北塩原村",
      "city_kana": "ヤマグンキタシオバラムラ",
      "town": "桧原小屋沢",
      "town_kana": "ヒバラコヤサワ",
      "street": null,
      "office_name": null,
      "office_name_kana": null
    },
    {
      "postcode": "9660501",
      "prefecture": "福島県",
      "prefecture_kana": "フクシマケン",
      "prefecture_code": 7,
      "city": "耶麻郡北塩原村",
      "city_kana": "ヤマグンキタシオバラムラ",
      "town": "桧原水梨原",
      "town_kana": "ヒバラミズナシハラ",
      "street": null,
      "office_name": null,
      "office_name_kana": null
    },
    {
      "postcode": "9660501",
      "prefecture": "福島県",
      "prefecture_kana": "フクシマケン",
      "prefecture_code": 7,
      "city": "耶麻郡北塩原村",
      "city_kana": "ヤマグンキタシオバラムラ",
      "town": "桧原中原",
      "town_kana": "ヒバラナカハラ",
      "street": null,
      "office_name": null,
      "office_name_kana": null
    },
    {
      "postcode": "9660501",
      "prefecture": "福島県",
      "prefecture_kana": "フクシマケン",
      "prefecture_code": 7,
      "city": "耶麻郡北塩原村",
      "city_kana": "ヤマグンキタシオバラムラ",
      "town": "桧原楢木平原",
      "town_kana": "ヒバラナラノキダイラハラ",
      "street": null,
      "office_name": null,
      "office_name_kana": null
    },
    {
      "postcode": "9660501",
      "prefecture": "福島県",
      "prefecture_kana": "フクシマケン",
      "prefecture_code": 7,
      "city": "耶麻郡北塩原村",
      "city_kana": "ヤマグンキタシオバラムラ",
      "town": "桧原焼桂山",
      "town_kana": "ヒバラヤケガツラヤマ",
      "street": null,
      "office_name": null,
      "office_name_kana": null
    },
    {
      "postcode": "9660501",
      "prefecture": "福島県",
      "prefecture_kana": "フクシマケン",
      "prefecture_code": 7,
      "city": "耶麻郡北塩原村",
      "city_kana": "ヤマグンキタシオバラムラ",
      "town": "桧原館山",
      "town_kana": "ヒバラタテヤマ",
      "street": null,
      "office_name": null,
      "office_name_kana": null
    }
  ],
  "0801": {
    "postcode": "9660801",
    "prefecture": "福島県",
    "prefecture_kana": "フクシマケン",
    "prefecture_code": 7,
    "city": "喜多方市",
    "city_kana": "キタカタシ",
    "town": "常盤台",
    "town_kana": "トキワダイ",
    "street": null,
    "office_name": null,
    "office_name_kana": null
  },
  "0802": {
    "postcode": "9660802",
    "prefecture": "福島県",
    "prefecture_kana": "フクシマケン",
    "prefecture_code": 7,
    "city": "喜多方市",
    "city_kana": "キタカタシ",
    "town": "桜ガ丘",
    "town_kana": "サクラガオカ",
    "street": null,
    "office_name": null,
    "office_name_kana": null
  },
  "0803": {
    "postcode": "9660803",
    "prefecture": "福島県",
    "prefecture_kana": "フクシマケン",
    "prefecture_code": 7,
    "city": "喜多方市",
    "city_kana": "キタカタシ",
    "town": "落合",
    "town_kana": "オチアイ",
    "street": null,
    "office_name": null,
    "office_name_kana": null
  },
  "0804": {
    "postcode": "9660804",
    "prefecture": "福島県",
    "prefecture_kana": "フクシマケン",
    "prefecture_code": 7,
    "city": "喜多方市",
    "city_kana": "キタカタシ",
    "town": "沼田",
    "town_kana": "ヌマタ",
    "street": null,
    "office_name": null,
    "office_name_kana": null
  },
  "0805": {
    "postcode": "9660805",
    "prefecture": "福島県",
    "prefecture_kana": "フクシマケン",
    "prefecture_code": 7,
    "city": "喜多方市",
    "city_kana": "キタカタシ",
    "town": "小田付道上",
    "town_kana": "オタヅキミチウエ",
    "street": null,
    "office_name": null,
    "office_name_kana": null
  },
  "0806": {
    "postcode": "9660806",
    "prefecture": "福島県",
    "prefecture_kana": "フクシマケン",
    "prefecture_code": 7,
    "city": "喜多方市",
    "city_kana": "キタカタシ",
    "town": "水上",
    "town_kana": "ミズカミ",
    "street": null,
    "office_name": null,
    "office_name_kana": null
  },
  "0811": {
    "postcode": "9660811",
    "prefecture": "福島県",
    "prefecture_kana": "フクシマケン",
    "prefecture_code": 7,
    "city": "喜多方市",
    "city_kana": "キタカタシ",
    "town": "上川向",
    "town_kana": "カミカワムカイ",
    "street": null,
    "office_name": null,
    "office_name_kana": null
  },
  "0812": {
    "postcode": "9660812",
    "prefecture": "福島県",
    "prefecture_kana": "フクシマケン",
    "prefecture_code": 7,
    "city": "喜多方市",
    "city_kana": "キタカタシ",
    "town": "緑町",
    "town_kana": "ミドリチョウ",
    "street": null,
    "office_name": null,
    "office_name_kana": null
  },
  "0813": {
    "postcode": "9660813",
    "prefecture": "福島県",
    "prefecture_kana": "フクシマケン",
    "prefecture_code": 7,
    "city": "喜多方市",
    "city_kana": "キタカタシ",
    "town": "小田付道下",
    "town_kana": "オタヅキミチシタ",
    "street": null,
    "office_name": null,
    "office_name_kana": null
  },
  "0814": [
    {
      "postcode": "9660814",
      "prefecture": "福島県",
      "prefecture_kana": "フクシマケン",
      "prefecture_code": 7,
      "city": "喜多方市",
      "city_kana": "キタカタシ",
      "town": "御清水",
      "town_kana": "オシミズ",
      "street": null,
      "office_name": null,
      "office_name_kana": null
    },
    {
      "postcode": "9660814",
      "prefecture": "福島県",
      "prefecture_kana": "フクシマケン",
      "prefecture_code": 7,
      "city": "喜多方市",
      "city_kana": "キタカタシ",
      "town": "御清水東",
      "town_kana": "オシミズヒガシ",
      "street": null,
      "office_name": null,
      "office_name_kana": null
    }
  ],
  "0815": {
    "postcode": "9660815",
    "prefecture": "福島県",
    "prefecture_kana": "フクシマケン",
    "prefecture_code": 7,
    "city": "喜多方市",
    "city_kana": "キタカタシ",
    "town": "谷地田",
    "town_kana": "ヤチタ",
    "street": null,
    "office_name": null,
    "office_name_kana": null
  },
  "0816": {
    "postcode": "9660816",
    "prefecture": "福島県",
    "prefecture_kana": "フクシマケン",
    "prefecture_code": 7,
    "city": "喜多方市",
    "city_kana": "キタカタシ",
    "town": "細田",
    "town_kana": "ホソダ",
    "street": null,
    "office_name": null,
    "office_name_kana": null
  },
  "0817": {
    "postcode": "9660817",
    "prefecture": "福島県",
    "prefecture_kana": "フクシマケン",
    "prefecture_code": 7,
    "city": "喜多方市",
    "city_kana": "キタカタシ",
    "town": "３丁目",
    "town_kana": "3チョウメ",
    "street": null,
    "office_name": null,
    "office_name_kana": null
  },
  "0818": {
    "postcode": "9660818",
    "prefecture": "福島県",
    "prefecture_kana": "フクシマケン",
    "prefecture_code": 7,
    "city": "喜多方市",
    "city_kana": "キタカタシ",
    "town": "２丁目",
    "town_kana": "2チョウメ",
    "street": null,
    "office_name": null,
    "office_name_kana": null
  },
  "0819": {
    "postcode": "9660819",
    "prefecture": "福島県",
    "prefecture_kana": "フクシマケン",
    "prefecture_code": 7,
    "city": "喜多方市",
    "city_kana": "キタカタシ",
    "town": "１丁目",
    "town_kana": "1チョウメ",
    "street": null,
    "office_name": null,
    "office_name_kana": null
  },
  "0821": {
    "postcode": "9660821",
    "prefecture": "福島県",
    "prefecture_kana": "フクシマケン",
    "prefecture_code": 7,
    "city": "喜多方市",
    "city_kana": "キタカタシ",
    "town": "梅竹",
    "town_kana": "ウメタケ",
    "street": null,
    "office_name": null,
    "office_name_kana": null
  },
  "0822": {
    "postcode": "9660822",
    "prefecture": "福島県",
    "prefecture_kana": "フクシマケン",
    "prefecture_code": 7,
    "city": "喜多方市",
    "city_kana": "キタカタシ",
    "town": "柳原",
    "town_kana": "ヤナギハラ",
    "street": null,
    "office_name": null,
    "office_name_kana": null
  },
  "0823": {
    "postcode": "9660823",
    "prefecture": "福島県",
    "prefecture_kana": "フクシマケン",
    "prefecture_code": 7,
    "city": "喜多方市",
    "city_kana": "キタカタシ",
    "town": "東川原田",
    "town_kana": "ヒガシカワラダ",
    "street": null,
    "office_name": null,
    "office_name_kana": null
  },
  "0824": {
    "postcode": "9660824",
    "prefecture": "福島県",
    "prefecture_kana": "フクシマケン",
    "prefecture_code": 7,
    "city": "喜多方市",
    "city_kana": "キタカタシ",
    "town": "六百刈",
    "town_kana": "ロッピャクガリ",
    "street": null,
    "office_name": null,
    "office_name_kana": null
  },
  "0825": {
    "postcode": "9660825",
    "prefecture": "福島県",
    "prefecture_kana": "フクシマケン",
    "prefecture_code": 7,
    "city": "喜多方市",
    "city_kana": "キタカタシ",
    "town": "御清水南",
    "town_kana": "オシミズミナミ",
    "street": null,
    "office_name": null,
    "office_name_kana": null
  },
  "0826": {
    "postcode": "9660826",
    "prefecture": "福島県",
    "prefecture_kana": "フクシマケン",
    "prefecture_code": 7,
    "city": "喜多方市",
    "city_kana": "キタカタシ",
    "town": "町尻東",
    "town_kana": "マチジリヒガシ",
    "street": null,
    "office_name": null,
    "office_name_kana": null
  },
  "0827": {
    "postcode": "9660827",
    "prefecture": "福島県",
    "prefecture_kana": "フクシマケン",
    "prefecture_code": 7,
    "city": "喜多方市",
    "city_kana": "キタカタシ",
    "town": "沢ノ免",
    "town_kana": "サワノメン",
    "street": null,
    "office_name": null,
    "office_name_kana": null
  },
  "0831": {
    "postcode": "9660831",
    "prefecture": "福島県",
    "prefecture_kana": "フクシマケン",
    "prefecture_code": 7,
    "city": "喜多方市",
    "city_kana": "キタカタシ",
    "town": "小田",
    "town_kana": "オダ",
    "street": null,
    "office_name": null,
    "office_name_kana": null
  },
  "0832": {
    "postcode": "9660832",
    "prefecture": "福島県",
    "prefecture_kana": "フクシマケン",
    "prefecture_code": 7,
    "city": "喜多方市",
    "city_kana": "キタカタシ",
    "town": "百苅田",
    "town_kana": "ヒャクガリダ",
    "street": null,
    "office_name": null,
    "office_name_kana": null
  },
  "0833": {
    "postcode": "9660833",
    "prefecture": "福島県",
    "prefecture_kana": "フクシマケン",
    "prefecture_code": 7,
    "city": "喜多方市",
    "city_kana": "キタカタシ",
    "town": "中島",
    "town_kana": "ナカジマ",
    "street": null,
    "office_name": null,
    "office_name_kana": null
  },
  "0834": {
    "postcode": "9660834",
    "prefecture": "福島県",
    "prefecture_kana": "フクシマケン",
    "prefecture_code": 7,
    "city": "喜多方市",
    "city_kana": "キタカタシ",
    "town": "谷地田上",
    "town_kana": "ヤチダカミ",
    "street": null,
    "office_name": null,
    "office_name_kana": null
  },
  "0835": {
    "postcode": "9660835",
    "prefecture": "福島県",
    "prefecture_kana": "フクシマケン",
    "prefecture_code": 7,
    "city": "喜多方市",
    "city_kana": "キタカタシ",
    "town": "行作",
    "town_kana": "ギョウサク",
    "street": null,
    "office_name": null,
    "office_name_kana": null
  },
  "0836": {
    "postcode": "9660836",
    "prefecture": "福島県",
    "prefecture_kana": "フクシマケン",
    "prefecture_code": 7,
    "city": "喜多方市",
    "city_kana": "キタカタシ",
    "town": "大坪",
    "town_kana": "オオツボ",
    "street": null,
    "office_name": null,
    "office_name_kana": null
  },
  "0837": {
    "postcode": "9660837",
    "prefecture": "福島県",
    "prefecture_kana": "フクシマケン",
    "prefecture_code": 7,
    "city": "喜多方市",
    "city_kana": "キタカタシ",
    "town": "前田上",
    "town_kana": "マエダカミ",
    "street": null,
    "office_name": null,
    "office_name_kana": null
  },
  "0838": {
    "postcode": "9660838",
    "prefecture": "福島県",
    "prefecture_kana": "フクシマケン",
    "prefecture_code": 7,
    "city": "喜多方市",
    "city_kana": "キタカタシ",
    "town": "永久",
    "town_kana": "エイキュウ",
    "street": null,
    "office_name": null,
    "office_name_kana": null
  },
  "0839": {
    "postcode": "9660839",
    "prefecture": "福島県",
    "prefecture_kana": "フクシマケン",
    "prefecture_code": 7,
    "city": "喜多方市",
    "city_kana": "キタカタシ",
    "town": "大道田",
    "town_kana": "オオミチタ",
    "street": null,
    "office_name": null,
    "office_name_kana": null
  },
  "0841": {
    "postcode": "9660841",
    "prefecture": "福島県",
    "prefecture_kana": "フクシマケン",
    "prefecture_code": 7,
    "city": "喜多方市",
    "city_kana": "キタカタシ",
    "town": "さつきが丘",
    "town_kana": "サツキガオカ",
    "street": null,
    "office_name": null,
    "office_name_kana": null
  },
  "0842": {
    "postcode": "9660842",
    "prefecture": "福島県",
    "prefecture_kana": "フクシマケン",
    "prefecture_code": 7,
    "city": "喜多方市",
    "city_kana": "キタカタシ",
    "town": "川下",
    "town_kana": "カワシモ",
    "street": null,
    "office_name": null,
    "office_name_kana": null
  },
  "0843": {
    "postcode": "9660843",
    "prefecture": "福島県",
    "prefecture_kana": "フクシマケン",
    "prefecture_code": 7,
    "city": "喜多方市",
    "city_kana": "キタカタシ",
    "town": "東籠田",
    "town_kana": "ヒガシカゴタ",
    "street": null,
    "office_name": null,
    "office_name_kana": null
  },
  "0844": {
    "postcode": "9660844",
    "prefecture": "福島県",
    "prefecture_kana": "フクシマケン",
    "prefecture_code": 7,
    "city": "喜多方市",
    "city_kana": "キタカタシ",
    "town": "西籠田",
    "town_kana": "ニシカゴタ",
    "street": null,
    "office_name": null,
    "office_name_kana": null
  },
  "0845": {
    "postcode": "9660845",
    "prefecture": "福島県",
    "prefecture_kana": "フクシマケン",
    "prefecture_code": 7,
    "city": "喜多方市",
    "city_kana": "キタカタシ",
    "town": "長内",
    "town_kana": "ナガウチ",
    "street": null,
    "office_name": null,
    "office_name_kana": null
  },
  "0846": {
    "postcode": "9660846",
    "prefecture": "福島県",
    "prefecture_kana": "フクシマケン",
    "prefecture_code": 7,
    "city": "喜多方市",
    "city_kana": "キタカタシ",
    "town": "町田下",
    "town_kana": "マチダシタ",
    "street": null,
    "office_name": null,
    "office_name_kana": null
  },
  "0847": {
    "postcode": "9660847",
    "prefecture": "福島県",
    "prefecture_kana": "フクシマケン",
    "prefecture_code": 7,
    "city": "喜多方市",
    "city_kana": "キタカタシ",
    "town": "町田",
    "town_kana": "マチダ",
    "street": null,
    "office_name": null,
    "office_name_kana": null
  },
  "0848": {
    "postcode": "9660848",
    "prefecture": "福島県",
    "prefecture_kana": "フクシマケン",
    "prefecture_code": 7,
    "city": "喜多方市",
    "city_kana": "キタカタシ",
    "town": "一本木下",
    "town_kana": "イッポンギシタ",
    "street": null,
    "office_name": null,
    "office_name_kana": null
  },
  "0849": {
    "postcode": "9660849",
    "prefecture": "福島県",
    "prefecture_kana": "フクシマケン",
    "prefecture_code": 7,
    "city": "喜多方市",
    "city_kana": "キタカタシ",
    "town": "一本木上",
    "town_kana": "イッポンギウエ",
    "street": null,
    "office_name": null,
    "office_name_kana": null
  },
  "0850": {
    "postcode": "9660850",
    "prefecture": "福島県",
    "prefecture_kana": "フクシマケン",
    "prefecture_code": 7,
    "city": "喜多方市",
    "city_kana": "キタカタシ",
    "town": "下川原",
    "town_kana": "シモカワラ",
    "street": null,
    "office_name": null,
    "office_name_kana": null
  },
  "0851": {
    "postcode": "9660851",
    "prefecture": "福島県",
    "prefecture_kana": "フクシマケン",
    "prefecture_code": 7,
    "city": "喜多方市",
    "city_kana": "キタカタシ",
    "town": "北原",
    "town_kana": "キタハラ",
    "street": null,
    "office_name": null,
    "office_name_kana": null
  },
  "0852": {
    "postcode": "9660852",
    "prefecture": "福島県",
    "prefecture_kana": "フクシマケン",
    "prefecture_code": 7,
    "city": "喜多方市",
    "city_kana": "キタカタシ",
    "town": "天満前",
    "town_kana": "テンマンマエ",
    "street": null,
    "office_name": null,
    "office_name_kana": null
  },
  "0853": {
    "postcode": "9660853",
    "prefecture": "福島県",
    "prefecture_kana": "フクシマケン",
    "prefecture_code": 7,
    "city": "喜多方市",
    "city_kana": "キタカタシ",
    "town": "千苅",
    "town_kana": "センガリ",
    "street": null,
    "office_name": null,
    "office_name_kana": null
  },
  "0854": {
    "postcode": "9660854",
    "prefecture": "福島県",
    "prefecture_kana": "フクシマケン",
    "prefecture_code": 7,
    "city": "喜多方市",
    "city_kana": "キタカタシ",
    "town": "千苅道上",
    "town_kana": "センガリミチウエ",
    "street": null,
    "office_name": null,
    "office_name_kana": null
  },
  "0855": {
    "postcode": "9660855",
    "prefecture": "福島県",
    "prefecture_kana": "フクシマケン",
    "prefecture_code": 7,
    "city": "喜多方市",
    "city_kana": "キタカタシ",
    "town": "太子堂",
    "town_kana": "タイシドウ",
    "street": null,
    "office_name": null,
    "office_name_kana": null
  },
  "0856": {
    "postcode": "9660856",
    "prefecture": "福島県",
    "prefecture_kana": "フクシマケン",
    "prefecture_code": 7,
    "city": "喜多方市",
    "city_kana": "キタカタシ",
    "town": "長源段",
    "town_kana": "チョウゲンダン",
    "street": null,
    "office_name": null,
    "office_name_kana": null
  },
  "0857": {
    "postcode": "9660857",
    "prefecture": "福島県",
    "prefecture_kana": "フクシマケン",
    "prefecture_code": 7,
    "city": "喜多方市",
    "city_kana": "キタカタシ",
    "town": "町西",
    "town_kana": "マチニシ",
    "street": null,
    "office_name": null,
    "office_name_kana": null
  },
  "0858": {
    "postcode": "9660858",
    "prefecture": "福島県",
    "prefecture_kana": "フクシマケン",
    "prefecture_code": 7,
    "city": "喜多方市",
    "city_kana": "キタカタシ",
    "town": "町北",
    "town_kana": "マチキタ",
    "street": null,
    "office_name": null,
    "office_name_kana": null
  },
  "0859": {
    "postcode": "9660859",
    "prefecture": "福島県",
    "prefecture_kana": "フクシマケン",
    "prefecture_code": 7,
    "city": "喜多方市",
    "city_kana": "キタカタシ",
    "town": "番帳免",
    "town_kana": "バンチョウメン",
    "street": null,
    "office_name": null,
    "office_name_kana": null
  },
  "0861": {
    "postcode": "9660861",
    "prefecture": "福島県",
    "prefecture_kana": "フクシマケン",
    "prefecture_code": 7,
    "city": "喜多方市",
    "city_kana": "キタカタシ",
    "town": "寺町",
    "town_kana": "テラマチ",
    "street": null,
    "office_name": null,
    "office_name_kana": null
  },
  "0862": [
    {
      "postcode": "9660862",
      "prefecture": "福島県",
      "prefecture_kana": "フクシマケン",
      "prefecture_code": 7,
      "city": "喜多方市",
      "city_kana": "キタカタシ",
      "town": "常盤町",
      "town_kana": "トキワチョウ",
      "street": null,
      "office_name": null,
      "office_name_kana": null
    },
    {
      "postcode": "9660862",
      "prefecture": "福島県",
      "prefecture_kana": "フクシマケン",
      "prefecture_code": 7,
      "city": "喜多方市",
      "city_kana": "キタカタシ",
      "town": "前田",
      "town_kana": "マエダ",
      "street": null,
      "office_name": null,
      "office_name_kana": null
    }
  ],
  "0863": {
    "postcode": "9660863",
    "prefecture": "福島県",
    "prefecture_kana": "フクシマケン",
    "prefecture_code": 7,
    "city": "喜多方市",
    "city_kana": "キタカタシ",
    "town": "町尻西",
    "town_kana": "マチジリニシ",
    "street": null,
    "office_name": null,
    "office_name_kana": null
  },
  "0864": {
    "postcode": "9660864",
    "prefecture": "福島県",
    "prefecture_kana": "フクシマケン",
    "prefecture_code": 7,
    "city": "喜多方市",
    "city_kana": "キタカタシ",
    "town": "七百苅",
    "town_kana": "ナナヒャクガリ",
    "street": null,
    "office_name": null,
    "office_name_kana": null
  },
  "0865": {
    "postcode": "9660865",
    "prefecture": "福島県",
    "prefecture_kana": "フクシマケン",
    "prefecture_code": 7,
    "city": "喜多方市",
    "city_kana": "キタカタシ",
    "town": "寺田",
    "town_kana": "テラダ",
    "street": null,
    "office_name": null,
    "office_name_kana": null
  },
  "0866": {
    "postcode": "9660866",
    "prefecture": "福島県",
    "prefecture_kana": "フクシマケン",
    "prefecture_code": 7,
    "city": "喜多方市",
    "city_kana": "キタカタシ",
    "town": "古寺",
    "town_kana": "フルデラ",
    "street": null,
    "office_name": null,
    "office_name_kana": null
  },
  "0867": {
    "postcode": "9660867",
    "prefecture": "福島県",
    "prefecture_kana": "フクシマケン",
    "prefecture_code": 7,
    "city": "喜多方市",
    "city_kana": "キタカタシ",
    "town": "扇田",
    "town_kana": "オウギダ",
    "street": null,
    "office_name": null,
    "office_name_kana": null
  },
  "0868": {
    "postcode": "9660868",
    "prefecture": "福島県",
    "prefecture_kana": "フクシマケン",
    "prefecture_code": 7,
    "city": "喜多方市",
    "city_kana": "キタカタシ",
    "town": "市道",
    "town_kana": "イチミチ",
    "street": null,
    "office_name": null,
    "office_name_kana": null
  },
  "0869": {
    "postcode": "9660869",
    "prefecture": "福島県",
    "prefecture_kana": "フクシマケン",
    "prefecture_code": 7,
    "city": "喜多方市",
    "city_kana": "キタカタシ",
    "town": "慶徳道下",
    "town_kana": "ケイトクミチシタ",
    "street": null,
    "office_name": null,
    "office_name_kana": null
  },
  "0871": {
    "postcode": "9660871",
    "prefecture": "福島県",
    "prefecture_kana": "フクシマケン",
    "prefecture_code": 7,
    "city": "喜多方市",
    "city_kana": "キタカタシ",
    "town": "寺町南",
    "town_kana": "テラマチミナミ",
    "street": null,
    "office_name": null,
    "office_name_kana": null
  },
  "0872": {
    "postcode": "9660872",
    "prefecture": "福島県",
    "prefecture_kana": "フクシマケン",
    "prefecture_code": 7,
    "city": "喜多方市",
    "city_kana": "キタカタシ",
    "town": "慶徳道上",
    "town_kana": "ケイトクミチウエ",
    "street": null,
    "office_name": null,
    "office_name_kana": null
  },
  "0873": {
    "postcode": "9660873",
    "prefecture": "福島県",
    "prefecture_kana": "フクシマケン",
    "prefecture_code": 7,
    "city": "喜多方市",
    "city_kana": "キタカタシ",
    "town": "舘野",
    "town_kana": "タテノ",
    "street": null,
    "office_name": null,
    "office_name_kana": null
  },
  "0874": {
    "postcode": "9660874",
    "prefecture": "福島県",
    "prefecture_kana": "フクシマケン",
    "prefecture_code": 7,
    "city": "喜多方市",
    "city_kana": "キタカタシ",
    "town": "窪屋敷",
    "town_kana": "クボヤシキ",
    "street": null,
    "office_name": null,
    "office_name_kana": null
  },
  "0875": {
    "postcode": "9660875",
    "prefecture": "福島県",
    "prefecture_kana": "フクシマケン",
    "prefecture_code": 7,
    "city": "喜多方市",
    "city_kana": "キタカタシ",
    "town": "鶴巻",
    "town_kana": "ツルマキ",
    "street": null,
    "office_name": null,
    "office_name_kana": null
  },
  "0877": {
    "postcode": "9660877",
    "prefecture": "福島県",
    "prefecture_kana": "フクシマケン",
    "prefecture_code": 7,
    "city": "喜多方市",
    "city_kana": "キタカタシ",
    "town": "坂井道上",
    "town_kana": "サカイミチウエ",
    "street": null,
    "office_name": null,
    "office_name_kana": null
  },
  "0881": {
    "postcode": "9660881",
    "prefecture": "福島県",
    "prefecture_kana": "フクシマケン",
    "prefecture_code": 7,
    "city": "喜多方市",
    "city_kana": "キタカタシ",
    "town": "中清水",
    "town_kana": "ナカシミズ",
    "street": null,
    "office_name": null,
    "office_name_kana": null
  },
  "0882": {
    "postcode": "9660882",
    "prefecture": "福島県",
    "prefecture_kana": "フクシマケン",
    "prefecture_code": 7,
    "city": "喜多方市",
    "city_kana": "キタカタシ",
    "town": "中寺",
    "town_kana": "ナカデラ",
    "street": null,
    "office_name": null,
    "office_name_kana": null
  },
  "0884": {
    "postcode": "9660884",
    "prefecture": "福島県",
    "prefecture_kana": "フクシマケン",
    "prefecture_code": 7,
    "city": "喜多方市",
    "city_kana": "キタカタシ",
    "town": "壇ノ前",
    "town_kana": "ダンノマエ",
    "street": null,
    "office_name": null,
    "office_name_kana": null
  },
  "0887": {
    "postcode": "9660887",
    "prefecture": "福島県",
    "prefecture_kana": "フクシマケン",
    "prefecture_code": 7,
    "city": "喜多方市",
    "city_kana": "キタカタシ",
    "town": "飯田道上",
    "town_kana": "イイダミチウエ",
    "street": null,
    "office_name": null,
    "office_name_kana": null
  },
  "0891": {
    "postcode": "9660891",
    "prefecture": "福島県",
    "prefecture_kana": "フクシマケン",
    "prefecture_code": 7,
    "city": "喜多方市",
    "city_kana": "キタカタシ",
    "town": "蝦蟆渕",
    "town_kana": "ガマブチ",
    "street": null,
    "office_name": null,
    "office_name_kana": null
  },
  "0892": {
    "postcode": "9660892",
    "prefecture": "福島県",
    "prefecture_kana": "フクシマケン",
    "prefecture_code": 7,
    "city": "喜多方市",
    "city_kana": "キタカタシ",
    "town": "経壇",
    "town_kana": "キョウダン",
    "street": null,
    "office_name": null,
    "office_name_kana": null
  },
  "0893": {
    "postcode": "9660893",
    "prefecture": "福島県",
    "prefecture_kana": "フクシマケン",
    "prefecture_code": 7,
    "city": "喜多方市",
    "city_kana": "キタカタシ",
    "town": "花園",
    "town_kana": "ハナゾノ",
    "street": null,
    "office_name": null,
    "office_name_kana": null
  },
  "0894": {
    "postcode": "9660894",
    "prefecture": "福島県",
    "prefecture_kana": "フクシマケン",
    "prefecture_code": 7,
    "city": "喜多方市",
    "city_kana": "キタカタシ",
    "town": "御茶屋",
    "town_kana": "オチヤヤ",
    "street": null,
    "office_name": null,
    "office_name_kana": null
  },
  "0895": {
    "postcode": "9660895",
    "prefecture": "福島県",
    "prefecture_kana": "フクシマケン",
    "prefecture_code": 7,
    "city": "喜多方市",
    "city_kana": "キタカタシ",
    "town": "東小原",
    "town_kana": "ヒガシオバラ",
    "street": null,
    "office_name": null,
    "office_name_kana": null
  },
  "0896": {
    "postcode": "9660896",
    "prefecture": "福島県",
    "prefecture_kana": "フクシマケン",
    "prefecture_code": 7,
    "city": "喜多方市",
    "city_kana": "キタカタシ",
    "town": "諏訪",
    "town_kana": "スワ",
    "street": null,
    "office_name": null,
    "office_name_kana": null
  },
  "0897": {
    "postcode": "9660897",
    "prefecture": "福島県",
    "prefecture_kana": "フクシマケン",
    "prefecture_code": 7,
    "city": "喜多方市",
    "city_kana": "キタカタシ",
    "town": "経壇東",
    "town_kana": "キョウダンヒガシ",
    "street": null,
    "office_name": null,
    "office_name_kana": null
  },
  "0898": {
    "postcode": "9660898",
    "prefecture": "福島県",
    "prefecture_kana": "フクシマケン",
    "prefecture_code": 7,
    "city": "喜多方市",
    "city_kana": "キタカタシ",
    "town": "見頃道上",
    "town_kana": "ミゴロミチウエ",
    "street": null,
    "office_name": null,
    "office_name_kana": null
  },
  "0899": {
    "postcode": "9660899",
    "prefecture": "福島県",
    "prefecture_kana": "フクシマケン",
    "prefecture_code": 7,
    "city": "喜多方市",
    "city_kana": "キタカタシ",
    "town": "樋越",
    "town_kana": "トイゴシ",
    "street": null,
    "office_name": null,
    "office_name_kana": null
  },
  "0901": {
    "postcode": "9660901",
    "prefecture": "福島県",
    "prefecture_kana": "フクシマケン",
    "prefecture_code": 7,
    "city": "喜多方市",
    "city_kana": "キタカタシ",
    "town": "松山町鳥見山",
    "town_kana": "マツヤママチトリミヤマ",
    "street": null,
    "office_name": null,
    "office_name_kana": null
  },
  "0902": {
    "postcode": "9660902",
    "prefecture": "福島県",
    "prefecture_kana": "フクシマケン",
    "prefecture_code": 7,
    "city": "喜多方市",
    "city_kana": "キタカタシ",
    "town": "松山町村松",
    "town_kana": "マツヤママチムラマツ",
    "street": null,
    "office_name": null,
    "office_name_kana": null
  },
  "0903": {
    "postcode": "9660903",
    "prefecture": "福島県",
    "prefecture_kana": "フクシマケン",
    "prefecture_code": 7,
    "city": "喜多方市",
    "city_kana": "キタカタシ",
    "town": "松山町大飯坂",
    "town_kana": "マツヤママチオオイイザカ",
    "street": null,
    "office_name": null,
    "office_name_kana": null
  },
  "0904": {
    "postcode": "9660904",
    "prefecture": "福島県",
    "prefecture_kana": "フクシマケン",
    "prefecture_code": 7,
    "city": "喜多方市",
    "city_kana": "キタカタシ",
    "town": "大荒井",
    "town_kana": "オオアライ",
    "street": null,
    "office_name": null,
    "office_name_kana": null
  },
  "0911": {
    "postcode": "9660911",
    "prefecture": "福島県",
    "prefecture_kana": "フクシマケン",
    "prefecture_code": 7,
    "city": "喜多方市",
    "city_kana": "キタカタシ",
    "town": "豊川町高堂太",
    "town_kana": "トヨカワマチタカドウタ",
    "street": null,
    "office_name": null,
    "office_name_kana": null
  },
  "0912": {
    "postcode": "9660912",
    "prefecture": "福島県",
    "prefecture_kana": "フクシマケン",
    "prefecture_code": 7,
    "city": "喜多方市",
    "city_kana": "キタカタシ",
    "town": "豊川町一井",
    "town_kana": "トヨカワマチイチイ",
    "street": null,
    "office_name": null,
    "office_name_kana": null
  },
  "0913": {
    "postcode": "9660913",
    "prefecture": "福島県",
    "prefecture_kana": "フクシマケン",
    "prefecture_code": 7,
    "city": "喜多方市",
    "city_kana": "キタカタシ",
    "town": "豊川町沢部",
    "town_kana": "トヨカワマチサワベ",
    "street": null,
    "office_name": null,
    "office_name_kana": null
  },
  "0914": {
    "postcode": "9660914",
    "prefecture": "福島県",
    "prefecture_kana": "フクシマケン",
    "prefecture_code": 7,
    "city": "喜多方市",
    "city_kana": "キタカタシ",
    "town": "豊川町米室",
    "town_kana": "トヨカワマチヨネムロ",
    "street": null,
    "office_name": null,
    "office_name_kana": null
  },
  "0915": {
    "postcode": "9660915",
    "prefecture": "福島県",
    "prefecture_kana": "フクシマケン",
    "prefecture_code": 7,
    "city": "喜多方市",
    "city_kana": "キタカタシ",
    "town": "大谷地",
    "town_kana": "オオヤチ",
    "street": null,
    "office_name": null,
    "office_name_kana": null
  },
  "0916": {
    "postcode": "9660916",
    "prefecture": "福島県",
    "prefecture_kana": "フクシマケン",
    "prefecture_code": 7,
    "city": "喜多方市",
    "city_kana": "キタカタシ",
    "town": "千苅道下",
    "town_kana": "センガリミチシタ",
    "street": null,
    "office_name": null,
    "office_name_kana": null
  },
  "0917": {
    "postcode": "9660917",
    "prefecture": "福島県",
    "prefecture_kana": "フクシマケン",
    "prefecture_code": 7,
    "city": "喜多方市",
    "city_kana": "キタカタシ",
    "town": "千苅中道上",
    "town_kana": "センガリナカミチウエ",
    "street": null,
    "office_name": null,
    "office_name_kana": null
  },
  "0921": {
    "postcode": "9660921",
    "prefecture": "福島県",
    "prefecture_kana": "フクシマケン",
    "prefecture_code": 7,
    "city": "喜多方市",
    "city_kana": "キタカタシ",
    "town": "慶徳町松舞家",
    "town_kana": "ケイトクマチマツマイケ",
    "street": null,
    "office_name": null,
    "office_name_kana": null
  },
  "0922": {
    "postcode": "9660922",
    "prefecture": "福島県",
    "prefecture_kana": "フクシマケン",
    "prefecture_code": 7,
    "city": "喜多方市",
    "city_kana": "キタカタシ",
    "town": "慶徳町豊岡",
    "town_kana": "ケイトクマチトヨオカ",
    "street": null,
    "office_name": null,
    "office_name_kana": null
  },
  "0923": {
    "postcode": "9660923",
    "prefecture": "福島県",
    "prefecture_kana": "フクシマケン",
    "prefecture_code": 7,
    "city": "喜多方市",
    "city_kana": "キタカタシ",
    "town": "慶徳町新宮",
    "town_kana": "ケイトクマチシングウ",
    "street": null,
    "office_name": null,
    "office_name_kana": null
  },
  "0924": {
    "postcode": "9660924",
    "prefecture": "福島県",
    "prefecture_kana": "フクシマケン",
    "prefecture_code": 7,
    "city": "喜多方市",
    "city_kana": "キタカタシ",
    "town": "慶徳町山科",
    "town_kana": "ケイトクマチヤマシナ",
    "street": null,
    "office_name": null,
    "office_name_kana": null
  },
  "0931": {
    "postcode": "9660931",
    "prefecture": "福島県",
    "prefecture_kana": "フクシマケン",
    "prefecture_code": 7,
    "city": "喜多方市",
    "city_kana": "キタカタシ",
    "town": "上三宮町上三宮",
    "town_kana": "カミサンミヤマチカミサンミヤ",
    "street": null,
    "office_name": null,
    "office_name_kana": null
  },
  "0932": {
    "postcode": "9660932",
    "prefecture": "福島県",
    "prefecture_kana": "フクシマケン",
    "prefecture_code": 7,
    "city": "喜多方市",
    "city_kana": "キタカタシ",
    "town": "上三宮町吉川",
    "town_kana": "カミサンミヤマチヨシカワ",
    "street": null,
    "office_name": null,
    "office_name_kana": null
  },
  "0933": {
    "postcode": "9660933",
    "prefecture": "福島県",
    "prefecture_kana": "フクシマケン",
    "prefecture_code": 7,
    "city": "喜多方市",
    "city_kana": "キタカタシ",
    "town": "上三宮町三谷",
    "town_kana": "カミサンミヤマチミタニ",
    "street": null,
    "office_name": null,
    "office_name_kana": null
  },
  "8601": {
    "postcode": "9668601",
    "prefecture": "福島県",
    "prefecture_kana": "フクシマケン",
    "prefecture_code": 7,
    "city": "喜多方市",
    "city_kana": "キタカタシ",
    "town": "字御清水東",
    "town_kana": null,
    "street": "７２４４−２（喜多方郵便局私書箱第５号）",
    "office_name": "喜多方市役所",
    "office_name_kana": "キタカタシヤクシヨ"
  }
}