{
  "0000": {
    "postcode": "9800000",
    "prefecture": "宮城県",
    "prefecture_kana": "ミヤギケン",
    "prefecture_code": 4,
    "city": "仙台市青葉区",
    "city_kana": "センダイシアオバク",
    "town": "",
    "town_kana": "",
    "street": null,
    "office_name": null,
    "office_name_kana": null
  },
  "0001": {
    "postcode": "9800001",
    "prefecture": "宮城県",
    "prefecture_kana": "ミヤギケン",
    "prefecture_code": 4,
    "city": "仙台市青葉区",
    "city_kana": "センダイシアオバク",
    "town": "中江",
    "town_kana": "ナカエ",
    "street": null,
    "office_name": null,
    "office_name_kana": null
  },
  "0002": {
    "postcode": "9800002",
    "prefecture": "宮城県",
    "prefecture_kana": "ミヤギケン",
    "prefecture_code": 4,
    "city": "仙台市青葉区",
    "city_kana": "センダイシアオバク",
    "town": "福沢町",
    "town_kana": "フクザワマチ",
    "street": null,
    "office_name": null,
    "office_name_kana": null
  },
  "0003": {
    "postcode": "9800003",
    "prefecture": "宮城県",
    "prefecture_kana": "ミヤギケン",
    "prefecture_code": 4,
    "city": "仙台市青葉区",
    "city_kana": "センダイシアオバク",
    "town": "小田原",
    "town_kana": "オダワラ",
    "street": null,
    "office_name": null,
    "office_name_kana": null
  },
  "0004": {
    "postcode": "9800004",
    "prefecture": "宮城県",
    "prefecture_kana": "ミヤギケン",
    "prefecture_code": 4,
    "city": "仙台市青葉区",
    "city_kana": "センダイシアオバク",
    "town": "宮町",
    "town_kana": "ミヤマチ",
    "street": null,
    "office_name": null,
    "office_name_kana": null
  },
  "0005": {
    "postcode": "9800005",
    "prefecture": "宮城県",
    "prefecture_kana": "ミヤギケン",
    "prefecture_code": 4,
    "city": "仙台市青葉区",
    "city_kana": "センダイシアオバク",
    "town": "梅田町",
    "town_kana": "ウメダマチ",
    "street": null,
    "office_name": null,
    "office_name_kana": null
  },
  "0011": {
    "postcode": "9800011",
    "prefecture": "宮城県",
    "prefecture_kana": "ミヤギケン",
    "prefecture_code": 4,
    "city": "仙台市青葉区",
    "city_kana": "センダイシアオバク",
    "town": "上杉",
    "town_kana": "カミスギ",
    "street": null,
    "office_name": null,
    "office_name_kana": null
  },
  "0012": {
    "postcode": "9800012",
    "prefecture": "宮城県",
    "prefecture_kana": "ミヤギケン",
    "prefecture_code": 4,
    "city": "仙台市青葉区",
    "city_kana": "センダイシアオバク",
    "town": "錦町",
    "town_kana": "ニシキチョウ",
    "street": null,
    "office_name": null,
    "office_name_kana": null
  },
  "0013": {
    "postcode": "9800013",
    "prefecture": "宮城県",
    "prefecture_kana": "ミヤギケン",
    "prefecture_code": 4,
    "city": "仙台市青葉区",
    "city_kana": "センダイシアオバク",
    "town": "花京院",
    "town_kana": "カキョウイン",
    "street": null,
    "office_name": null,
    "office_name_kana": null
  },
  "0014": {
    "postcode": "9800014",
    "prefecture": "宮城県",
    "prefecture_kana": "ミヤギケン",
    "prefecture_code": 4,
    "city": "仙台市青葉区",
    "city_kana": "センダイシアオバク",
    "town": "本町",
    "town_kana": "ホンチョウ",
    "street": null,
    "office_name": null,
    "office_name_kana": null
  },
  "0021": {
    "postcode": "9800021",
    "prefecture": "宮城県",
    "prefecture_kana": "ミヤギケン",
    "prefecture_code": 4,
    "city": "仙台市青葉区",
    "city_kana": "センダイシアオバク",
    "town": "中央",
    "town_kana": "チュウオウ",
    "street": null,
    "office_name": null,
    "office_name_kana": null
  },
  "0022": {
    "postcode": "9800022",
    "prefecture": "宮城県",
    "prefecture_kana": "ミヤギケン",
    "prefecture_code": 4,
    "city": "仙台市青葉区",
    "city_kana": "センダイシアオバク",
    "town": "五橋",
    "town_kana": "イツツバシ",
    "street": null,
    "office_name": null,
    "office_name_kana": null
  },
  "0023": {
    "postcode": "9800023",
    "prefecture": "宮城県",
    "prefecture_kana": "ミヤギケン",
    "prefecture_code": 4,
    "city": "仙台市青葉区",
    "city_kana": "センダイシアオバク",
    "town": "北目町",
    "town_kana": "キタメマチ",
    "street": null,
    "office_name": null,
    "office_name_kana": null
  },
  "0065": {
    "postcode": "9800065",
    "prefecture": "宮城県",
    "prefecture_kana": "ミヤギケン",
    "prefecture_code": 4,
    "city": "仙台市青葉区",
    "city_kana": "センダイシアオバク",
    "town": "土樋",
    "town_kana": "ツチトイ",
    "street": null,
    "office_name": null,
    "office_name_kana": null
  },
  "0801": {
    "postcode": "9800801",
    "prefecture": "宮城県",
    "prefecture_kana": "ミヤギケン",
    "prefecture_code": 4,
    "city": "仙台市青葉区",
    "city_kana": "センダイシアオバク",
    "town": "木町通",
    "town_kana": "キマチドオリ",
    "street": null,
    "office_name": null,
    "office_name_kana": null
  },
  "0802": {
    "postcode": "9800802",
    "prefecture": "宮城県",
    "prefecture_kana": "ミヤギケン",
    "prefecture_code": 4,
    "city": "仙台市青葉区",
    "city_kana": "センダイシアオバク",
    "town": "二日町",
    "town_kana": "フツカマチ",
    "street": null,
    "office_name": null,
    "office_name_kana": null
  },
  "0803": {
    "postcode": "9800803",
    "prefecture": "宮城県",
    "prefecture_kana": "ミヤギケン",
    "prefecture_code": 4,
    "city": "仙台市青葉区",
    "city_kana": "センダイシアオバク",
    "town": "国分町",
    "town_kana": "コクブンチョウ",
    "street": null,
    "office_name": null,
    "office_name_kana": null
  },
  "0804": {
    "postcode": "9800804",
    "prefecture": "宮城県",
    "prefecture_kana": "ミヤギケン",
    "prefecture_code": 4,
    "city": "仙台市青葉区",
    "city_kana": "センダイシアオバク",
    "town": "大町",
    "town_kana": "オオマチ",
    "street": null,
    "office_name": null,
    "office_name_kana": null
  },
  "0805": {
    "postcode": "9800805",
    "prefecture": "宮城県",
    "prefecture_kana": "ミヤギケン",
    "prefecture_code": 4,
    "city": "仙台市青葉区",
    "city_kana": "センダイシアオバク",
    "town": "大手町",
    "town_kana": "オオテマチ",
    "street": null,
    "office_name": null,
    "office_name_kana": null
  },
  "0811": {
    "postcode": "9800811",
    "prefecture": "宮城県",
    "prefecture_kana": "ミヤギケン",
    "prefecture_code": 4,
    "city": "仙台市青葉区",
    "city_kana": "センダイシアオバク",
    "town": "一番町",
    "town_kana": "イチバンチョウ",
    "street": null,
    "office_name": null,
    "office_name_kana": null
  },
  "0812": {
    "postcode": "9800812",
    "prefecture": "宮城県",
    "prefecture_kana": "ミヤギケン",
    "prefecture_code": 4,
    "city": "仙台市青葉区",
    "city_kana": "センダイシアオバク",
    "town": "片平",
    "town_kana": "カタヒラ",
    "street": null,
    "office_name": null,
    "office_name_kana": null
  },
  "0813": {
    "postcode": "9800813",
    "prefecture": "宮城県",
    "prefecture_kana": "ミヤギケン",
    "prefecture_code": 4,
    "city": "仙台市青葉区",
    "city_kana": "センダイシアオバク",
    "town": "米ケ袋",
    "town_kana": "コメガフクロ",
    "street": null,
    "office_name": null,
    "office_name_kana": null
  },
  "0814": {
    "postcode": "9800814",
    "prefecture": "宮城県",
    "prefecture_kana": "ミヤギケン",
    "prefecture_code": 4,
    "city": "仙台市青葉区",
    "city_kana": "センダイシアオバク",
    "town": "霊屋下",
    "town_kana": "オタマヤシタ",
    "street": null,
    "office_name": null,
    "office_name_kana": null
  },
  "0815": {
    "postcode": "9800815",
    "prefecture": "宮城県",
    "prefecture_kana": "ミヤギケン",
    "prefecture_code": 4,
    "city": "仙台市青葉区",
    "city_kana": "センダイシアオバク",
    "town": "花壇",
    "town_kana": "カダン",
    "street": null,
    "office_name": null,
    "office_name_kana": null
  },
  "0821": {
    "postcode": "9800821",
    "prefecture": "宮城県",
    "prefecture_kana": "ミヤギケン",
    "prefecture_code": 4,
    "city": "仙台市青葉区",
    "city_kana": "センダイシアオバク",
    "town": "春日町",
    "town_kana": "カスガマチ",
    "street": null,
    "office_name": null,
    "office_name_kana": null
  },
  "0822": {
    "postcode": "9800822",
    "prefecture": "宮城県",
    "prefecture_kana": "ミヤギケン",
    "prefecture_code": 4,
    "city": "仙台市青葉区",
    "city_kana": "センダイシアオバク",
    "town": "立町",
    "town_kana": "タチマチ",
    "street": null,
    "office_name": null,
    "office_name_kana": null
  },
  "0823": {
    "postcode": "9800823",
    "prefecture": "宮城県",
    "prefecture_kana": "ミヤギケン",
    "prefecture_code": 4,
    "city": "仙台市青葉区",
    "city_kana": "センダイシアオバク",
    "town": "桜ケ岡公園",
    "town_kana": "サクラガオカコウエン",
    "street": null,
    "office_name": null,
    "office_name_kana": null
  },
  "0824": {
    "postcode": "9800824",
    "prefecture": "宮城県",
    "prefecture_kana": "ミヤギケン",
    "prefecture_code": 4,
    "city": "仙台市青葉区",
    "city_kana": "センダイシアオバク",
    "town": "支倉町",
    "town_kana": "ハセクラマチ",
    "street": null,
    "office_name": null,
    "office_name_kana": null
  },
  "0845": {
    "postcode": "9800845",
    "prefecture": "宮城県",
    "prefecture_kana": "ミヤギケン",
    "prefecture_code": 4,
    "city": "仙台市青葉区",
    "city_kana": "センダイシアオバク",
    "town": "荒巻",
    "town_kana": "アラマキ",
    "street": null,
    "office_name": null,
    "office_name_kana": null
  },
  "0851": {
    "postcode": "9800851",
    "prefecture": "宮城県",
    "prefecture_kana": "ミヤギケン",
    "prefecture_code": 4,
    "city": "仙台市青葉区",
    "city_kana": "センダイシアオバク",
    "town": "川内明神横丁",
    "town_kana": "カワウチミョウジンヨコチョウ",
    "street": null,
    "office_name": null,
    "office_name_kana": null
  },
  "0852": {
    "postcode": "9800852",
    "prefecture": "宮城県",
    "prefecture_kana": "ミヤギケン",
    "prefecture_code": 4,
    "city": "仙台市青葉区",
    "city_kana": "センダイシアオバク",
    "town": "川内川前丁",
    "town_kana": "カワウチカワマエチョウ",
    "street": null,
    "office_name": null,
    "office_name_kana": null
  },
  "0853": {
    "postcode": "9800853",
    "prefecture": "宮城県",
    "prefecture_kana": "ミヤギケン",
    "prefecture_code": 4,
    "city": "仙台市青葉区",
    "city_kana": "センダイシアオバク",
    "town": "川内大工町",
    "town_kana": "カワウチダイクマチ",
    "street": null,
    "office_name": null,
    "office_name_kana": null
  },
  "0854": {
    "postcode": "9800854",
    "prefecture": "宮城県",
    "prefecture_kana": "ミヤギケン",
    "prefecture_code": 4,
    "city": "仙台市青葉区",
    "city_kana": "センダイシアオバク",
    "town": "川内中ノ瀬町",
    "town_kana": "カワウチナカノセマチ",
    "street": null,
    "office_name": null,
    "office_name_kana": null
  },
  "0855": {
    "postcode": "9800855",
    "prefecture": "宮城県",
    "prefecture_kana": "ミヤギケン",
    "prefecture_code": 4,
    "city": "仙台市青葉区",
    "city_kana": "センダイシアオバク",
    "town": "川内澱橋通",
    "town_kana": "カワウチヨドミバシドオリ",
    "street": null,
    "office_name": null,
    "office_name_kana": null
  },
  "0856": {
    "postcode": "9800856",
    "prefecture": "宮城県",
    "prefecture_kana": "ミヤギケン",
    "prefecture_code": 4,
    "city": "仙台市青葉区",
    "city_kana": "センダイシアオバク",
    "town": "青葉山",
    "town_kana": "アオバヤマ",
    "street": null,
    "office_name": null,
    "office_name_kana": null
  },
  "0861": {
    "postcode": "9800861",
    "prefecture": "宮城県",
    "prefecture_kana": "ミヤギケン",
    "prefecture_code": 4,
    "city": "仙台市青葉区",
    "city_kana": "センダイシアオバク",
    "town": "川内元支倉",
    "town_kana": "カワウチモトハセクラ",
    "street": null,
    "office_name": null,
    "office_name_kana": null
  },
  "0862": {
    "postcode": "9800862",
    "prefecture": "宮城県",
    "prefecture_kana": "ミヤギケン",
    "prefecture_code": 4,
    "city": "仙台市青葉区",
    "city_kana": "センダイシアオバク",
    "town": "川内",
    "town_kana": "カワウチ",
    "street": null,
    "office_name": null,
    "office_name_kana": null
  },
  "0863": {
    "postcode": "9800863",
    "prefecture": "宮城県",
    "prefecture_kana": "ミヤギケン",
    "prefecture_code": 4,
    "city": "仙台市青葉区",
    "city_kana": "センダイシアオバク",
    "town": "川内追廻",
    "town_kana": "カワウチオイマワシ",
    "street": null,
    "office_name": null,
    "office_name_kana": null
  },
  "0864": {
    "postcode": "9800864",
    "prefecture": "宮城県",
    "prefecture_kana": "ミヤギケン",
    "prefecture_code": 4,
    "city": "仙台市青葉区",
    "city_kana": "センダイシアオバク",
    "town": "川内山屋敷",
    "town_kana": "カワウチヤマヤシキ",
    "street": null,
    "office_name": null,
    "office_name_kana": null
  },
  "0865": {
    "postcode": "9800865",
    "prefecture": "宮城県",
    "prefecture_kana": "ミヤギケン",
    "prefecture_code": 4,
    "city": "仙台市青葉区",
    "city_kana": "センダイシアオバク",
    "town": "川内亀岡町",
    "town_kana": "カワウチカメオカチョウ",
    "street": null,
    "office_name": null,
    "office_name_kana": null
  },
  "0866": {
    "postcode": "9800866",
    "prefecture": "宮城県",
    "prefecture_kana": "ミヤギケン",
    "prefecture_code": 4,
    "city": "仙台市青葉区",
    "city_kana": "センダイシアオバク",
    "town": "川内三十人町",
    "town_kana": "カワウチサンジュウニンマチ",
    "street": null,
    "office_name": null,
    "office_name_kana": null
  },
  "0867": {
    "postcode": "9800867",
    "prefecture": "宮城県",
    "prefecture_kana": "ミヤギケン",
    "prefecture_code": 4,
    "city": "仙台市青葉区",
    "city_kana": "センダイシアオバク",
    "town": "川内亀岡北裏丁",
    "town_kana": "カワウチカメオカキタウラチョウ",
    "street": null,
    "office_name": null,
    "office_name_kana": null
  },
  "0871": {
    "postcode": "9800871",
    "prefecture": "宮城県",
    "prefecture_kana": "ミヤギケン",
    "prefecture_code": 4,
    "city": "仙台市青葉区",
    "city_kana": "センダイシアオバク",
    "town": "八幡",
    "town_kana": "ハチマン",
    "street": null,
    "office_name": null,
    "office_name_kana": null
  },
  "0872": {
    "postcode": "9800872",
    "prefecture": "宮城県",
    "prefecture_kana": "ミヤギケン",
    "prefecture_code": 4,
    "city": "仙台市青葉区",
    "city_kana": "センダイシアオバク",
    "town": "星陵町",
    "town_kana": "セイリョウマチ",
    "street": null,
    "office_name": null,
    "office_name_kana": null
  },
  "0873": {
    "postcode": "9800873",
    "prefecture": "宮城県",
    "prefecture_kana": "ミヤギケン",
    "prefecture_code": 4,
    "city": "仙台市青葉区",
    "city_kana": "センダイシアオバク",
    "town": "広瀬町",
    "town_kana": "ヒロセマチ",
    "street": null,
    "office_name": null,
    "office_name_kana": null
  },
  "0874": {
    "postcode": "9800874",
    "prefecture": "宮城県",
    "prefecture_kana": "ミヤギケン",
    "prefecture_code": 4,
    "city": "仙台市青葉区",
    "city_kana": "センダイシアオバク",
    "town": "角五郎",
    "town_kana": "ツノゴロウ",
    "street": null,
    "office_name": null,
    "office_name_kana": null
  },
  "6001": {
    "postcode": "9806001",
    "prefecture": "宮城県",
    "prefecture_kana": "ミヤギケン",
    "prefecture_code": 4,
    "city": "仙台市青葉区",
    "city_kana": "センダイシアオバク",
    "town": "中央ＳＳ３０住友生命仙台中央ビル　１階",
    "town_kana": "チュウオウSS30スミトモセイメイセンダイチュウオウビル1カイ",
    "street": null,
    "office_name": null,
    "office_name_kana": null
  },
  "6002": {
    "postcode": "9806002",
    "prefecture": "宮城県",
    "prefecture_kana": "ミヤギケン",
    "prefecture_code": 4,
    "city": "仙台市青葉区",
    "city_kana": "センダイシアオバク",
    "town": "中央ＳＳ３０住友生命仙台中央ビル　２階",
    "town_kana": "チュウオウSS30スミトモセイメイセンダイチュウオウビル2カイ",
    "street": null,
    "office_name": null,
    "office_name_kana": null
  },
  "6003": {
    "postcode": "9806003",
    "prefecture": "宮城県",
    "prefecture_kana": "ミヤギケン",
    "prefecture_code": 4,
    "city": "仙台市青葉区",
    "city_kana": "センダイシアオバク",
    "town": "中央ＳＳ３０住友生命仙台中央ビル　３階",
    "town_kana": "チュウオウSS30スミトモセイメイセンダイチュウオウビル3カイ",
    "street": null,
    "office_name": null,
    "office_name_kana": null
  },
  "6004": {
    "postcode": "9806004",
    "prefecture": "宮城県",
    "prefecture_kana": "ミヤギケン",
    "prefecture_code": 4,
    "city": "仙台市青葉区",
    "city_kana": "センダイシアオバク",
    "town": "中央ＳＳ３０住友生命仙台中央ビル　４階",
    "town_kana": "チュウオウSS30スミトモセイメイセンダイチュウオウビル4カイ",
    "street": null,
    "office_name": null,
    "office_name_kana": null
  },
  "6005": {
    "postcode": "9806005",
    "prefecture": "宮城県",
    "prefecture_kana": "ミヤギケン",
    "prefecture_code": 4,
    "city": "仙台市青葉区",
    "city_kana": "センダイシアオバク",
    "town": "中央ＳＳ３０住友生命仙台中央ビル　５階",
    "town_kana": "チュウオウSS30スミトモセイメイセンダイチュウオウビル5カイ",
    "street": null,
    "office_name": null,
    "office_name_kana": null
  },
  "6006": {
    "postcode": "9806006",
    "prefecture": "宮城県",
    "prefecture_kana": "ミヤギケン",
    "prefecture_code": 4,
    "city": "仙台市青葉区",
    "city_kana": "センダイシアオバク",
    "town": "中央ＳＳ３０住友生命仙台中央ビル　６階",
    "town_kana": "チュウオウSS30スミトモセイメイセンダイチュウオウビル6カイ",
    "street": null,
    "office_name": null,
    "office_name_kana": null
  },
  "6007": {
    "postcode": "9806007",
    "prefecture": "宮城県",
    "prefecture_kana": "ミヤギケン",
    "prefecture_code": 4,
    "city": "仙台市青葉区",
    "city_kana": "センダイシアオバク",
    "town": "中央ＳＳ３０住友生命仙台中央ビル　７階",
    "town_kana": "チュウオウSS30スミトモセイメイセンダイチュウオウビル7カイ",
    "street": null,
    "office_name": null,
    "office_name_kana": null
  },
  "6008": {
    "postcode": "9806008",
    "prefecture": "宮城県",
    "prefecture_kana": "ミヤギケン",
    "prefecture_code": 4,
    "city": "仙台市青葉区",
    "city_kana": "センダイシアオバク",
    "town": "中央ＳＳ３０住友生命仙台中央ビル　８階",
    "town_kana": "チュウオウSS30スミトモセイメイセンダイチュウオウビル8カイ",
    "street": null,
    "office_name": null,
    "office_name_kana": null
  },
  "6009": {
    "postcode": "9806009",
    "prefecture": "宮城県",
    "prefecture_kana": "ミヤギケン",
    "prefecture_code": 4,
    "city": "仙台市青葉区",
    "city_kana": "センダイシアオバク",
    "town": "中央ＳＳ３０住友生命仙台中央ビル　９階",
    "town_kana": "チュウオウSS30スミトモセイメイセンダイチュウオウビル9カイ",
    "street": null,
    "office_name": null,
    "office_name_kana": null
  },
  "6010": {
    "postcode": "9806010",
    "prefecture": "宮城県",
    "prefecture_kana": "ミヤギケン",
    "prefecture_code": 4,
    "city": "仙台市青葉区",
    "city_kana": "センダイシアオバク",
    "town": "中央ＳＳ３０住友生命仙台中央ビル　１０階",
    "town_kana": "チュウオウSS30スミトモセイメイセンダイチュウオウビル10カイ",
    "street": null,
    "office_name": null,
    "office_name_kana": null
  },
  "6011": {
    "postcode": "9806011",
    "prefecture": "宮城県",
    "prefecture_kana": "ミヤギケン",
    "prefecture_code": 4,
    "city": "仙台市青葉区",
    "city_kana": "センダイシアオバク",
    "town": "中央ＳＳ３０住友生命仙台中央ビル　１１階",
    "town_kana": "チュウオウSS30スミトモセイメイセンダイチュウオウビル11カイ",
    "street": null,
    "office_name": null,
    "office_name_kana": null
  },
  "6012": {
    "postcode": "9806012",
    "prefecture": "宮城県",
    "prefecture_kana": "ミヤギケン",
    "prefecture_code": 4,
    "city": "仙台市青葉区",
    "city_kana": "センダイシアオバク",
    "town": "中央ＳＳ３０住友生命仙台中央ビル　１２階",
    "town_kana": "チュウオウSS30スミトモセイメイセンダイチュウオウビル12カイ",
    "street": null,
    "office_name": null,
    "office_name_kana": null
  },
  "6013": {
    "postcode": "9806013",
    "prefecture": "宮城県",
    "prefecture_kana": "ミヤギケン",
    "prefecture_code": 4,
    "city": "仙台市青葉区",
    "city_kana": "センダイシアオバク",
    "town": "中央ＳＳ３０住友生命仙台中央ビル　１３階",
    "town_kana": "チュウオウSS30スミトモセイメイセンダイチュウオウビル13カイ",
    "street": null,
    "office_name": null,
    "office_name_kana": null
  },
  "6014": {
    "postcode": "9806014",
    "prefecture": "宮城県",
    "prefecture_kana": "ミヤギケン",
    "prefecture_code": 4,
    "city": "仙台市青葉区",
    "city_kana": "センダイシアオバク",
    "town": "中央ＳＳ３０住友生命仙台中央ビル　１４階",
    "town_kana": "チュウオウSS30スミトモセイメイセンダイチュウオウビル14カイ",
    "street": null,
    "office_name": null,
    "office_name_kana": null
  },
  "6015": {
    "postcode": "9806015",
    "prefecture": "宮城県",
    "prefecture_kana": "ミヤギケン",
    "prefecture_code": 4,
    "city": "仙台市青葉区",
    "city_kana": "センダイシアオバク",
    "town": "中央ＳＳ３０住友生命仙台中央ビル　１５階",
    "town_kana": "チュウオウSS30スミトモセイメイセンダイチュウオウビル15カイ",
    "street": null,
    "office_name": null,
    "office_name_kana": null
  },
  "6016": {
    "postcode": "9806016",
    "prefecture": "宮城県",
    "prefecture_kana": "ミヤギケン",
    "prefecture_code": 4,
    "city": "仙台市青葉区",
    "city_kana": "センダイシアオバク",
    "town": "中央ＳＳ３０住友生命仙台中央ビル　１６階",
    "town_kana": "チュウオウSS30スミトモセイメイセンダイチュウオウビル16カイ",
    "street": null,
    "office_name": null,
    "office_name_kana": null
  },
  "6017": {
    "postcode": "9806017",
    "prefecture": "宮城県",
    "prefecture_kana": "ミヤギケン",
    "prefecture_code": 4,
    "city": "仙台市青葉区",
    "city_kana": "センダイシアオバク",
    "town": "中央ＳＳ３０住友生命仙台中央ビル　１７階",
    "town_kana": "チュウオウSS30スミトモセイメイセンダイチュウオウビル17カイ",
    "street": null,
    "office_name": null,
    "office_name_kana": null
  },
  "6018": {
    "postcode": "9806018",
    "prefecture": "宮城県",
    "prefecture_kana": "ミヤギケン",
    "prefecture_code": 4,
    "city": "仙台市青葉区",
    "city_kana": "センダイシアオバク",
    "town": "中央ＳＳ３０住友生命仙台中央ビル　１８階",
    "town_kana": "チュウオウSS30スミトモセイメイセンダイチュウオウビル18カイ",
    "street": null,
    "office_name": null,
    "office_name_kana": null
  },
  "6019": {
    "postcode": "9806019",
    "prefecture": "宮城県",
    "prefecture_kana": "ミヤギケン",
    "prefecture_code": 4,
    "city": "仙台市青葉区",
    "city_kana": "センダイシアオバク",
    "town": "中央ＳＳ３０住友生命仙台中央ビル　１９階",
    "town_kana": "チュウオウSS30スミトモセイメイセンダイチュウオウビル19カイ",
    "street": null,
    "office_name": null,
    "office_name_kana": null
  },
  "6020": {
    "postcode": "9806020",
    "prefecture": "宮城県",
    "prefecture_kana": "ミヤギケン",
    "prefecture_code": 4,
    "city": "仙台市青葉区",
    "city_kana": "センダイシアオバク",
    "town": "中央ＳＳ３０住友生命仙台中央ビル　２０階",
    "town_kana": "チュウオウSS30スミトモセイメイセンダイチュウオウビル20カイ",
    "street": null,
    "office_name": null,
    "office_name_kana": null
  },
  "6021": {
    "postcode": "9806021",
    "prefecture": "宮城県",
    "prefecture_kana": "ミヤギケン",
    "prefecture_code": 4,
    "city": "仙台市青葉区",
    "city_kana": "センダイシアオバク",
    "town": "中央ＳＳ３０住友生命仙台中央ビル　２１階",
    "town_kana": "チュウオウSS30スミトモセイメイセンダイチュウオウビル21カイ",
    "street": null,
    "office_name": null,
    "office_name_kana": null
  },
  "6022": {
    "postcode": "9806022",
    "prefecture": "宮城県",
    "prefecture_kana": "ミヤギケン",
    "prefecture_code": 4,
    "city": "仙台市青葉区",
    "city_kana": "センダイシアオバク",
    "town": "中央ＳＳ３０住友生命仙台中央ビル　２２階",
    "town_kana": "チュウオウSS30スミトモセイメイセンダイチュウオウビル22カイ",
    "street": null,
    "office_name": null,
    "office_name_kana": null
  },
  "6023": {
    "postcode": "9806023",
    "prefecture": "宮城県",
    "prefecture_kana": "ミヤギケン",
    "prefecture_code": 4,
    "city": "仙台市青葉区",
    "city_kana": "センダイシアオバク",
    "town": "中央ＳＳ３０住友生命仙台中央ビル　２３階",
    "town_kana": "チュウオウSS30スミトモセイメイセンダイチュウオウビル23カイ",
    "street": null,
    "office_name": null,
    "office_name_kana": null
  },
  "6024": {
    "postcode": "9806024",
    "prefecture": "宮城県",
    "prefecture_kana": "ミヤギケン",
    "prefecture_code": 4,
    "city": "仙台市青葉区",
    "city_kana": "センダイシアオバク",
    "town": "中央ＳＳ３０住友生命仙台中央ビル　２４階",
    "town_kana": "チュウオウSS30スミトモセイメイセンダイチュウオウビル24カイ",
    "street": null,
    "office_name": null,
    "office_name_kana": null
  },
  "6025": {
    "postcode": "9806025",
    "prefecture": "宮城県",
    "prefecture_kana": "ミヤギケン",
    "prefecture_code": 4,
    "city": "仙台市青葉区",
    "city_kana": "センダイシアオバク",
    "town": "中央ＳＳ３０住友生命仙台中央ビル　２５階",
    "town_kana": "チュウオウSS30スミトモセイメイセンダイチュウオウビル25カイ",
    "street": null,
    "office_name": null,
    "office_name_kana": null
  },
  "6026": {
    "postcode": "9806026",
    "prefecture": "宮城県",
    "prefecture_kana": "ミヤギケン",
    "prefecture_code": 4,
    "city": "仙台市青葉区",
    "city_kana": "センダイシアオバク",
    "town": "中央ＳＳ３０住友生命仙台中央ビル　２６階",
    "town_kana": "チュウオウSS30スミトモセイメイセンダイチュウオウビル26カイ",
    "street": null,
    "office_name": null,
    "office_name_kana": null
  },
  "6027": {
    "postcode": "9806027",
    "prefecture": "宮城県",
    "prefecture_kana": "ミヤギケン",
    "prefecture_code": 4,
    "city": "仙台市青葉区",
    "city_kana": "センダイシアオバク",
    "town": "中央ＳＳ３０住友生命仙台中央ビル　２７階",
    "town_kana": "チュウオウSS30スミトモセイメイセンダイチュウオウビル27カイ",
    "street": null,
    "office_name": null,
    "office_name_kana": null
  },
  "6028": {
    "postcode": "9806028",
    "prefecture": "宮城県",
    "prefecture_kana": "ミヤギケン",
    "prefecture_code": 4,
    "city": "仙台市青葉区",
    "city_kana": "センダイシアオバク",
    "town": "中央ＳＳ３０住友生命仙台中央ビル　２８階",
    "town_kana": "チュウオウSS30スミトモセイメイセンダイチュウオウビル28カイ",
    "street": null,
    "office_name": null,
    "office_name_kana": null
  },
  "6029": {
    "postcode": "9806029",
    "prefecture": "宮城県",
    "prefecture_kana": "ミヤギケン",
    "prefecture_code": 4,
    "city": "仙台市青葉区",
    "city_kana": "センダイシアオバク",
    "town": "中央ＳＳ３０住友生命仙台中央ビル　２９階",
    "town_kana": "チュウオウSS30スミトモセイメイセンダイチュウオウビル29カイ",
    "street": null,
    "office_name": null,
    "office_name_kana": null
  },
  "6030": {
    "postcode": "9806030",
    "prefecture": "宮城県",
    "prefecture_kana": "ミヤギケン",
    "prefecture_code": 4,
    "city": "仙台市青葉区",
    "city_kana": "センダイシアオバク",
    "town": "中央ＳＳ３０住友生命仙台中央ビル　３０階",
    "town_kana": "チュウオウSS30スミトモセイメイセンダイチュウオウビル30カイ",
    "street": null,
    "office_name": null,
    "office_name_kana": null
  },
  "6055": {
    "postcode": "9806055",
    "prefecture": "宮城県",
    "prefecture_kana": "ミヤギケン",
    "prefecture_code": 4,
    "city": "仙台市青葉区",
    "city_kana": "センダイシアオバク",
    "town": "中央",
    "town_kana": "チュウオウ",
    "street": "４丁目６−１ＳＳ３０ビル２７Ｆ",
    "office_name": "株式会社　ウィルコム　東北支社",
    "office_name_kana": "カブシキガイシヤ ウイルコム トウホクシシヤ"
  },
  "6088": {
    "postcode": "9806088",
    "prefecture": "宮城県",
    "prefecture_kana": "ミヤギケン",
    "prefecture_code": 4,
    "city": "仙台市青葉区",
    "city_kana": "センダイシアオバク",
    "town": "中央",
    "town_kana": "チュウオウ",
    "street": "４丁目６−１住友生命仙台中央ビル１３Ｆ",
    "office_name": "住友生命保険　相互会社　仙台総支社",
    "office_name_kana": "スミトモセイメイホケン ソウゴガイシヤ センダイソウシシヤ"
  },
  "6090": {
    "postcode": "9806090",
    "prefecture": "宮城県",
    "prefecture_kana": "ミヤギケン",
    "prefecture_code": 4,
    "city": "仙台市青葉区",
    "city_kana": "センダイシアオバク",
    "town": "中央ＳＳ３０住友生命仙台中央ビル",
    "town_kana": "チュウオウSS30スミトモセイメイセンダイチュウオウビル",
    "street": null,
    "office_name": null,
    "office_name_kana": null
  },
  "6101": {
    "postcode": "9806101",
    "prefecture": "宮城県",
    "prefecture_kana": "ミヤギケン",
    "prefecture_code": 4,
    "city": "仙台市青葉区",
    "city_kana": "センダイシアオバク",
    "town": "中央アエル　１階",
    "town_kana": "チュウオウアエル1カイ",
    "street": null,
    "office_name": null,
    "office_name_kana": null
  },
  "6102": {
    "postcode": "9806102",
    "prefecture": "宮城県",
    "prefecture_kana": "ミヤギケン",
    "prefecture_code": 4,
    "city": "仙台市青葉区",
    "city_kana": "センダイシアオバク",
    "town": "中央アエル　２階",
    "town_kana": "チュウオウアエル2カイ",
    "street": null,
    "office_name": null,
    "office_name_kana": null
  },
  "6103": {
    "postcode": "9806103",
    "prefecture": "宮城県",
    "prefecture_kana": "ミヤギケン",
    "prefecture_code": 4,
    "city": "仙台市青葉区",
    "city_kana": "センダイシアオバク",
    "town": "中央アエル　３階",
    "town_kana": "チュウオウアエル3カイ",
    "street": null,
    "office_name": null,
    "office_name_kana": null
  },
  "6104": {
    "postcode": "9806104",
    "prefecture": "宮城県",
    "prefecture_kana": "ミヤギケン",
    "prefecture_code": 4,
    "city": "仙台市青葉区",
    "city_kana": "センダイシアオバク",
    "town": "中央アエル　４階",
    "town_kana": "チュウオウアエル4カイ",
    "street": null,
    "office_name": null,
    "office_name_kana": null
  },
  "6105": {
    "postcode": "9806105",
    "prefecture": "宮城県",
    "prefecture_kana": "ミヤギケン",
    "prefecture_code": 4,
    "city": "仙台市青葉区",
    "city_kana": "センダイシアオバク",
    "town": "中央アエル　５階",
    "town_kana": "チュウオウアエル5カイ",
    "street": null,
    "office_name": null,
    "office_name_kana": null
  },
  "6106": {
    "postcode": "9806106",
    "prefecture": "宮城県",
    "prefecture_kana": "ミヤギケン",
    "prefecture_code": 4,
    "city": "仙台市青葉区",
    "city_kana": "センダイシアオバク",
    "town": "中央アエル　６階",
    "town_kana": "チュウオウアエル6カイ",
    "street": null,
    "office_name": null,
    "office_name_kana": null
  },
  "6107": {
    "postcode": "9806107",
    "prefecture": "宮城県",
    "prefecture_kana": "ミヤギケン",
    "prefecture_code": 4,
    "city": "仙台市青葉区",
    "city_kana": "センダイシアオバク",
    "town": "中央アエル　７階",
    "town_kana": "チュウオウアエル7カイ",
    "street": null,
    "office_name": null,
    "office_name_kana": null
  },
  "6108": {
    "postcode": "9806108",
    "prefecture": "宮城県",
    "prefecture_kana": "ミヤギケン",
    "prefecture_code": 4,
    "city": "仙台市青葉区",
    "city_kana": "センダイシアオバク",
    "town": "中央アエル　８階",
    "town_kana": "チュウオウアエル8カイ",
    "street": null,
    "office_name": null,
    "office_name_kana": null
  },
  "6109": {
    "postcode": "9806109",
    "prefecture": "宮城県",
    "prefecture_kana": "ミヤギケン",
    "prefecture_code": 4,
    "city": "仙台市青葉区",
    "city_kana": "センダイシアオバク",
    "town": "中央アエル　９階",
    "town_kana": "チュウオウアエル9カイ",
    "street": null,
    "office_name": null,
    "office_name_kana": null
  },
  "6110": {
    "postcode": "9806110",
    "prefecture": "宮城県",
    "prefecture_kana": "ミヤギケン",
    "prefecture_code": 4,
    "city": "仙台市青葉区",
    "city_kana": "センダイシアオバク",
    "town": "中央アエル　１０階",
    "town_kana": "チュウオウアエル10カイ",
    "street": null,
    "office_name": null,
    "office_name_kana": null
  },
  "6111": {
    "postcode": "9806111",
    "prefecture": "宮城県",
    "prefecture_kana": "ミヤギケン",
    "prefecture_code": 4,
    "city": "仙台市青葉区",
    "city_kana": "センダイシアオバク",
    "town": "中央アエル　１１階",
    "town_kana": "チュウオウアエル11カイ",
    "street": null,
    "office_name": null,
    "office_name_kana": null
  },
  "6112": {
    "postcode": "9806112",
    "prefecture": "宮城県",
    "prefecture_kana": "ミヤギケン",
    "prefecture_code": 4,
    "city": "仙台市青葉区",
    "city_kana": "センダイシアオバク",
    "town": "中央アエル　１２階",
    "town_kana": "チュウオウアエル12カイ",
    "street": null,
    "office_name": null,
    "office_name_kana": null
  },
  "6113": {
    "postcode": "9806113",
    "prefecture": "宮城県",
    "prefecture_kana": "ミヤギケン",
    "prefecture_code": 4,
    "city": "仙台市青葉区",
    "city_kana": "センダイシアオバク",
    "town": "中央アエル　１３階",
    "town_kana": "チュウオウアエル13カイ",
    "street": null,
    "office_name": null,
    "office_name_kana": null
  },
  "6114": {
    "postcode": "9806114",
    "prefecture": "宮城県",
    "prefecture_kana": "ミヤギケン",
    "prefecture_code": 4,
    "city": "仙台市青葉区",
    "city_kana": "センダイシアオバク",
    "town": "中央アエル　１４階",
    "town_kana": "チュウオウアエル14カイ",
    "street": null,
    "office_name": null,
    "office_name_kana": null
  },
  "6115": {
    "postcode": "9806115",
    "prefecture": "宮城県",
    "prefecture_kana": "ミヤギケン",
    "prefecture_code": 4,
    "city": "仙台市青葉区",
    "city_kana": "センダイシアオバク",
    "town": "中央アエル　１５階",
    "town_kana": "チュウオウアエル15カイ",
    "street": null,
    "office_name": null,
    "office_name_kana": null
  },
  "6116": {
    "postcode": "9806116",
    "prefecture": "宮城県",
    "prefecture_kana": "ミヤギケン",
    "prefecture_code": 4,
    "city": "仙台市青葉区",
    "city_kana": "センダイシアオバク",
    "town": "中央アエル　１６階",
    "town_kana": "チュウオウアエル16カイ",
    "street": null,
    "office_name": null,
    "office_name_kana": null
  },
  "6117": {
    "postcode": "9806117",
    "prefecture": "宮城県",
    "prefecture_kana": "ミヤギケン",
    "prefecture_code": 4,
    "city": "仙台市青葉区",
    "city_kana": "センダイシアオバク",
    "town": "中央アエル　１７階",
    "town_kana": "チュウオウアエル17カイ",
    "street": null,
    "office_name": null,
    "office_name_kana": null
  },
  "6118": {
    "postcode": "9806118",
    "prefecture": "宮城県",
    "prefecture_kana": "ミヤギケン",
    "prefecture_code": 4,
    "city": "仙台市青葉区",
    "city_kana": "センダイシアオバク",
    "town": "中央アエル　１８階",
    "town_kana": "チュウオウアエル18カイ",
    "street": null,
    "office_name": null,
    "office_name_kana": null
  },
  "6119": {
    "postcode": "9806119",
    "prefecture": "宮城県",
    "prefecture_kana": "ミヤギケン",
    "prefecture_code": 4,
    "city": "仙台市青葉区",
    "city_kana": "センダイシアオバク",
    "town": "中央アエル　１９階",
    "town_kana": "チュウオウアエル19カイ",
    "street": null,
    "office_name": null,
    "office_name_kana": null
  },
  "6120": {
    "postcode": "9806120",
    "prefecture": "宮城県",
    "prefecture_kana": "ミヤギケン",
    "prefecture_code": 4,
    "city": "仙台市青葉区",
    "city_kana": "センダイシアオバク",
    "town": "中央アエル　２０階",
    "town_kana": "チュウオウアエル20カイ",
    "street": null,
    "office_name": null,
    "office_name_kana": null
  },
  "6121": {
    "postcode": "9806121",
    "prefecture": "宮城県",
    "prefecture_kana": "ミヤギケン",
    "prefecture_code": 4,
    "city": "仙台市青葉区",
    "city_kana": "センダイシアオバク",
    "town": "中央アエル　２１階",
    "town_kana": "チュウオウアエル21カイ",
    "street": null,
    "office_name": null,
    "office_name_kana": null
  },
  "6122": {
    "postcode": "9806122",
    "prefecture": "宮城県",
    "prefecture_kana": "ミヤギケン",
    "prefecture_code": 4,
    "city": "仙台市青葉区",
    "city_kana": "センダイシアオバク",
    "town": "中央アエル　２２階",
    "town_kana": "チュウオウアエル22カイ",
    "street": null,
    "office_name": null,
    "office_name_kana": null
  },
  "6123": {
    "postcode": "9806123",
    "prefecture": "宮城県",
    "prefecture_kana": "ミヤギケン",
    "prefecture_code": 4,
    "city": "仙台市青葉区",
    "city_kana": "センダイシアオバク",
    "town": "中央アエル　２３階",
    "town_kana": "チュウオウアエル23カイ",
    "street": null,
    "office_name": null,
    "office_name_kana": null
  },
  "6124": {
    "postcode": "9806124",
    "prefecture": "宮城県",
    "prefecture_kana": "ミヤギケン",
    "prefecture_code": 4,
    "city": "仙台市青葉区",
    "city_kana": "センダイシアオバク",
    "town": "中央アエル　２４階",
    "town_kana": "チュウオウアエル24カイ",
    "street": null,
    "office_name": null,
    "office_name_kana": null
  },
  "6125": {
    "postcode": "9806125",
    "prefecture": "宮城県",
    "prefecture_kana": "ミヤギケン",
    "prefecture_code": 4,
    "city": "仙台市青葉区",
    "city_kana": "センダイシアオバク",
    "town": "中央アエル　２５階",
    "town_kana": "チュウオウアエル25カイ",
    "street": null,
    "office_name": null,
    "office_name_kana": null
  },
  "6126": {
    "postcode": "9806126",
    "prefecture": "宮城県",
    "prefecture_kana": "ミヤギケン",
    "prefecture_code": 4,
    "city": "仙台市青葉区",
    "city_kana": "センダイシアオバク",
    "town": "中央アエル　２６階",
    "town_kana": "チュウオウアエル26カイ",
    "street": null,
    "office_name": null,
    "office_name_kana": null
  },
  "6127": {
    "postcode": "9806127",
    "prefecture": "宮城県",
    "prefecture_kana": "ミヤギケン",
    "prefecture_code": 4,
    "city": "仙台市青葉区",
    "city_kana": "センダイシアオバク",
    "town": "中央アエル　２７階",
    "town_kana": "チュウオウアエル27カイ",
    "street": null,
    "office_name": null,
    "office_name_kana": null
  },
  "6128": {
    "postcode": "9806128",
    "prefecture": "宮城県",
    "prefecture_kana": "ミヤギケン",
    "prefecture_code": 4,
    "city": "仙台市青葉区",
    "city_kana": "センダイシアオバク",
    "town": "中央アエル　２８階",
    "town_kana": "チュウオウアエル28カイ",
    "street": null,
    "office_name": null,
    "office_name_kana": null
  },
  "6129": {
    "postcode": "9806129",
    "prefecture": "宮城県",
    "prefecture_kana": "ミヤギケン",
    "prefecture_code": 4,
    "city": "仙台市青葉区",
    "city_kana": "センダイシアオバク",
    "town": "中央アエル　２９階",
    "town_kana": "チュウオウアエル29カイ",
    "street": null,
    "office_name": null,
    "office_name_kana": null
  },
  "6130": {
    "postcode": "9806130",
    "prefecture": "宮城県",
    "prefecture_kana": "ミヤギケン",
    "prefecture_code": 4,
    "city": "仙台市青葉区",
    "city_kana": "センダイシアオバク",
    "town": "中央アエル　３０階",
    "town_kana": "チュウオウアエル30カイ",
    "street": null,
    "office_name": null,
    "office_name_kana": null
  },
  "6131": {
    "postcode": "9806131",
    "prefecture": "宮城県",
    "prefecture_kana": "ミヤギケン",
    "prefecture_code": 4,
    "city": "仙台市青葉区",
    "city_kana": "センダイシアオバク",
    "town": "中央アエル　３１階",
    "town_kana": "チュウオウアエル31カイ",
    "street": null,
    "office_name": null,
    "office_name_kana": null
  },
  "6161": {
    "postcode": "9806161",
    "prefecture": "宮城県",
    "prefecture_kana": "ミヤギケン",
    "prefecture_code": 4,
    "city": "仙台市青葉区",
    "city_kana": "センダイシアオバク",
    "town": "中央",
    "town_kana": "チュウオウ",
    "street": "１丁目３−１（アエルビル３０Ｆ）",
    "office_name": "東北ミサワホーム　株式会社",
    "office_name_kana": "トウホクミサワホ-ム カブシキガイシヤ"
  },
  "6180": {
    "postcode": "9806180",
    "prefecture": "宮城県",
    "prefecture_kana": "ミヤギケン",
    "prefecture_code": 4,
    "city": "仙台市青葉区",
    "city_kana": "センダイシアオバク",
    "town": "中央",
    "town_kana": "チュウオウ",
    "street": "１−２−３",
    "office_name": "伊藤忠商事　株式会社　東北支社",
    "office_name_kana": "イトウチユウシヨウジ カブシキガイシヤ トウホクシシヤ"
  },
  "6190": {
    "postcode": "9806190",
    "prefecture": "宮城県",
    "prefecture_kana": "ミヤギケン",
    "prefecture_code": 4,
    "city": "仙台市青葉区",
    "city_kana": "センダイシアオバク",
    "town": "中央アエル",
    "town_kana": "チュウオウアエル",
    "street": null,
    "office_name": null,
    "office_name_kana": null
  },
  "8401": {
    "postcode": "9808401",
    "prefecture": "宮城県",
    "prefecture_kana": "ミヤギケン",
    "prefecture_code": 4,
    "city": "仙台市青葉区",
    "city_kana": "センダイシアオバク",
    "town": "本町",
    "town_kana": "ホンチョウ",
    "street": "２丁目１−２９",
    "office_name": "株式会社　東芝　東北支社",
    "office_name_kana": "カブシキガイシヤ トウシバ トウホクシシヤ"
  },
  "8402": {
    "postcode": "9808402",
    "prefecture": "宮城県",
    "prefecture_kana": "ミヤギケン",
    "prefecture_code": 4,
    "city": "仙台市青葉区",
    "city_kana": "センダイシアオバク",
    "town": "上杉",
    "town_kana": "カミスギ",
    "street": "１丁目１−１",
    "office_name": "仙台北　税務署",
    "office_name_kana": "センダイキタ ゼイムシヨ"
  },
  "8403": {
    "postcode": "9808403",
    "prefecture": "宮城県",
    "prefecture_kana": "ミヤギケン",
    "prefecture_code": 4,
    "city": "仙台市青葉区",
    "city_kana": "センダイシアオバク",
    "town": "本町",
    "town_kana": "ホンチョウ",
    "street": "３丁目３−１仙台合同庁舎",
    "office_name": "経済産業省　東北経済産業局",
    "office_name_kana": "ケイザイサンギヨウシヨウ トウホクケイザイサンギヨウキヨク"
  },
  "8406": {
    "postcode": "9808406",
    "prefecture": "宮城県",
    "prefecture_kana": "ミヤギケン",
    "prefecture_code": 4,
    "city": "仙台市青葉区",
    "city_kana": "センダイシアオバク",
    "town": "上杉",
    "town_kana": "カミスギ",
    "street": "１丁目１番１号仙台北税務署内",
    "office_name": "仙台国税局業務センター",
    "office_name_kana": "センダイコクゼイキヨクギヨウムセンタ-"
  },
  "8407": {
    "postcode": "9808407",
    "prefecture": "宮城県",
    "prefecture_kana": "ミヤギケン",
    "prefecture_code": 4,
    "city": "仙台市青葉区",
    "city_kana": "センダイシアオバク",
    "town": "本町",
    "town_kana": "ホンチョウ",
    "street": "２丁目１４−２４",
    "office_name": "株式会社　ジャパンヘルスサミット",
    "office_name_kana": "カブシキガイシヤ ジヤパンヘルスサミツト"
  },
  "8408": {
    "postcode": "9808408",
    "prefecture": "宮城県",
    "prefecture_kana": "ミヤギケン",
    "prefecture_code": 4,
    "city": "仙台市青葉区",
    "city_kana": "センダイシアオバク",
    "town": "本町",
    "town_kana": "ホンチョウ",
    "street": "３丁目３番１号",
    "office_name": "東北管区警察局",
    "office_name_kana": "トウホクカンクケイサツキヨク"
  },
  "8410": {
    "postcode": "9808410",
    "prefecture": "宮城県",
    "prefecture_kana": "ミヤギケン",
    "prefecture_code": 4,
    "city": "仙台市青葉区",
    "city_kana": "センダイシアオバク",
    "town": "本町",
    "town_kana": "ホンチョウ",
    "street": "３丁目８−１",
    "office_name": "宮城県　警察本部",
    "office_name_kana": "ミヤギケン ケイサツホンブ"
  },
  "8411": {
    "postcode": "9808411",
    "prefecture": "宮城県",
    "prefecture_kana": "ミヤギケン",
    "prefecture_code": 4,
    "city": "仙台市青葉区",
    "city_kana": "センダイシアオバク",
    "town": "本町",
    "town_kana": "ホンチョウ",
    "street": "１丁目１０−２１",
    "office_name": "株式会社　第一エージェンシー",
    "office_name_kana": "カブシキガイシヤ ダイイチエ-ジエンシ-"
  },
  "8414": {
    "postcode": "9808414",
    "prefecture": "宮城県",
    "prefecture_kana": "ミヤギケン",
    "prefecture_code": 4,
    "city": "仙台市青葉区",
    "city_kana": "センダイシアオバク",
    "town": "本町",
    "town_kana": "ホンチョウ",
    "street": "２丁目１６番１２号",
    "office_name": "仙台商工会議所",
    "office_name_kana": "センダイシヨウコウカイギシヨ"
  },
  "8415": {
    "postcode": "9808415",
    "prefecture": "宮城県",
    "prefecture_kana": "ミヤギケン",
    "prefecture_code": 4,
    "city": "仙台市青葉区",
    "city_kana": "センダイシアオバク",
    "town": "本町",
    "town_kana": "ホンチョウ",
    "street": "２−１５−１ルナール仙台１階",
    "office_name": "株式会社　東日本放送　営業センター",
    "office_name_kana": "カブシキガイシヤ ヒガシニツポンホウソウ エイギヨウセンタ-"
  },
  "8420": {
    "postcode": "9808420",
    "prefecture": "宮城県",
    "prefecture_kana": "ミヤギケン",
    "prefecture_code": 4,
    "city": "仙台市青葉区",
    "city_kana": "センダイシアオバク",
    "town": "本町",
    "town_kana": "ホンチョウ",
    "street": "２丁目１０−２８",
    "office_name": "株式会社　エフエム仙台",
    "office_name_kana": "カブシキガイシヤ エフエムセンダイ"
  },
  "8421": {
    "postcode": "9808421",
    "prefecture": "宮城県",
    "prefecture_kana": "ミヤギケン",
    "prefecture_code": 4,
    "city": "仙台市青葉区",
    "city_kana": "センダイシアオバク",
    "town": "宮町",
    "town_kana": "ミヤマチ",
    "street": "４−３−２１",
    "office_name": "日本年金機構　仙台北年金事務所",
    "office_name_kana": "ニツポンネンキンキコウ センダイキタネンキンジムシヨ"
  },
  "8422": {
    "postcode": "9808422",
    "prefecture": "宮城県",
    "prefecture_kana": "ミヤギケン",
    "prefecture_code": 4,
    "city": "仙台市青葉区",
    "city_kana": "センダイシアオバク",
    "town": "上杉",
    "town_kana": "カミスギ",
    "street": "１丁目２−３",
    "office_name": "宮城県市町村職員　共済組合",
    "office_name_kana": "ミヤギケンシチヨウソンシヨクイン キヨウサイクミアイ"
  },
  "8423": {
    "postcode": "9808423",
    "prefecture": "宮城県",
    "prefecture_kana": "ミヤギケン",
    "prefecture_code": 4,
    "city": "仙台市青葉区",
    "city_kana": "センダイシアオバク",
    "town": "本町",
    "town_kana": "ホンチョウ",
    "street": "３丁目８−１",
    "office_name": "宮城県教育庁",
    "office_name_kana": "ミヤギケンキヨウイクチヨウ"
  },
  "8426": {
    "postcode": "9808426",
    "prefecture": "宮城県",
    "prefecture_kana": "ミヤギケン",
    "prefecture_code": 4,
    "city": "仙台市青葉区",
    "city_kana": "センダイシアオバク",
    "town": "花京院",
    "town_kana": "カキョウイン",
    "street": "１丁目１番２０号花京院スクエア２１階",
    "office_name": "東北厚生局",
    "office_name_kana": "トウホクコウセイキヨク"
  },
  "8429": {
    "postcode": "9808429",
    "prefecture": "宮城県",
    "prefecture_kana": "ミヤギケン",
    "prefecture_code": 4,
    "city": "仙台市青葉区",
    "city_kana": "センダイシアオバク",
    "town": "上杉",
    "town_kana": "カミスギ",
    "street": "１丁目４−２０",
    "office_name": "全国土木建築国民健康保険組合　仙台健康支援室",
    "office_name_kana": "ゼンコクドボクケンチクコクミンケンコウホケンクミアイ センダイケンコウシエンシツ"
  },
  "8430": {
    "postcode": "9808430",
    "prefecture": "宮城県",
    "prefecture_kana": "ミヤギケン",
    "prefecture_code": 4,
    "city": "仙台市青葉区",
    "city_kana": "センダイシアオバク",
    "town": "本町",
    "town_kana": "ホンチョウ",
    "street": "３丁目３−１仙台合同庁舎",
    "office_name": "仙台国税局",
    "office_name_kana": "センダイコクゼイキヨク"
  },
  "8431": {
    "postcode": "9808431",
    "prefecture": "宮城県",
    "prefecture_kana": "ミヤギケン",
    "prefecture_code": 4,
    "city": "仙台市青葉区",
    "city_kana": "センダイシアオバク",
    "town": "本町",
    "town_kana": "ホンチョウ",
    "street": "２丁目１６番１０号ＮＢＦ仙台本町ビル",
    "office_name": "積水ハウス不動産東北　株式会社",
    "office_name_kana": "セキスイハウスフドウサントウホク カブシキガイシヤ"
  },
  "8433": {
    "postcode": "9808433",
    "prefecture": "宮城県",
    "prefecture_kana": "ミヤギケン",
    "prefecture_code": 4,
    "city": "仙台市青葉区",
    "city_kana": "センダイシアオバク",
    "town": "上杉",
    "town_kana": "カミスギ",
    "street": "５丁目８番３３号",
    "office_name": "株式会社　仙台放送",
    "office_name_kana": "カブシキカイシヤ センダイホウソウ"
  },
  "8435": {
    "postcode": "9808435",
    "prefecture": "宮城県",
    "prefecture_kana": "ミヤギケン",
    "prefecture_code": 4,
    "city": "仙台市青葉区",
    "city_kana": "センダイシアオバク",
    "town": "本町",
    "town_kana": "ホンチョウ",
    "street": "２−２０−１",
    "office_name": "日本放送協会　仙台放送局",
    "office_name_kana": "ニツポンホウソウキヨウカイ センダイホウソウキヨク"
  },
  "8436": {
    "postcode": "9808436",
    "prefecture": "宮城県",
    "prefecture_kana": "ミヤギケン",
    "prefecture_code": 4,
    "city": "仙台市青葉区",
    "city_kana": "センダイシアオバク",
    "town": "本町",
    "town_kana": "ホンチョウ",
    "street": "３丁目３−１仙台合同庁舎",
    "office_name": "財務省　東北財務局",
    "office_name_kana": "ザイムシヨウ トウホクザイムキヨク"
  },
  "8439": {
    "postcode": "9808439",
    "prefecture": "宮城県",
    "prefecture_kana": "ミヤギケン",
    "prefecture_code": 4,
    "city": "仙台市青葉区",
    "city_kana": "センダイシアオバク",
    "town": "本町",
    "town_kana": "ホンチョウ",
    "street": "２丁目１６−１０",
    "office_name": "積水ハウス　株式会社　東北シャーメゾン支店",
    "office_name_kana": "セキスイハウス カブシキガイシヤ トウホクシヤ-メゾンシテン"
  },
  "8441": {
    "postcode": "9808441",
    "prefecture": "宮城県",
    "prefecture_kana": "ミヤギケン",
    "prefecture_code": 4,
    "city": "仙台市青葉区",
    "city_kana": "センダイシアオバク",
    "town": "中央",
    "town_kana": "チュウオウ",
    "street": "３−２−２３野村不動産仙台青葉通ビル",
    "office_name": "富士通　（株）　Ｓｅｎｄａｉ　Ｈｕｂ",
    "office_name_kana": "フジツウ カブシキカイシヤ センダイハブ"
  },
  "8442": {
    "postcode": "9808442",
    "prefecture": "宮城県",
    "prefecture_kana": "ミヤギケン",
    "prefecture_code": 4,
    "city": "仙台市青葉区",
    "city_kana": "センダイシアオバク",
    "town": "中央",
    "town_kana": "チュウオウ",
    "street": "３丁目３−３",
    "office_name": "イオン　株式会社",
    "office_name_kana": "イオン カブシキガイシヤ"
  },
  "8443": {
    "postcode": "9808443",
    "prefecture": "宮城県",
    "prefecture_kana": "ミヤギケン",
    "prefecture_code": 4,
    "city": "仙台市青葉区",
    "city_kana": "センダイシアオバク",
    "town": "本町",
    "town_kana": "ホンチョウ",
    "street": "２丁目３−１０朝日生命仙台本町ビル２Ｆ",
    "office_name": "出光興産　株式会社　東北支店",
    "office_name_kana": "イデミツコウサン カブシキカイシヤ トウホクシテン"
  },
  "8445": {
    "postcode": "9808445",
    "prefecture": "宮城県",
    "prefecture_kana": "ミヤギケン",
    "prefecture_code": 4,
    "city": "仙台市青葉区",
    "city_kana": "センダイシアオバク",
    "town": "中央",
    "town_kana": "チュウオウ",
    "street": "４丁目１−６",
    "office_name": "東北電力ネットワーク　株式会社　仙台電力センター",
    "office_name_kana": "トウホクデンリヨクネツトワ-ク カブシキガイシヤ センダイデンリヨクセンタ-"
  },
  "8446": {
    "postcode": "9808446",
    "prefecture": "宮城県",
    "prefecture_kana": "ミヤギケン",
    "prefecture_code": 4,
    "city": "仙台市青葉区",
    "city_kana": "センダイシアオバク",
    "town": "中央",
    "town_kana": "チュウオウ",
    "street": "１丁目６−２３",
    "office_name": "株式会社　武富士　仙台支社",
    "office_name_kana": "カブシキガイシヤ タケフジ センダイシシヤ"
  },
  "8447": {
    "postcode": "9808447",
    "prefecture": "宮城県",
    "prefecture_kana": "ミヤギケン",
    "prefecture_code": 4,
    "city": "仙台市青葉区",
    "city_kana": "センダイシアオバク",
    "town": "立町",
    "town_kana": "タチマチ",
    "street": "２７番２１号仙台橋本ビルヂング５階",
    "office_name": "キリンビールマーケティング　株式会社　東北統括本部",
    "office_name_kana": "キリンビ-ルマ-ケテイング カブシキガイシヤ トウホクトウカツホンブ"
  },
  "8448": {
    "postcode": "9808448",
    "prefecture": "宮城県",
    "prefecture_kana": "ミヤギケン",
    "prefecture_code": 4,
    "city": "仙台市青葉区",
    "city_kana": "センダイシアオバク",
    "town": "中央",
    "town_kana": "チュウオウ",
    "street": "２−１０−３０仙台明芳ビル",
    "office_name": "明治安田生命保険　相互会社　仙台支社",
    "office_name_kana": "メイジヤスダセイメイホケン ソウゴガイシヤ センダイシシヤ"
  },
  "8450": {
    "postcode": "9808450",
    "prefecture": "宮城県",
    "prefecture_kana": "ミヤギケン",
    "prefecture_code": 4,
    "city": "仙台市青葉区",
    "city_kana": "センダイシアオバク",
    "town": "中央",
    "town_kana": "チュウオウ",
    "street": "３丁目７番５号",
    "office_name": "仙台パルコ２",
    "office_name_kana": "センダイパルコツ-"
  },
  "8452": {
    "postcode": "9808452",
    "prefecture": "宮城県",
    "prefecture_kana": "ミヤギケン",
    "prefecture_code": 4,
    "city": "仙台市青葉区",
    "city_kana": "センダイシアオバク",
    "town": "中央",
    "town_kana": "チュウオウ",
    "street": "一丁目６番３５号東京建物仙台ビル９階",
    "office_name": "株式会社　日本政策金融公庫　仙台支店　国民生活事業",
    "office_name_kana": "カブシキガイシヤ ニツポンセイサクキンユウコウコ センダイシテン コクミンセイカツジギヨウ"
  },
  "8453": {
    "postcode": "9808453",
    "prefecture": "宮城県",
    "prefecture_kana": "ミヤギケン",
    "prefecture_code": 4,
    "city": "仙台市青葉区",
    "city_kana": "センダイシアオバク",
    "town": "中央",
    "town_kana": "チュウオウ",
    "street": "一丁目６番３５号東京建物仙台ビル１０階",
    "office_name": "株式会社　日本政策金融公庫　仙台支店　中小企業事業",
    "office_name_kana": "カブシキガイシヤ ニツポンセイサクキンユウコウコ センダイシテン チユウシヨウキギヨウジギヨウ"
  },
  "8454": {
    "postcode": "9808454",
    "prefecture": "宮城県",
    "prefecture_kana": "ミヤギケン",
    "prefecture_code": 4,
    "city": "仙台市青葉区",
    "city_kana": "センダイシアオバク",
    "town": "中央",
    "town_kana": "チュウオウ",
    "street": "一丁目６番３５号東京建物仙台ビル１１階",
    "office_name": "株式会社　日本政策金融公庫　仙台支店　農林水産事業",
    "office_name_kana": "カブシキガイシヤ ニツポンセイサクキンユウコウコ センダイシテン ノウリンスイサンジギヨウ"
  },
  "8456": {
    "postcode": "9808456",
    "prefecture": "宮城県",
    "prefecture_kana": "ミヤギケン",
    "prefecture_code": 4,
    "city": "仙台市青葉区",
    "city_kana": "センダイシアオバク",
    "town": "中央",
    "town_kana": "チュウオウ",
    "street": "４丁目１０−３",
    "office_name": "株式会社　エヌシーカード仙台",
    "office_name_kana": "カブシキガイシヤ エヌシ-カ-ドセンダイ"
  },
  "8458": {
    "postcode": "9808458",
    "prefecture": "宮城県",
    "prefecture_kana": "ミヤギケン",
    "prefecture_code": 4,
    "city": "仙台市青葉区",
    "city_kana": "センダイシアオバク",
    "town": "中央",
    "town_kana": "チュウオウ",
    "street": "２丁目９番１０号セントレ東北",
    "office_name": "丸紅　株式会社　東北支社",
    "office_name_kana": "マルベニ カブシキガイシヤ トウホクシシヤ"
  },
  "8460": {
    "postcode": "9808460",
    "prefecture": "宮城県",
    "prefecture_kana": "ミヤギケン",
    "prefecture_code": 4,
    "city": "仙台市青葉区",
    "city_kana": "センダイシアオバク",
    "town": "中央",
    "town_kana": "チュウオウ",
    "street": "２−８−１６仙台東京海上日動ビルディング",
    "office_name": "東京海上日動火災保険　株式会社",
    "office_name_kana": "トウキヨウカイジヨウニチドウカサイホケン カブシキガイシヤ"
  },
  "8461": {
    "postcode": "9808461",
    "prefecture": "宮城県",
    "prefecture_kana": "ミヤギケン",
    "prefecture_code": 4,
    "city": "仙台市青葉区",
    "city_kana": "センダイシアオバク",
    "town": "中央",
    "town_kana": "チュウオウ",
    "street": "４丁目６番１号住友生命仙台中央ビル１８階",
    "office_name": "日本年金機構　仙台広域事務センター",
    "office_name_kana": "ニツポンネンキンキコウ センダイコウイキジムセンタ-"
  },
  "8466": {
    "postcode": "9808466",
    "prefecture": "宮城県",
    "prefecture_kana": "ミヤギケン",
    "prefecture_code": 4,
    "city": "仙台市青葉区",
    "city_kana": "センダイシアオバク",
    "town": "中央",
    "town_kana": "チュウオウ",
    "street": "１丁目９−３３",
    "office_name": "株式会社　さくら野百貨店",
    "office_name_kana": "カブシキガイシヤ サクラノヒヤツカテン"
  },
  "8477": {
    "postcode": "9808477",
    "prefecture": "宮城県",
    "prefecture_kana": "ミヤギケン",
    "prefecture_code": 4,
    "city": "仙台市青葉区",
    "city_kana": "センダイシアオバク",
    "town": "中央",
    "town_kana": "チュウオウ",
    "street": "１丁目１−１",
    "office_name": "ホテルメトロポリタン仙台",
    "office_name_kana": "ホテルメトロポリタンセンダイ"
  },
  "8478": {
    "postcode": "9808478",
    "prefecture": "宮城県",
    "prefecture_kana": "ミヤギケン",
    "prefecture_code": 4,
    "city": "仙台市青葉区",
    "city_kana": "センダイシアオバク",
    "town": "中央",
    "town_kana": "チュウオウ",
    "street": "２丁目１−７",
    "office_name": "三菱マテリアル　株式会社　東北支店",
    "office_name_kana": "ミツビシマテリアル カブシキガイシヤ トウホクシテン"
  },
  "8480": {
    "postcode": "9808480",
    "prefecture": "宮城県",
    "prefecture_kana": "ミヤギケン",
    "prefecture_code": 4,
    "city": "仙台市青葉区",
    "city_kana": "センダイシアオバク",
    "town": "中央",
    "town_kana": "チュウオウ",
    "street": "２丁目２−１０仙都会館ビル６Ｆ",
    "office_name": "森永乳業　株式会社　東北支店",
    "office_name_kana": "モリナガニユウギヨウ カブシキガイシ ヤトウホクシテン"
  },
  "8481": {
    "postcode": "9808481",
    "prefecture": "宮城県",
    "prefecture_kana": "ミヤギケン",
    "prefecture_code": 4,
    "city": "仙台市青葉区",
    "city_kana": "センダイシアオバク",
    "town": "花京院",
    "town_kana": "カキョウイン",
    "street": "１丁目１番１０号あいおい損保仙台ビル１４階",
    "office_name": "岩谷産業　株式会社　エネルギー東北支社",
    "office_name_kana": "イワタニサンギヨウ カブシキガイシヤ エネルギ-トウホクシシヤ"
  },
  "8484": {
    "postcode": "9808484",
    "prefecture": "宮城県",
    "prefecture_kana": "ミヤギケン",
    "prefecture_code": 4,
    "city": "仙台市青葉区",
    "city_kana": "センダイシアオバク",
    "town": "中央",
    "town_kana": "チュウオウ",
    "street": "１丁目２番３号仙台マークワン",
    "office_name": "仙台パルコ",
    "office_name_kana": "センダイパルコ"
  },
  "8485": {
    "postcode": "9808485",
    "prefecture": "宮城県",
    "prefecture_kana": "ミヤギケン",
    "prefecture_code": 4,
    "city": "仙台市青葉区",
    "city_kana": "センダイシアオバク",
    "town": "中央",
    "town_kana": "チュウオウ",
    "street": "１丁目２番３号仙台マークワン",
    "office_name": "仙台マークワン",
    "office_name_kana": "センダイマ-クワン"
  },
  "8486": {
    "postcode": "9808486",
    "prefecture": "宮城県",
    "prefecture_kana": "ミヤギケン",
    "prefecture_code": 4,
    "city": "仙台市青葉区",
    "city_kana": "センダイシアオバク",
    "town": "立町",
    "town_kana": "タチマチ",
    "street": "２７−２１仙台橋本ビルヂング４階",
    "office_name": "株式会社　ニチレイフーズ　東北支社",
    "office_name_kana": "カブシキガイシヤ ニチレイフ-ズ トウホクシシヤ"
  },
  "8487": {
    "postcode": "9808487",
    "prefecture": "宮城県",
    "prefecture_kana": "ミヤギケン",
    "prefecture_code": 4,
    "city": "仙台市青葉区",
    "city_kana": "センダイシアオバク",
    "town": "中央",
    "town_kana": "チュウオウ",
    "street": "１丁目１番１号",
    "office_name": "エスパル仙台　東館",
    "office_name_kana": "エスパルセンダイ ヒガシカン"
  },
  "8488": {
    "postcode": "9808488",
    "prefecture": "宮城県",
    "prefecture_kana": "ミヤギケン",
    "prefecture_code": 4,
    "city": "仙台市青葉区",
    "city_kana": "センダイシアオバク",
    "town": "本町",
    "town_kana": "ホンチョウ",
    "street": "２丁目３−１０仙台本町ビル１０Ｆ",
    "office_name": "株式会社　日本航空インターナショナル",
    "office_name_kana": "カブシキガイシヤ ニホンコウクウインタ-ナシヨナル"
  },
  "8501": {
    "postcode": "9808501",
    "prefecture": "宮城県",
    "prefecture_kana": "ミヤギケン",
    "prefecture_code": 4,
    "city": "仙台市青葉区",
    "city_kana": "センダイシアオバク",
    "town": "北目町",
    "town_kana": "キタメマチ",
    "street": "２−２８",
    "office_name": "株式会社　タケザワ",
    "office_name_kana": "カブシキガイシヤ タケザワ"
  },
  "8505": {
    "postcode": "9808505",
    "prefecture": "宮城県",
    "prefecture_kana": "ミヤギケン",
    "prefecture_code": 4,
    "city": "仙台市青葉区",
    "city_kana": "センダイシアオバク",
    "town": "北目町",
    "town_kana": "キタメマチ",
    "street": "６番８号",
    "office_name": "りんかい日産建設　株式会社　東北支店",
    "office_name_kana": "リンカイニツサンケンセツ カブシキガイシヤ トウホクシテン"
  },
  "8508": {
    "postcode": "9808508",
    "prefecture": "宮城県",
    "prefecture_kana": "ミヤギケン",
    "prefecture_code": 4,
    "city": "仙台市青葉区",
    "city_kana": "センダイシアオバク",
    "town": "五橋",
    "town_kana": "イツツバシ",
    "street": "１丁目１−５",
    "office_name": "ＪＲ仙台病院",
    "office_name_kana": "ジエイア-ルセンダイビヨウイン"
  },
  "8510": {
    "postcode": "9808510",
    "prefecture": "宮城県",
    "prefecture_kana": "ミヤギケン",
    "prefecture_code": 4,
    "city": "仙台市青葉区",
    "city_kana": "センダイシアオバク",
    "town": "五橋",
    "town_kana": "イツツバシ",
    "street": "２丁目１２−１",
    "office_name": "アイリスオーヤマ　株式会社",
    "office_name_kana": "アイリスオ-ヤマ カブシキガイシヤ"
  },
  "8511": {
    "postcode": "9808511",
    "prefecture": "宮城県",
    "prefecture_kana": "ミヤギケン",
    "prefecture_code": 4,
    "city": "仙台市青葉区",
    "city_kana": "センダイシアオバク",
    "town": "土樋",
    "town_kana": "ツチトイ",
    "street": "１丁目３−１",
    "office_name": "東北学院大学",
    "office_name_kana": "トウホクガクインダイガク"
  },
  "8515": {
    "postcode": "9808515",
    "prefecture": "宮城県",
    "prefecture_kana": "ミヤギケン",
    "prefecture_code": 4,
    "city": "仙台市青葉区",
    "city_kana": "センダイシアオバク",
    "town": "上杉",
    "town_kana": "カミスギ",
    "street": "１丁目１番２号",
    "office_name": "株式会社　エヌ・ティ・ティ・ドコモ東北",
    "office_name_kana": "カブシキガイシヤ エヌ・テイ・テイ・ドコモトウホク"
  },
  "8521": {
    "postcode": "9808521",
    "prefecture": "宮城県",
    "prefecture_kana": "ミヤギケン",
    "prefecture_code": 4,
    "city": "仙台市青葉区",
    "city_kana": "センダイシアオバク",
    "town": "一番町",
    "town_kana": "イチバンチョウ",
    "street": "１丁目１６−６",
    "office_name": "栄光時計　株式会社　仙台営業所",
    "office_name_kana": "エイコウトケイ カブシキガイシヤ センダイエイギヨウシヨ"
  },
  "8525": {
    "postcode": "9808525",
    "prefecture": "宮城県",
    "prefecture_kana": "ミヤギケン",
    "prefecture_code": 4,
    "city": "仙台市青葉区",
    "city_kana": "センダイシアオバク",
    "town": "一番町",
    "town_kana": "イチバンチョウ",
    "street": "２丁目５−２２",
    "office_name": "株式会社　東北しんきんカード",
    "office_name_kana": "カブシキガイシヤ トウホクシンキンカ-ド"
  },
  "8526": [
    {
      "postcode": "9808526",
      "prefecture": "宮城県",
      "prefecture_kana": "ミヤギケン",
      "prefecture_code": 4,
      "city": "仙台市青葉区",
      "city_kana": "センダイシアオバク",
      "town": "中央",
      "town_kana": "チュウオウ",
      "street": "３丁目２番１号青葉通プラザ３階",
      "office_name": "サッポロビール　株式会社　東日本本部",
      "office_name_kana": "サツポロビ-ル カブシキガイシヤ ヒガシニホンホンブ"
    },
    {
      "postcode": "9808526",
      "prefecture": "宮城県",
      "prefecture_kana": "ミヤギケン",
      "prefecture_code": 4,
      "city": "仙台市青葉区",
      "city_kana": "センダイシアオバク",
      "town": "中央",
      "town_kana": "チュウオウ",
      "street": "３丁目２番１号青葉通プラザ３階",
      "office_name": "ポッカサッポロフード＆ビバレッジ　株式会社　東北支社",
      "office_name_kana": "ポツカサツポロフ-ドアンドビバレツジ カブシキガイシヤ トウホクシシヤ"
    }
  ],
  "8529": {
    "postcode": "9808529",
    "prefecture": "宮城県",
    "prefecture_kana": "ミヤギケン",
    "prefecture_code": 4,
    "city": "仙台市青葉区",
    "city_kana": "センダイシアオバク",
    "town": "一番町",
    "town_kana": "イチバンチョウ",
    "street": "１丁目１６−５",
    "office_name": "株式会社　河北仙販",
    "office_name_kana": "カブシキガイシヤ カホクセンパン"
  },
  "8531": {
    "postcode": "9808531",
    "prefecture": "宮城県",
    "prefecture_kana": "ミヤギケン",
    "prefecture_code": 4,
    "city": "仙台市青葉区",
    "city_kana": "センダイシアオバク",
    "town": "一番町",
    "town_kana": "イチバンチョウ",
    "street": "４丁目１番２５号東二番丁スクエア",
    "office_name": "株式会社　日立製作所　東北支社",
    "office_name_kana": "カブシキガイシヤ ヒタチセイサクシヨ トウホクシシヤ"
  },
  "8533": {
    "postcode": "9808533",
    "prefecture": "宮城県",
    "prefecture_kana": "ミヤギケン",
    "prefecture_code": 4,
    "city": "仙台市青葉区",
    "city_kana": "センダイシアオバク",
    "town": "一番町",
    "town_kana": "イチバンチョウ",
    "street": "１−９−１仙台トラストタワー１７階",
    "office_name": "サントリービア＆スピリッツ　株式会社　東北支社",
    "office_name_kana": "サントリ-ビアアンドスピリツツ カブシキガイシヤ トウホクシシヤ"
  },
  "8534": {
    "postcode": "9808534",
    "prefecture": "宮城県",
    "prefecture_kana": "ミヤギケン",
    "prefecture_code": 4,
    "city": "仙台市青葉区",
    "city_kana": "センダイシアオバク",
    "town": "一番町",
    "town_kana": "イチバンチョウ",
    "street": "３丁目７−１",
    "office_name": "東日本興業　株式会社",
    "office_name_kana": "ヒガシニホンコウギヨウ カブシキガイシヤ"
  },
  "8543": {
    "postcode": "9808543",
    "prefecture": "宮城県",
    "prefecture_kana": "ミヤギケン",
    "prefecture_code": 4,
    "city": "仙台市青葉区",
    "city_kana": "センダイシアオバク",
    "town": "一番町",
    "town_kana": "イチバンチョウ",
    "street": "４丁目８−１５",
    "office_name": "株式会社　三越　仙台店",
    "office_name_kana": "カブシキガイシヤ ミツコシ センダイテン"
  },
  "8544": {
    "postcode": "9808544",
    "prefecture": "宮城県",
    "prefecture_kana": "ミヤギケン",
    "prefecture_code": 4,
    "city": "仙台市青葉区",
    "city_kana": "センダイシアオバク",
    "town": "一番町",
    "town_kana": "イチバンチョウ",
    "street": "１丁目１４番３２号２Ｆ",
    "office_name": "社団法人　日本金属学会",
    "office_name_kana": "シヤダンホウジン ニホンキンゾクガツカイ"
  },
  "8546": {
    "postcode": "9808546",
    "prefecture": "宮城県",
    "prefecture_kana": "ミヤギケン",
    "prefecture_code": 4,
    "city": "仙台市青葉区",
    "city_kana": "センダイシアオバク",
    "town": "一番町",
    "town_kana": "イチバンチョウ",
    "street": "３丁目１１−１５",
    "office_name": "イオン　株式会社　仙台フォーラス",
    "office_name_kana": "イオン カブシキガイシヤ センダイフオ-ラス"
  },
  "8550": {
    "postcode": "9808550",
    "prefecture": "宮城県",
    "prefecture_kana": "ミヤギケン",
    "prefecture_code": 4,
    "city": "仙台市青葉区",
    "city_kana": "センダイシアオバク",
    "town": "本町",
    "town_kana": "ホンチョウ",
    "street": "１丁目７−１",
    "office_name": "東北電力　株式会社",
    "office_name_kana": "トウホクデンリヨク カブシキガイシヤ"
  },
  "8551": {
    "postcode": "9808551",
    "prefecture": "宮城県",
    "prefecture_kana": "ミヤギケン",
    "prefecture_code": 4,
    "city": "仙台市青葉区",
    "city_kana": "センダイシアオバク",
    "town": "本町",
    "town_kana": "ホンチョウ",
    "street": "１丁目７−１",
    "office_name": "東北電力ネットワーク　株式会社",
    "office_name_kana": "トウホクデンリヨクネツトワ-ク カブシキガイシヤ"
  },
  "8555": {
    "postcode": "9808555",
    "prefecture": "宮城県",
    "prefecture_kana": "ミヤギケン",
    "prefecture_code": 4,
    "city": "仙台市青葉区",
    "city_kana": "センダイシアオバク",
    "town": "一番町",
    "town_kana": "イチバンチョウ",
    "street": "４丁目１１−１",
    "office_name": "株式会社　一・四・一",
    "office_name_kana": "カブシキガイシヤ イチ・ヨン・イチ"
  },
  "8560": {
    "postcode": "9808560",
    "prefecture": "宮城県",
    "prefecture_kana": "ミヤギケン",
    "prefecture_code": 4,
    "city": "仙台市青葉区",
    "city_kana": "センダイシアオバク",
    "town": "一番町",
    "town_kana": "イチバンチョウ",
    "street": "１丁目９番１号仙台トラストタワー",
    "office_name": "キャノンマーケティングジャパン　株式会社　仙台支店",
    "office_name_kana": "キヤノンマ-ケテイングジヤパン カブシキガイシヤ センダイシテン"
  },
  "8561": {
    "postcode": "9808561",
    "prefecture": "宮城県",
    "prefecture_kana": "ミヤギケン",
    "prefecture_code": 4,
    "city": "仙台市青葉区",
    "city_kana": "センダイシアオバク",
    "town": "中央",
    "town_kana": "チュウオウ",
    "street": "４−４−１９アーバンネット仙台中央ビル１４階",
    "office_name": "全国健康保険協会　宮城支部",
    "office_name_kana": "ゼンコクケンコウホケンキヨウカイ ミヤギシブ"
  },
  "8565": {
    "postcode": "9808565",
    "prefecture": "宮城県",
    "prefecture_kana": "ミヤギケン",
    "prefecture_code": 4,
    "city": "仙台市青葉区",
    "city_kana": "センダイシアオバク",
    "town": "国分町",
    "town_kana": "コクブンチョウ",
    "street": "３丁目６−１仙台パークビルディング７Ｆ",
    "office_name": "東急建設　株式会社　東北支店",
    "office_name_kana": "トウキユウケンセツカブシキガイシヤトウホクシテン"
  },
  "8566": {
    "postcode": "9808566",
    "prefecture": "宮城県",
    "prefecture_kana": "ミヤギケン",
    "prefecture_code": 4,
    "city": "仙台市青葉区",
    "city_kana": "センダイシアオバク",
    "town": "一番町",
    "town_kana": "イチバンチョウ",
    "street": "二丁目１０番１７号",
    "office_name": "丸善雄松堂　株式会社　仙台支店",
    "office_name_kana": "マルゼンユウシヨウドウ カブシキガイシヤ センダイシテン"
  },
  "8570": {
    "postcode": "9808570",
    "prefecture": "宮城県",
    "prefecture_kana": "ミヤギケン",
    "prefecture_code": 4,
    "city": "仙台市青葉区",
    "city_kana": "センダイシアオバク",
    "town": "本町",
    "town_kana": "ホンチョウ",
    "street": "３丁目８−１",
    "office_name": "宮城県庁",
    "office_name_kana": "ミヤギケンチヨウ"
  },
  "8571": {
    "postcode": "9808571",
    "prefecture": "宮城県",
    "prefecture_kana": "ミヤギケン",
    "prefecture_code": 4,
    "city": "仙台市青葉区",
    "city_kana": "センダイシアオバク",
    "town": "国分町",
    "town_kana": "コクブンチョウ",
    "street": "３丁目６−１",
    "office_name": "三菱商事　株式会社　東北支社",
    "office_name_kana": "ミツビシシヨウジ カブシキガイシヤ トウホクシシヤ"
  },
  "8572": {
    "postcode": "9808572",
    "prefecture": "宮城県",
    "prefecture_kana": "ミヤギケン",
    "prefecture_code": 4,
    "city": "仙台市青葉区",
    "city_kana": "センダイシアオバク",
    "town": "荒巻",
    "town_kana": "アラマキ",
    "street": "字青葉４６８−１",
    "office_name": "東北大学　農学部・環境科学研究科・災害科学国際研究所・国際集積エレクトロニクス研究開発センター",
    "office_name_kana": "トウホクダイガク ノウガクブ・カンキヨウカガクケンキユウカ・サイガイカガクコクサイケンキユウジヨ・コクサイシユウセキエレクトロニクスケンキユウカイハツセンタ-"
  },
  "8573": {
    "postcode": "9808573",
    "prefecture": "宮城県",
    "prefecture_kana": "ミヤギケン",
    "prefecture_code": 4,
    "city": "仙台市青葉区",
    "city_kana": "センダイシアオバク",
    "town": "星陵町",
    "town_kana": "セイリョウマチ",
    "street": "２−１",
    "office_name": "国立大学法人　東北大学　東北メディカル・メガバンク機構",
    "office_name_kana": "コクリツダイガクホウジン トウホクダイガク トウホクメデイカル・メガバンクキコウ"
  },
  "8574": {
    "postcode": "9808574",
    "prefecture": "宮城県",
    "prefecture_kana": "ミヤギケン",
    "prefecture_code": 4,
    "city": "仙台市青葉区",
    "city_kana": "センダイシアオバク",
    "town": "星陵町",
    "town_kana": "セイリョウマチ",
    "street": "１−１",
    "office_name": "東北大学医学部附属病院",
    "office_name_kana": "トウホクダイガクイガクブフゾクビヨウイン"
  },
  "8575": {
    "postcode": "9808575",
    "prefecture": "宮城県",
    "prefecture_kana": "ミヤギケン",
    "prefecture_code": 4,
    "city": "仙台市青葉区",
    "city_kana": "センダイシアオバク",
    "town": "星陵町",
    "town_kana": "セイリョウマチ",
    "street": "２−１",
    "office_name": "東北大学　（医学部等）",
    "office_name_kana": "トウホクダイガク (イガクブトウ)"
  },
  "8576": {
    "postcode": "9808576",
    "prefecture": "宮城県",
    "prefecture_kana": "ミヤギケン",
    "prefecture_code": 4,
    "city": "仙台市青葉区",
    "city_kana": "センダイシアオバク",
    "town": "川内",
    "town_kana": "カワウチ",
    "street": "２７−１",
    "office_name": "東北大学　文学部・文学研究科",
    "office_name_kana": "トウホクダイガク ブンガクブ・ブンガクケンキユウカ"
  },
  "8577": {
    "postcode": "9808577",
    "prefecture": "宮城県",
    "prefecture_kana": "ミヤギケン",
    "prefecture_code": 4,
    "city": "仙台市青葉区",
    "city_kana": "センダイシアオバク",
    "town": "片平",
    "town_kana": "カタヒラ",
    "street": "２丁目１−１",
    "office_name": "東北大学　（本部事務機構等）",
    "office_name_kana": "トウホクダイガク (ホンブジムキコウトウ)"
  },
  "8578": {
    "postcode": "9808578",
    "prefecture": "宮城県",
    "prefecture_kana": "ミヤギケン",
    "prefecture_code": 4,
    "city": "仙台市青葉区",
    "city_kana": "センダイシアオバク",
    "town": "荒巻",
    "town_kana": "アラマキ",
    "street": "字青葉６−３",
    "office_name": "東北大学　（理学部・薬学部等）",
    "office_name_kana": "トウホクダイガク (リガクブ・ヤクガクブトウ)"
  },
  "8579": {
    "postcode": "9808579",
    "prefecture": "宮城県",
    "prefecture_kana": "ミヤギケン",
    "prefecture_code": 4,
    "city": "仙台市青葉区",
    "city_kana": "センダイシアオバク",
    "town": "荒巻",
    "town_kana": "アラマキ",
    "street": "字青葉６−６",
    "office_name": "東北大学（工学研究科・工学部等）",
    "office_name_kana": "トウホクダイガク(コウガクケンキユウカ・コウガクブトウ)"
  },
  "8580": {
    "postcode": "9808580",
    "prefecture": "宮城県",
    "prefecture_kana": "ミヤギケン",
    "prefecture_code": 4,
    "city": "仙台市青葉区",
    "city_kana": "センダイシアオバク",
    "town": "五橋",
    "town_kana": "イツツバシ",
    "street": "１丁目１−１",
    "office_name": "東日本旅客鉄道　株式会社　仙台支社",
    "office_name_kana": "ヒガシニホンリヨカクテツドウ カブシキガイシヤ センダイシシヤ"
  },
  "8581": {
    "postcode": "9808581",
    "prefecture": "宮城県",
    "prefecture_kana": "ミヤギケン",
    "prefecture_code": 4,
    "city": "仙台市青葉区",
    "city_kana": "センダイシアオバク",
    "town": "大手町",
    "town_kana": "オオテマチ",
    "street": "１−１",
    "office_name": "株式会社　バイタルネット",
    "office_name_kana": "カブシキガイシヤ バイタルネツト"
  },
  "8583": {
    "postcode": "9808583",
    "prefecture": "宮城県",
    "prefecture_kana": "ミヤギケン",
    "prefecture_code": 4,
    "city": "仙台市青葉区",
    "city_kana": "センダイシアオバク",
    "town": "国分町",
    "town_kana": "コクブンチョウ",
    "street": "３丁目１−１８",
    "office_name": "カメイ　株式会社",
    "office_name_kana": "カメイ カブシキガイシヤ"
  },
  "8585": {
    "postcode": "9808585",
    "prefecture": "宮城県",
    "prefecture_kana": "ミヤギケン",
    "prefecture_code": 4,
    "city": "仙台市青葉区",
    "city_kana": "センダイシアオバク",
    "town": "中央",
    "town_kana": "チュウオウ",
    "street": "二丁目８番１３号大和証券仙台ビル４階",
    "office_name": "株式会社　仙台リビング新聞社",
    "office_name_kana": "カブシキガイシヤ センダイリビングシンブンシヤ"
  },
  "8587": {
    "postcode": "9808587",
    "prefecture": "宮城県",
    "prefecture_kana": "ミヤギケン",
    "prefecture_code": 4,
    "city": "仙台市青葉区",
    "city_kana": "センダイシアオバク",
    "town": "国分町",
    "town_kana": "コクブンチョウ",
    "street": "３丁目１−１１仙台パナソニックビル",
    "office_name": "松下電器産業　株式会社　東北支店",
    "office_name_kana": "マツシタデンキサンギヨウ カブシキガイシヤ トウホクシテン"
  },
  "8588": {
    "postcode": "9808588",
    "prefecture": "宮城県",
    "prefecture_kana": "ミヤギケン",
    "prefecture_code": 4,
    "city": "仙台市青葉区",
    "city_kana": "センダイシアオバク",
    "town": "国分町",
    "town_kana": "コクブンチョウ",
    "street": "３丁目５番３０号",
    "office_name": "杜の都信用金庫",
    "office_name_kana": "モリノミヤコシンヨウキンコ"
  },
  "8601": {
    "postcode": "9808601",
    "prefecture": "宮城県",
    "prefecture_kana": "ミヤギケン",
    "prefecture_code": 4,
    "city": "仙台市青葉区",
    "city_kana": "センダイシアオバク",
    "town": "春日町",
    "town_kana": "カスガマチ",
    "street": "７番２５号仙台第３法務総合庁舎",
    "office_name": "仙台法務局",
    "office_name_kana": "センダイホウムキヨク"
  },
  "8602": {
    "postcode": "9808602",
    "prefecture": "宮城県",
    "prefecture_kana": "ミヤギケン",
    "prefecture_code": 4,
    "city": "仙台市青葉区",
    "city_kana": "センダイシアオバク",
    "town": "本町",
    "town_kana": "ホンチョウ",
    "street": "３−３−１仙台合同庁舎Ｂ棟",
    "office_name": "国土交通省　東北地方整備局",
    "office_name_kana": "コクドコウツウシヨウ トウホクチホウセイビキヨク"
  },
  "8605": {
    "postcode": "9808605",
    "prefecture": "宮城県",
    "prefecture_kana": "ミヤギケン",
    "prefecture_code": 4,
    "city": "仙台市青葉区",
    "city_kana": "センダイシアオバク",
    "town": "二日町",
    "town_kana": "フツカマチ",
    "street": "１６−２０二日町ホームプラザビル",
    "office_name": "五洋建設　株式会社　東北支店",
    "office_name_kana": "ゴヨウケンセツ カブシキガイシヤ トウホクシテン"
  },
  "8608": {
    "postcode": "9808608",
    "prefecture": "宮城県",
    "prefecture_kana": "ミヤギケン",
    "prefecture_code": 4,
    "city": "仙台市青葉区",
    "city_kana": "センダイシアオバク",
    "town": "花京院",
    "town_kana": "カキョウイン",
    "street": "２丁目１−１４花京院ビルディング４階",
    "office_name": "三井住友建設　株式会社　東北支店",
    "office_name_kana": "ミツイスミトモケンセツ カブシキガイシヤ トウホクシテン"
  },
  "8621": {
    "postcode": "9808621",
    "prefecture": "宮城県",
    "prefecture_kana": "ミヤギケン",
    "prefecture_code": 4,
    "city": "仙台市青葉区",
    "city_kana": "センダイシアオバク",
    "town": "二日町",
    "town_kana": "フツカマチ",
    "street": "１−２７",
    "office_name": "鹿島建設　株式会社　東北支店",
    "office_name_kana": "カジマケンセツ カブシキガイシヤ トウホクシテン"
  },
  "8622": {
    "postcode": "9808622",
    "prefecture": "宮城県",
    "prefecture_kana": "ミヤギケン",
    "prefecture_code": 4,
    "city": "仙台市青葉区",
    "city_kana": "センダイシアオバク",
    "town": "春日町",
    "town_kana": "カスガマチ",
    "street": "６番１５号",
    "office_name": "株式会社　ジー・アイ・ピー",
    "office_name_kana": "カブシキガイシヤ ジ-アイピ-"
  },
  "8631": {
    "postcode": "9808631",
    "prefecture": "宮城県",
    "prefecture_kana": "ミヤギケン",
    "prefecture_code": 4,
    "city": "仙台市青葉区",
    "city_kana": "センダイシアオバク",
    "town": "川内澱橋通",
    "town_kana": "カワウチヨドミバシドオリ",
    "street": "１",
    "office_name": "宮城県　仙台第二高等学校",
    "office_name_kana": "ミヤギケン センダイダイニコウトウガツコウ"
  },
  "8632": {
    "postcode": "9808632",
    "prefecture": "宮城県",
    "prefecture_kana": "ミヤギケン",
    "prefecture_code": 4,
    "city": "仙台市青葉区",
    "city_kana": "センダイシアオバク",
    "town": "大手町",
    "town_kana": "オオテマチ",
    "street": "５−３",
    "office_name": "（株）　オフィストライ",
    "office_name_kana": "カブシキガイシヤ オフイストライ"
  },
  "8633": {
    "postcode": "9808633",
    "prefecture": "宮城県",
    "prefecture_kana": "ミヤギケン",
    "prefecture_code": 4,
    "city": "仙台市青葉区",
    "city_kana": "センダイシアオバク",
    "town": "大手町",
    "town_kana": "オオテマチ",
    "street": "１−５",
    "office_name": "宮城県医師会",
    "office_name_kana": "ミヤギケンイシカイ"
  },
  "8636": {
    "postcode": "9808636",
    "prefecture": "宮城県",
    "prefecture_kana": "ミヤギケン",
    "prefecture_code": 4,
    "city": "仙台市青葉区",
    "city_kana": "センダイシアオバク",
    "town": "片平",
    "town_kana": "カタヒラ",
    "street": "１丁目６番１号",
    "office_name": "仙台簡易裁判所",
    "office_name_kana": "センダイカンイサイバンシヨ"
  },
  "8637": {
    "postcode": "9808637",
    "prefecture": "宮城県",
    "prefecture_kana": "ミヤギケン",
    "prefecture_code": 4,
    "city": "仙台市青葉区",
    "city_kana": "センダイシアオバク",
    "town": "片平",
    "town_kana": "カタヒラ",
    "street": "１丁目６−１",
    "office_name": "仙台家庭裁判所",
    "office_name_kana": "センダイカテイサイバンシヨ"
  },
  "8638": {
    "postcode": "9808638",
    "prefecture": "宮城県",
    "prefecture_kana": "ミヤギケン",
    "prefecture_code": 4,
    "city": "仙台市青葉区",
    "city_kana": "センダイシアオバク",
    "town": "片平",
    "town_kana": "カタヒラ",
    "street": "１丁目６番１号",
    "office_name": "仙台高等裁判所",
    "office_name_kana": "センダイコウトウサイバンシヨ"
  },
  "8639": {
    "postcode": "9808639",
    "prefecture": "宮城県",
    "prefecture_kana": "ミヤギケン",
    "prefecture_code": 4,
    "city": "仙台市青葉区",
    "city_kana": "センダイシアオバク",
    "town": "片平",
    "town_kana": "カタヒラ",
    "street": "１丁目６−１",
    "office_name": "仙台地方裁判所",
    "office_name_kana": "センダイチホウサイバンシヨ"
  },
  "8640": {
    "postcode": "9808640",
    "prefecture": "宮城県",
    "prefecture_kana": "ミヤギケン",
    "prefecture_code": 4,
    "city": "仙台市青葉区",
    "city_kana": "センダイシアオバク",
    "town": "片平",
    "town_kana": "カタヒラ",
    "street": "１丁目２−３２",
    "office_name": "株式会社　安藤・間　東北支店",
    "office_name_kana": "カブシキガイシヤ アンドウ・ハザマ トウホクシテン"
  },
  "8650": {
    "postcode": "9808650",
    "prefecture": "宮城県",
    "prefecture_kana": "ミヤギケン",
    "prefecture_code": 4,
    "city": "仙台市青葉区",
    "city_kana": "センダイシアオバク",
    "town": "五橋",
    "town_kana": "イツツバシ",
    "street": "二丁目４番２号",
    "office_name": "一般財団法人　郵政福祉東北地方本部",
    "office_name_kana": "イツパンザイダンホウジン ユウセイフクシトウホクチホウホンブ"
  },
  "8651": {
    "postcode": "9808651",
    "prefecture": "宮城県",
    "prefecture_kana": "ミヤギケン",
    "prefecture_code": 4,
    "city": "仙台市青葉区",
    "city_kana": "センダイシアオバク",
    "town": "一番町",
    "town_kana": "イチバンチョウ",
    "street": "３丁目１番１号（仙台中央郵便局私書箱第３４号）",
    "office_name": "株式会社　みずほ銀行　仙台支店",
    "office_name_kana": "カブシキガイシヤ ミズホギンコウ センダイシテン"
  },
  "8652": {
    "postcode": "9808652",
    "prefecture": "宮城県",
    "prefecture_kana": "ミヤギケン",
    "prefecture_code": 4,
    "city": "仙台市青葉区",
    "city_kana": "センダイシアオバク",
    "town": "一番町",
    "town_kana": "イチバンチョウ",
    "street": "３丁目２−１７",
    "office_name": "株式会社　藤崎",
    "office_name_kana": "カブシキガイシヤ フジサキ"
  },
  "8656": {
    "postcode": "9808656",
    "prefecture": "宮城県",
    "prefecture_kana": "ミヤギケン",
    "prefecture_code": 4,
    "city": "仙台市青葉区",
    "city_kana": "センダイシアオバク",
    "town": "一番町",
    "town_kana": "イチバンチョウ",
    "street": "２丁目１−１（仙台中央郵便局私書箱第３号）",
    "office_name": "株式会社　仙台銀行",
    "office_name_kana": "カブシキガイシヤ センダイギンコウ"
  },
  "8660": {
    "postcode": "9808660",
    "prefecture": "宮城県",
    "prefecture_kana": "ミヤギケン",
    "prefecture_code": 4,
    "city": "仙台市青葉区",
    "city_kana": "センダイシアオバク",
    "town": "五橋",
    "town_kana": "イツツバシ",
    "street": "１丁目２−２８（仙台中央郵便局私書箱第９号）",
    "office_name": "株式会社　河北新報社",
    "office_name_kana": "カブシキガイシヤ カホクシンポウシヤ"
  },
  "8661": {
    "postcode": "9808661",
    "prefecture": "宮城県",
    "prefecture_kana": "ミヤギケン",
    "prefecture_code": 4,
    "city": "仙台市青葉区",
    "city_kana": "センダイシアオバク",
    "town": "北目町",
    "town_kana": "キタメマチ",
    "street": "１−１５（仙台中央郵便局私書箱第２５号）",
    "office_name": "東北労働金庫",
    "office_name_kana": "トウホクロウドウキンコ"
  },
  "8668": {
    "postcode": "9808668",
    "prefecture": "宮城県",
    "prefecture_kana": "ミヤギケン",
    "prefecture_code": 4,
    "city": "仙台市太白区",
    "city_kana": "センダイシタイハクク",
    "town": "八木山香澄町",
    "town_kana": "ヤギヤマカスミチョウ",
    "street": "２６−１（仙台中央郵便局私書箱第１号）",
    "office_name": "東北放送　株式会社",
    "office_name_kana": "トウホクホウソウ カブシキガイシヤ"
  },
  "8671": {
    "postcode": "9808671",
    "prefecture": "宮城県",
    "prefecture_kana": "ミヤギケン",
    "prefecture_code": 4,
    "city": "仙台市青葉区",
    "city_kana": "センダイシアオバク",
    "town": "国分町",
    "town_kana": "コクブンチョウ",
    "street": "３丁目７−１",
    "office_name": "仙台市役所",
    "office_name_kana": "センダイシヤクシヨ"
  },
  "8675": {
    "postcode": "9808675",
    "prefecture": "宮城県",
    "prefecture_kana": "ミヤギケン",
    "prefecture_code": 4,
    "city": "仙台市青葉区",
    "city_kana": "センダイシアオバク",
    "town": "国分町",
    "town_kana": "コクブンチョウ",
    "street": "３丁目７番１号",
    "office_name": "仙台市役所　仙台市郵送事務センター",
    "office_name_kana": "センダイシヤクシヨ センダイシユウソウジムセンタ-"
  },
  "8677": {
    "postcode": "9808677",
    "prefecture": "宮城県",
    "prefecture_kana": "ミヤギケン",
    "prefecture_code": 4,
    "city": "仙台市青葉区",
    "city_kana": "センダイシアオバク",
    "town": "一番町",
    "town_kana": "イチバンチョウ",
    "street": "４丁目６−１第一生命タワービル１５階（仙台中央郵便局私書箱第１０４号）",
    "office_name": "株式会社　宮城テレビ放送　事業局",
    "office_name_kana": "カブシキガイシヤ ミヤギテレビホウソウ ジギヨウキヨク"
  },
  "8686": {
    "postcode": "9808686",
    "prefecture": "宮城県",
    "prefecture_kana": "ミヤギケン",
    "prefecture_code": 4,
    "city": "仙台市青葉区",
    "city_kana": "センダイシアオバク",
    "town": "一番町",
    "town_kana": "イチバンチョウ",
    "street": "１丁目９−１仙台トラストタワー１０Ｆ",
    "office_name": "株式会社　ベネッセコーポレーション",
    "office_name_kana": "カブシキガイシヤ ベネツセコ-ポレ-シヨン"
  },
  "8701": {
    "postcode": "9808701",
    "prefecture": "宮城県",
    "prefecture_kana": "ミヤギケン",
    "prefecture_code": 4,
    "city": "仙台市青葉区",
    "city_kana": "センダイシアオバク",
    "town": "上杉",
    "town_kana": "カミスギ",
    "street": "１丁目５−１",
    "office_name": "仙台市青葉区役所",
    "office_name_kana": "センダイシアオバクヤクシヨ"
  },
  "8703": {
    "postcode": "9808703",
    "prefecture": "宮城県",
    "prefecture_kana": "ミヤギケン",
    "prefecture_code": 4,
    "city": "仙台市青葉区",
    "city_kana": "センダイシアオバク",
    "town": "上杉",
    "town_kana": "カミスギ",
    "street": "１丁目６−１１",
    "office_name": "日本生命保険　相互会社　仙台支社",
    "office_name_kana": "ニホンセイメイホケン ソウゴガイシヤ センダイシシヤ"
  },
  "8707": {
    "postcode": "9808707",
    "prefecture": "宮城県",
    "prefecture_kana": "ミヤギケン",
    "prefecture_code": 4,
    "city": "仙台市青葉区",
    "city_kana": "センダイシアオバク",
    "town": "一番町",
    "town_kana": "イチバンチョウ",
    "street": "３丁目４−８（仙台中央郵便局私書箱第４１号）",
    "office_name": "日本銀行　仙台支店",
    "office_name_kana": "ニツポンギンコウ センダイシテン"
  },
  "8711": {
    "postcode": "9808711",
    "prefecture": "宮城県",
    "prefecture_kana": "ミヤギケン",
    "prefecture_code": 4,
    "city": "仙台市青葉区",
    "city_kana": "センダイシアオバク",
    "town": "一番町",
    "town_kana": "イチバンチョウ",
    "street": "１−３−３",
    "office_name": "仙台中郵便局",
    "office_name_kana": "センダイナカユウビンキヨク"
  },
  "8733": {
    "postcode": "9808733",
    "prefecture": "宮城県",
    "prefecture_kana": "ミヤギケン",
    "prefecture_code": 4,
    "city": "仙台市青葉区",
    "city_kana": "センダイシアオバク",
    "town": "宮町",
    "town_kana": "ミヤマチ",
    "street": "４−３−２１",
    "office_name": "日本年金機構　仙台北年金事務所",
    "office_name_kana": "ニツポンネンキンキコウ センダイキタネンキンジムシヨ"
  },
  "8777": {
    "postcode": "9808777",
    "prefecture": "宮城県",
    "prefecture_kana": "ミヤギケン",
    "prefecture_code": 4,
    "city": "仙台市青葉区",
    "city_kana": "センダイシアオバク",
    "town": "中央",
    "town_kana": "チュウオウ",
    "street": "３丁目３−２０",
    "office_name": "株式会社　七十七銀行　本店",
    "office_name_kana": "カブシキガイシヤ シチジユウシチギンコウ ホンテン"
  },
  "8792": {
    "postcode": "9808792",
    "prefecture": "宮城県",
    "prefecture_kana": "ミヤギケン",
    "prefecture_code": 4,
    "city": "仙台市青葉区",
    "city_kana": "センダイシアオバク",
    "town": "上杉",
    "town_kana": "カミスギ",
    "street": "３丁目２−７",
    "office_name": "（株）　かんぽ生命保険　仙台サービスセンター",
    "office_name_kana": "(カブ) カンポセイメイホケン センダイサ-ビスセンタ-"
  },
  "8793": {
    "postcode": "9808793",
    "prefecture": "宮城県",
    "prefecture_kana": "ミヤギケン",
    "prefecture_code": 4,
    "city": "仙台市青葉区",
    "city_kana": "センダイシアオバク",
    "town": "一番町",
    "town_kana": "イチバンチョウ",
    "street": "１丁目１−３４",
    "office_name": "日本郵便　株式会社　東北支社　郵便事業本部（三種）",
    "office_name_kana": "ニホンユウビンカブシキガイシヤ トウホクシシヤ ユウビンジギヨウホンブ (サンシユ)"
  },
  "8794": {
    "postcode": "9808794",
    "prefecture": "宮城県",
    "prefecture_kana": "ミヤギケン",
    "prefecture_code": 4,
    "city": "仙台市青葉区",
    "city_kana": "センダイシアオバク",
    "town": "一番町",
    "town_kana": "イチバンチョウ",
    "street": "１丁目３−３",
    "office_name": "仙台貯金事務センター",
    "office_name_kana": "センダイチヨキンジムセンタ-"
  },
  "8795": {
    "postcode": "9808795",
    "prefecture": "宮城県",
    "prefecture_kana": "ミヤギケン",
    "prefecture_code": 4,
    "city": "仙台市青葉区",
    "city_kana": "センダイシアオバク",
    "town": "本町",
    "town_kana": "ホンチョウ",
    "street": "３丁目２−２３",
    "office_name": "東北総合通信局",
    "office_name_kana": "トウホクソウゴウツウシンキヨク"
  },
  "8797": [
    {
      "postcode": "9808797",
      "prefecture": "宮城県",
      "prefecture_kana": "ミヤギケン",
      "prefecture_code": 4,
      "city": "仙台市青葉区",
      "city_kana": "センダイシアオバク",
      "town": "一番町",
      "town_kana": "イチバンチョウ",
      "street": "１丁目１−３４",
      "office_name": "株式会社　ゆうちょ銀行　仙台支店",
      "office_name_kana": "カブシキカイシヤ ユウチヨギンコウ センダイシテン"
    },
    {
      "postcode": "9808797",
      "prefecture": "宮城県",
      "prefecture_kana": "ミヤギケン",
      "prefecture_code": 4,
      "city": "仙台市青葉区",
      "city_kana": "センダイシアオバク",
      "town": "一番町",
      "town_kana": "イチバンチョウ",
      "street": "１丁目１−３４",
      "office_name": "株式会社　かんぽ生命　仙台支店",
      "office_name_kana": "カブシキガイシヤ カンポセイメイ センダイシテン"
    },
    {
      "postcode": "9808797",
      "prefecture": "宮城県",
      "prefecture_kana": "ミヤギケン",
      "prefecture_code": 4,
      "city": "仙台市青葉区",
      "city_kana": "センダイシアオバク",
      "town": "一番町",
      "town_kana": "イチバンチョウ",
      "street": "１丁目１−３４",
      "office_name": "日本郵便　株式会社　東北支社",
      "office_name_kana": "ニホンユウビン カブシキガイシヤ トウホクシシヤ"
    }
  ],
  "8798": {
    "postcode": "9808798",
    "prefecture": "宮城県",
    "prefecture_kana": "ミヤギケン",
    "prefecture_code": 4,
    "city": "仙台市青葉区",
    "city_kana": "センダイシアオバク",
    "town": "中央",
    "town_kana": "チュウオウ",
    "street": "４丁目５−１",
    "office_name": "仙台逓信病院",
    "office_name_kana": "センダイテイシンビヨウイン"
  }
}