{
  "0000": {
    "postcode": "9900000",
    "prefecture": "山形県",
    "prefecture_kana": "ヤマガタケン",
    "prefecture_code": 6,
    "city": "山形市",
    "city_kana": "ヤマガタシ",
    "town": "",
    "town_kana": "",
    "street": null,
    "office_name": null,
    "office_name_kana": null
  },
  "0001": {
    "postcode": "9900001",
    "prefecture": "山形県",
    "prefecture_kana": "ヤマガタケン",
    "prefecture_code": 6,
    "city": "山形市",
    "city_kana": "ヤマガタシ",
    "town": "穂積",
    "town_kana": "ホヅミ",
    "street": null,
    "office_name": null,
    "office_name_kana": null
  },
  "0002": {
    "postcode": "9900002",
    "prefecture": "山形県",
    "prefecture_kana": "ヤマガタケン",
    "prefecture_code": 6,
    "city": "山形市",
    "city_kana": "ヤマガタシ",
    "town": "高原町",
    "town_kana": "タカハラマチ",
    "street": null,
    "office_name": null,
    "office_name_kana": null
  },
  "0003": {
    "postcode": "9900003",
    "prefecture": "山形県",
    "prefecture_kana": "ヤマガタケン",
    "prefecture_code": 6,
    "city": "山形市",
    "city_kana": "ヤマガタシ",
    "town": "早乙女",
    "town_kana": "サオトメ",
    "street": null,
    "office_name": null,
    "office_name_kana": null
  },
  "0004": {
    "postcode": "9900004",
    "prefecture": "山形県",
    "prefecture_kana": "ヤマガタケン",
    "prefecture_code": 6,
    "city": "山形市",
    "city_kana": "ヤマガタシ",
    "town": "上山家町",
    "town_kana": "カミヤンベマチ",
    "street": null,
    "office_name": null,
    "office_name_kana": null
  },
  "0005": {
    "postcode": "9900005",
    "prefecture": "山形県",
    "prefecture_kana": "ヤマガタケン",
    "prefecture_code": 6,
    "city": "山形市",
    "city_kana": "ヤマガタシ",
    "town": "下山家町",
    "town_kana": "シモヤンベマチ",
    "street": null,
    "office_name": null,
    "office_name_kana": null
  },
  "0006": {
    "postcode": "9900006",
    "prefecture": "山形県",
    "prefecture_kana": "ヤマガタケン",
    "prefecture_code": 6,
    "city": "山形市",
    "city_kana": "ヤマガタシ",
    "town": "山家本町",
    "town_kana": "ヤンベホンチョウ",
    "street": null,
    "office_name": null,
    "office_name_kana": null
  },
  "0007": {
    "postcode": "9900007",
    "prefecture": "山形県",
    "prefecture_kana": "ヤマガタケン",
    "prefecture_code": 6,
    "city": "山形市",
    "city_kana": "ヤマガタシ",
    "town": "沼の辺町",
    "town_kana": "ヌマノベマチ",
    "street": null,
    "office_name": null,
    "office_name_kana": null
  },
  "0008": {
    "postcode": "9900008",
    "prefecture": "山形県",
    "prefecture_kana": "ヤマガタケン",
    "prefecture_code": 6,
    "city": "山形市",
    "city_kana": "ヤマガタシ",
    "town": "双月新町",
    "town_kana": "ソウツキシンチョウ",
    "street": null,
    "office_name": null,
    "office_name_kana": null
  },
  "0011": {
    "postcode": "9900011",
    "prefecture": "山形県",
    "prefecture_kana": "ヤマガタケン",
    "prefecture_code": 6,
    "city": "山形市",
    "city_kana": "ヤマガタシ",
    "town": "妙見寺",
    "town_kana": "ミョウケンジ",
    "street": null,
    "office_name": null,
    "office_name_kana": null
  },
  "0012": {
    "postcode": "9900012",
    "prefecture": "山形県",
    "prefecture_kana": "ヤマガタケン",
    "prefecture_code": 6,
    "city": "山形市",
    "city_kana": "ヤマガタシ",
    "town": "釈迦堂",
    "town_kana": "シャカドウ",
    "street": null,
    "office_name": null,
    "office_name_kana": null
  },
  "0013": {
    "postcode": "9900013",
    "prefecture": "山形県",
    "prefecture_kana": "ヤマガタケン",
    "prefecture_code": 6,
    "city": "山形市",
    "city_kana": "ヤマガタシ",
    "town": "防原町",
    "town_kana": "ボウバラマチ",
    "street": null,
    "office_name": null,
    "office_name_kana": null
  },
  "0014": {
    "postcode": "9900014",
    "prefecture": "山形県",
    "prefecture_kana": "ヤマガタケン",
    "prefecture_code": 6,
    "city": "山形市",
    "city_kana": "ヤマガタシ",
    "town": "滑川",
    "town_kana": "ナメカワ",
    "street": null,
    "office_name": null,
    "office_name_kana": null
  },
  "0015": {
    "postcode": "9900015",
    "prefecture": "山形県",
    "prefecture_kana": "ヤマガタケン",
    "prefecture_code": 6,
    "city": "山形市",
    "city_kana": "ヤマガタシ",
    "town": "新山",
    "town_kana": "ニイヤマ",
    "street": null,
    "office_name": null,
    "office_name_kana": null
  },
  "0016": {
    "postcode": "9900016",
    "prefecture": "山形県",
    "prefecture_kana": "ヤマガタケン",
    "prefecture_code": 6,
    "city": "山形市",
    "city_kana": "ヤマガタシ",
    "town": "関沢",
    "town_kana": "セキザワ",
    "street": null,
    "office_name": null,
    "office_name_kana": null
  },
  "0017": {
    "postcode": "9900017",
    "prefecture": "山形県",
    "prefecture_kana": "ヤマガタケン",
    "prefecture_code": 6,
    "city": "山形市",
    "city_kana": "ヤマガタシ",
    "town": "上宝沢",
    "town_kana": "カミホウザワ",
    "street": null,
    "office_name": null,
    "office_name_kana": null
  },
  "0018": {
    "postcode": "9900018",
    "prefecture": "山形県",
    "prefecture_kana": "ヤマガタケン",
    "prefecture_code": 6,
    "city": "山形市",
    "city_kana": "ヤマガタシ",
    "town": "下宝沢",
    "town_kana": "シモホウザワ",
    "street": null,
    "office_name": null,
    "office_name_kana": null
  },
  "0021": {
    "postcode": "9900021",
    "prefecture": "山形県",
    "prefecture_kana": "ヤマガタケン",
    "prefecture_code": 6,
    "city": "山形市",
    "city_kana": "ヤマガタシ",
    "town": "小白川町",
    "town_kana": "コジラカワマチ",
    "street": null,
    "office_name": null,
    "office_name_kana": null
  },
  "0022": {
    "postcode": "9900022",
    "prefecture": "山形県",
    "prefecture_kana": "ヤマガタケン",
    "prefecture_code": 6,
    "city": "山形市",
    "city_kana": "ヤマガタシ",
    "town": "東山形",
    "town_kana": "ヒガシヤマガタ",
    "street": null,
    "office_name": null,
    "office_name_kana": null
  },
  "0023": {
    "postcode": "9900023",
    "prefecture": "山形県",
    "prefecture_kana": "ヤマガタケン",
    "prefecture_code": 6,
    "city": "山形市",
    "city_kana": "ヤマガタシ",
    "town": "松波",
    "town_kana": "マツナミ",
    "street": null,
    "office_name": null,
    "office_name_kana": null
  },
  "0024": {
    "postcode": "9900024",
    "prefecture": "山形県",
    "prefecture_kana": "ヤマガタケン",
    "prefecture_code": 6,
    "city": "山形市",
    "city_kana": "ヤマガタシ",
    "town": "あさひ町",
    "town_kana": "アサヒマチ",
    "street": null,
    "office_name": null,
    "office_name_kana": null
  },
  "0025": {
    "postcode": "9900025",
    "prefecture": "山形県",
    "prefecture_kana": "ヤマガタケン",
    "prefecture_code": 6,
    "city": "山形市",
    "city_kana": "ヤマガタシ",
    "town": "あこや町",
    "town_kana": "アコヤチョウ",
    "street": null,
    "office_name": null,
    "office_name_kana": null
  },
  "0031": {
    "postcode": "9900031",
    "prefecture": "山形県",
    "prefecture_kana": "ヤマガタケン",
    "prefecture_code": 6,
    "city": "山形市",
    "city_kana": "ヤマガタシ",
    "town": "十日町",
    "town_kana": "トウカマチ",
    "street": null,
    "office_name": null,
    "office_name_kana": null
  },
  "0032": {
    "postcode": "9900032",
    "prefecture": "山形県",
    "prefecture_kana": "ヤマガタケン",
    "prefecture_code": 6,
    "city": "山形市",
    "city_kana": "ヤマガタシ",
    "town": "小姓町",
    "town_kana": "コショウマチ",
    "street": null,
    "office_name": null,
    "office_name_kana": null
  },
  "0033": {
    "postcode": "9900033",
    "prefecture": "山形県",
    "prefecture_kana": "ヤマガタケン",
    "prefecture_code": 6,
    "city": "山形市",
    "city_kana": "ヤマガタシ",
    "town": "諏訪町",
    "town_kana": "スワマチ",
    "street": null,
    "office_name": null,
    "office_name_kana": null
  },
  "0034": {
    "postcode": "9900034",
    "prefecture": "山形県",
    "prefecture_kana": "ヤマガタケン",
    "prefecture_code": 6,
    "city": "山形市",
    "city_kana": "ヤマガタシ",
    "town": "東原町",
    "town_kana": "ヒガシハラマチ",
    "street": null,
    "office_name": null,
    "office_name_kana": null
  },
  "0035": {
    "postcode": "9900035",
    "prefecture": "山形県",
    "prefecture_kana": "ヤマガタケン",
    "prefecture_code": 6,
    "city": "山形市",
    "city_kana": "ヤマガタシ",
    "town": "小荷駄町",
    "town_kana": "コニダマチ",
    "street": null,
    "office_name": null,
    "office_name_kana": null
  },
  "0036": {
    "postcode": "9900036",
    "prefecture": "山形県",
    "prefecture_kana": "ヤマガタケン",
    "prefecture_code": 6,
    "city": "山形市",
    "city_kana": "ヤマガタシ",
    "town": "三日町",
    "town_kana": "ミッカマチ",
    "street": null,
    "office_name": null,
    "office_name_kana": null
  },
  "0037": {
    "postcode": "9900037",
    "prefecture": "山形県",
    "prefecture_kana": "ヤマガタケン",
    "prefecture_code": 6,
    "city": "山形市",
    "city_kana": "ヤマガタシ",
    "town": "八日町",
    "town_kana": "ヨウカマチ",
    "street": null,
    "office_name": null,
    "office_name_kana": null
  },
  "0038": {
    "postcode": "9900038",
    "prefecture": "山形県",
    "prefecture_kana": "ヤマガタケン",
    "prefecture_code": 6,
    "city": "山形市",
    "city_kana": "ヤマガタシ",
    "town": "幸町",
    "town_kana": "サイワイチョウ",
    "street": null,
    "office_name": null,
    "office_name_kana": null
  },
  "0039": {
    "postcode": "9900039",
    "prefecture": "山形県",
    "prefecture_kana": "ヤマガタケン",
    "prefecture_code": 6,
    "city": "山形市",
    "city_kana": "ヤマガタシ",
    "town": "香澄町",
    "town_kana": "カスミチョウ",
    "street": null,
    "office_name": null,
    "office_name_kana": null
  },
  "0041": {
    "postcode": "9900041",
    "prefecture": "山形県",
    "prefecture_kana": "ヤマガタケン",
    "prefecture_code": 6,
    "city": "山形市",
    "city_kana": "ヤマガタシ",
    "town": "緑町",
    "town_kana": "ミドリチョウ",
    "street": null,
    "office_name": null,
    "office_name_kana": null
  },
  "0042": {
    "postcode": "9900042",
    "prefecture": "山形県",
    "prefecture_kana": "ヤマガタケン",
    "prefecture_code": 6,
    "city": "山形市",
    "city_kana": "ヤマガタシ",
    "town": "七日町",
    "town_kana": "ナヌカマチ",
    "street": null,
    "office_name": null,
    "office_name_kana": null
  },
  "0043": {
    "postcode": "9900043",
    "prefecture": "山形県",
    "prefecture_kana": "ヤマガタケン",
    "prefecture_code": 6,
    "city": "山形市",
    "city_kana": "ヤマガタシ",
    "town": "本町",
    "town_kana": "ホンチョウ",
    "street": null,
    "office_name": null,
    "office_name_kana": null
  },
  "0044": {
    "postcode": "9900044",
    "prefecture": "山形県",
    "prefecture_kana": "ヤマガタケン",
    "prefecture_code": 6,
    "city": "山形市",
    "city_kana": "ヤマガタシ",
    "town": "木の実町",
    "town_kana": "キノミチョウ",
    "street": null,
    "office_name": null,
    "office_name_kana": null
  },
  "0045": {
    "postcode": "9900045",
    "prefecture": "山形県",
    "prefecture_kana": "ヤマガタケン",
    "prefecture_code": 6,
    "city": "山形市",
    "city_kana": "ヤマガタシ",
    "town": "桜町",
    "town_kana": "サクラチョウ",
    "street": null,
    "office_name": null,
    "office_name_kana": null
  },
  "0046": {
    "postcode": "9900046",
    "prefecture": "山形県",
    "prefecture_kana": "ヤマガタケン",
    "prefecture_code": 6,
    "city": "山形市",
    "city_kana": "ヤマガタシ",
    "town": "大手町",
    "town_kana": "オオテマチ",
    "street": null,
    "office_name": null,
    "office_name_kana": null
  },
  "0047": {
    "postcode": "9900047",
    "prefecture": "山形県",
    "prefecture_kana": "ヤマガタケン",
    "prefecture_code": 6,
    "city": "山形市",
    "city_kana": "ヤマガタシ",
    "town": "旅篭町",
    "town_kana": "ハタゴマチ",
    "street": null,
    "office_name": null,
    "office_name_kana": null
  },
  "0051": {
    "postcode": "9900051",
    "prefecture": "山形県",
    "prefecture_kana": "ヤマガタケン",
    "prefecture_code": 6,
    "city": "山形市",
    "city_kana": "ヤマガタシ",
    "town": "銅町",
    "town_kana": "ドウマチ",
    "street": null,
    "office_name": null,
    "office_name_kana": null
  },
  "0052": {
    "postcode": "9900052",
    "prefecture": "山形県",
    "prefecture_kana": "ヤマガタケン",
    "prefecture_code": 6,
    "city": "山形市",
    "city_kana": "ヤマガタシ",
    "town": "円応寺町",
    "town_kana": "エンノウジマチ",
    "street": null,
    "office_name": null,
    "office_name_kana": null
  },
  "0053": {
    "postcode": "9900053",
    "prefecture": "山形県",
    "prefecture_kana": "ヤマガタケン",
    "prefecture_code": 6,
    "city": "山形市",
    "city_kana": "ヤマガタシ",
    "town": "薬師町",
    "town_kana": "ヤクシマチ",
    "street": null,
    "office_name": null,
    "office_name_kana": null
  },
  "0054": {
    "postcode": "9900054",
    "prefecture": "山形県",
    "prefecture_kana": "ヤマガタケン",
    "prefecture_code": 6,
    "city": "山形市",
    "city_kana": "ヤマガタシ",
    "town": "六日町",
    "town_kana": "ムイカマチ",
    "street": null,
    "office_name": null,
    "office_name_kana": null
  },
  "0055": {
    "postcode": "9900055",
    "prefecture": "山形県",
    "prefecture_kana": "ヤマガタケン",
    "prefecture_code": 6,
    "city": "山形市",
    "city_kana": "ヤマガタシ",
    "town": "相生町",
    "town_kana": "アイオイチョウ",
    "street": null,
    "office_name": null,
    "office_name_kana": null
  },
  "0056": {
    "postcode": "9900056",
    "prefecture": "山形県",
    "prefecture_kana": "ヤマガタケン",
    "prefecture_code": 6,
    "city": "山形市",
    "city_kana": "ヤマガタシ",
    "town": "錦町",
    "town_kana": "ニシキチョウ",
    "street": null,
    "office_name": null,
    "office_name_kana": null
  },
  "0057": {
    "postcode": "9900057",
    "prefecture": "山形県",
    "prefecture_kana": "ヤマガタケン",
    "prefecture_code": 6,
    "city": "山形市",
    "city_kana": "ヤマガタシ",
    "town": "宮町",
    "town_kana": "ミヤマチ",
    "street": null,
    "office_name": null,
    "office_name_kana": null
  },
  "0061": {
    "postcode": "9900061",
    "prefecture": "山形県",
    "prefecture_kana": "ヤマガタケン",
    "prefecture_code": 6,
    "city": "山形市",
    "city_kana": "ヤマガタシ",
    "town": "五十鈴",
    "town_kana": "イスズ",
    "street": null,
    "office_name": null,
    "office_name_kana": null
  },
  "0062": {
    "postcode": "9900062",
    "prefecture": "山形県",
    "prefecture_kana": "ヤマガタケン",
    "prefecture_code": 6,
    "city": "山形市",
    "city_kana": "ヤマガタシ",
    "town": "鈴川町",
    "town_kana": "スズカワマチ",
    "street": null,
    "office_name": null,
    "office_name_kana": null
  },
  "0063": {
    "postcode": "9900063",
    "prefecture": "山形県",
    "prefecture_kana": "ヤマガタケン",
    "prefecture_code": 6,
    "city": "山形市",
    "city_kana": "ヤマガタシ",
    "town": "山家町",
    "town_kana": "ヤンベマチ",
    "street": null,
    "office_name": null,
    "office_name_kana": null
  },
  "0064": {
    "postcode": "9900064",
    "prefecture": "山形県",
    "prefecture_kana": "ヤマガタケン",
    "prefecture_code": 6,
    "city": "山形市",
    "city_kana": "ヤマガタシ",
    "town": "和合町",
    "town_kana": "ワゴウマチ",
    "street": null,
    "office_name": null,
    "office_name_kana": null
  },
  "0065": {
    "postcode": "9900065",
    "prefecture": "山形県",
    "prefecture_kana": "ヤマガタケン",
    "prefecture_code": 6,
    "city": "山形市",
    "city_kana": "ヤマガタシ",
    "town": "双月町",
    "town_kana": "ソウツキマチ",
    "street": null,
    "office_name": null,
    "office_name_kana": null
  },
  "0066": {
    "postcode": "9900066",
    "prefecture": "山形県",
    "prefecture_kana": "ヤマガタケン",
    "prefecture_code": 6,
    "city": "山形市",
    "city_kana": "ヤマガタシ",
    "town": "印役町",
    "town_kana": "インヤクマチ",
    "street": null,
    "office_name": null,
    "office_name_kana": null
  },
  "0067": {
    "postcode": "9900067",
    "prefecture": "山形県",
    "prefecture_kana": "ヤマガタケン",
    "prefecture_code": 6,
    "city": "山形市",
    "city_kana": "ヤマガタシ",
    "town": "花楯",
    "town_kana": "ハナタテ",
    "street": null,
    "office_name": null,
    "office_name_kana": null
  },
  "0068": {
    "postcode": "9900068",
    "prefecture": "山形県",
    "prefecture_kana": "ヤマガタケン",
    "prefecture_code": 6,
    "city": "山形市",
    "city_kana": "ヤマガタシ",
    "town": "泉町",
    "town_kana": "イズミチョウ",
    "street": null,
    "office_name": null,
    "office_name_kana": null
  },
  "0071": {
    "postcode": "9900071",
    "prefecture": "山形県",
    "prefecture_kana": "ヤマガタケン",
    "prefecture_code": 6,
    "city": "山形市",
    "city_kana": "ヤマガタシ",
    "town": "流通センター",
    "town_kana": "リュウツウセンター",
    "street": null,
    "office_name": null,
    "office_name_kana": null
  },
  "0072": {
    "postcode": "9900072",
    "prefecture": "山形県",
    "prefecture_kana": "ヤマガタケン",
    "prefecture_code": 6,
    "city": "山形市",
    "city_kana": "ヤマガタシ",
    "town": "浜崎",
    "town_kana": "ハマザキ",
    "street": null,
    "office_name": null,
    "office_name_kana": null
  },
  "0073": {
    "postcode": "9900073",
    "prefecture": "山形県",
    "prefecture_kana": "ヤマガタケン",
    "prefecture_code": 6,
    "city": "山形市",
    "city_kana": "ヤマガタシ",
    "town": "大野目",
    "town_kana": "ダイノメ",
    "street": null,
    "office_name": null,
    "office_name_kana": null
  },
  "0074": {
    "postcode": "9900074",
    "prefecture": "山形県",
    "prefecture_kana": "ヤマガタケン",
    "prefecture_code": 6,
    "city": "山形市",
    "city_kana": "ヤマガタシ",
    "town": "芳野",
    "town_kana": "ヨシノ",
    "street": null,
    "office_name": null,
    "office_name_kana": null
  },
  "0075": {
    "postcode": "9900075",
    "prefecture": "山形県",
    "prefecture_kana": "ヤマガタケン",
    "prefecture_code": 6,
    "city": "山形市",
    "city_kana": "ヤマガタシ",
    "town": "落合町",
    "town_kana": "オチアイマチ",
    "street": null,
    "office_name": null,
    "office_name_kana": null
  },
  "0076": {
    "postcode": "9900076",
    "prefecture": "山形県",
    "prefecture_kana": "ヤマガタケン",
    "prefecture_code": 6,
    "city": "山形市",
    "city_kana": "ヤマガタシ",
    "town": "平久保",
    "town_kana": "ヒラクボ",
    "street": null,
    "office_name": null,
    "office_name_kana": null
  },
  "0077": {
    "postcode": "9900077",
    "prefecture": "山形県",
    "prefecture_kana": "ヤマガタケン",
    "prefecture_code": 6,
    "city": "山形市",
    "city_kana": "ヤマガタシ",
    "town": "栄原",
    "town_kana": "サカエバラ",
    "street": null,
    "office_name": null,
    "office_name_kana": null
  },
  "0300": {
    "postcode": "9900300",
    "prefecture": "山形県",
    "prefecture_kana": "ヤマガタケン",
    "prefecture_code": 6,
    "city": "東村山郡山辺町",
    "city_kana": "ヒガシムラヤマグンヤマノベマチ",
    "town": "",
    "town_kana": "",
    "street": null,
    "office_name": null,
    "office_name_kana": null
  },
  "0301": {
    "postcode": "9900301",
    "prefecture": "山形県",
    "prefecture_kana": "ヤマガタケン",
    "prefecture_code": 6,
    "city": "東村山郡山辺町",
    "city_kana": "ヒガシムラヤマグンヤマノベマチ",
    "town": "山辺",
    "town_kana": "ヤマノベ",
    "street": null,
    "office_name": null,
    "office_name_kana": null
  },
  "0302": {
    "postcode": "9900302",
    "prefecture": "山形県",
    "prefecture_kana": "ヤマガタケン",
    "prefecture_code": 6,
    "city": "東村山郡山辺町",
    "city_kana": "ヒガシムラヤマグンヤマノベマチ",
    "town": "緑ケ丘",
    "town_kana": "ミドリガオカ",
    "street": null,
    "office_name": null,
    "office_name_kana": null
  },
  "0303": {
    "postcode": "9900303",
    "prefecture": "山形県",
    "prefecture_kana": "ヤマガタケン",
    "prefecture_code": 6,
    "city": "東村山郡山辺町",
    "city_kana": "ヒガシムラヤマグンヤマノベマチ",
    "town": "清水",
    "town_kana": "シミズ",
    "street": null,
    "office_name": null,
    "office_name_kana": null
  },
  "0311": {
    "postcode": "9900311",
    "prefecture": "山形県",
    "prefecture_kana": "ヤマガタケン",
    "prefecture_code": 6,
    "city": "東村山郡山辺町",
    "city_kana": "ヒガシムラヤマグンヤマノベマチ",
    "town": "近江",
    "town_kana": "オウミ",
    "street": null,
    "office_name": null,
    "office_name_kana": null
  },
  "0312": {
    "postcode": "9900312",
    "prefecture": "山形県",
    "prefecture_kana": "ヤマガタケン",
    "prefecture_code": 6,
    "city": "東村山郡山辺町",
    "city_kana": "ヒガシムラヤマグンヤマノベマチ",
    "town": "三河尻",
    "town_kana": "ミカワジリ",
    "street": null,
    "office_name": null,
    "office_name_kana": null
  },
  "0321": {
    "postcode": "9900321",
    "prefecture": "山形県",
    "prefecture_kana": "ヤマガタケン",
    "prefecture_code": 6,
    "city": "東村山郡山辺町",
    "city_kana": "ヒガシムラヤマグンヤマノベマチ",
    "town": "根際",
    "town_kana": "ネギワ",
    "street": null,
    "office_name": null,
    "office_name_kana": null
  },
  "0322": {
    "postcode": "9900322",
    "prefecture": "山形県",
    "prefecture_kana": "ヤマガタケン",
    "prefecture_code": 6,
    "city": "東村山郡山辺町",
    "city_kana": "ヒガシムラヤマグンヤマノベマチ",
    "town": "要害",
    "town_kana": "ヨウガイ",
    "street": null,
    "office_name": null,
    "office_name_kana": null
  },
  "0323": {
    "postcode": "9900323",
    "prefecture": "山形県",
    "prefecture_kana": "ヤマガタケン",
    "prefecture_code": 6,
    "city": "東村山郡山辺町",
    "city_kana": "ヒガシムラヤマグンヤマノベマチ",
    "town": "大塚",
    "town_kana": "オオツカ",
    "street": null,
    "office_name": null,
    "office_name_kana": null
  },
  "0331": {
    "postcode": "9900331",
    "prefecture": "山形県",
    "prefecture_kana": "ヤマガタケン",
    "prefecture_code": 6,
    "city": "東村山郡山辺町",
    "city_kana": "ヒガシムラヤマグンヤマノベマチ",
    "town": "大寺",
    "town_kana": "オオテラ",
    "street": null,
    "office_name": null,
    "office_name_kana": null
  },
  "0332": {
    "postcode": "9900332",
    "prefecture": "山形県",
    "prefecture_kana": "ヤマガタケン",
    "prefecture_code": 6,
    "city": "東村山郡山辺町",
    "city_kana": "ヒガシムラヤマグンヤマノベマチ",
    "town": "北垣",
    "town_kana": "キタガキ",
    "street": null,
    "office_name": null,
    "office_name_kana": null
  },
  "0333": {
    "postcode": "9900333",
    "prefecture": "山形県",
    "prefecture_kana": "ヤマガタケン",
    "prefecture_code": 6,
    "city": "東村山郡山辺町",
    "city_kana": "ヒガシムラヤマグンヤマノベマチ",
    "town": "杉下",
    "town_kana": "スギシタ",
    "street": null,
    "office_name": null,
    "office_name_kana": null
  },
  "0341": {
    "postcode": "9900341",
    "prefecture": "山形県",
    "prefecture_kana": "ヤマガタケン",
    "prefecture_code": 6,
    "city": "東村山郡山辺町",
    "city_kana": "ヒガシムラヤマグンヤマノベマチ",
    "town": "大蕨",
    "town_kana": "オオワラビ",
    "street": null,
    "office_name": null,
    "office_name_kana": null
  },
  "0342": {
    "postcode": "9900342",
    "prefecture": "山形県",
    "prefecture_kana": "ヤマガタケン",
    "prefecture_code": 6,
    "city": "東村山郡山辺町",
    "city_kana": "ヒガシムラヤマグンヤマノベマチ",
    "town": "北山",
    "town_kana": "キタヤマ",
    "street": null,
    "office_name": null,
    "office_name_kana": null
  },
  "0351": {
    "postcode": "9900351",
    "prefecture": "山形県",
    "prefecture_kana": "ヤマガタケン",
    "prefecture_code": 6,
    "city": "東村山郡山辺町",
    "city_kana": "ヒガシムラヤマグンヤマノベマチ",
    "town": "簗沢",
    "town_kana": "ヤナザワ",
    "street": null,
    "office_name": null,
    "office_name_kana": null
  },
  "0352": {
    "postcode": "9900352",
    "prefecture": "山形県",
    "prefecture_kana": "ヤマガタケン",
    "prefecture_code": 6,
    "city": "東村山郡山辺町",
    "city_kana": "ヒガシムラヤマグンヤマノベマチ",
    "town": "北作",
    "town_kana": "キタサク",
    "street": null,
    "office_name": null,
    "office_name_kana": null
  },
  "0361": {
    "postcode": "9900361",
    "prefecture": "山形県",
    "prefecture_kana": "ヤマガタケン",
    "prefecture_code": 6,
    "city": "東村山郡山辺町",
    "city_kana": "ヒガシムラヤマグンヤマノベマチ",
    "town": "畑谷",
    "town_kana": "ハタヤ",
    "street": null,
    "office_name": null,
    "office_name_kana": null
  },
  "0392": {
    "postcode": "9900392",
    "prefecture": "山形県",
    "prefecture_kana": "ヤマガタケン",
    "prefecture_code": 6,
    "city": "東村山郡山辺町",
    "city_kana": "ヒガシムラヤマグンヤマノベマチ",
    "town": "緑ケ丘",
    "town_kana": "ミドリガオカ",
    "street": "５番地",
    "office_name": "山辺町役場",
    "office_name_kana": "ヤマノベマチヤクバ"
  },
  "0400": {
    "postcode": "9900400",
    "prefecture": "山形県",
    "prefecture_kana": "ヤマガタケン",
    "prefecture_code": 6,
    "city": "東村山郡中山町",
    "city_kana": "ヒガシムラヤマグンナカヤママチ",
    "town": "",
    "town_kana": "",
    "street": null,
    "office_name": null,
    "office_name_kana": null
  },
  "0401": {
    "postcode": "9900401",
    "prefecture": "山形県",
    "prefecture_kana": "ヤマガタケン",
    "prefecture_code": 6,
    "city": "東村山郡中山町",
    "city_kana": "ヒガシムラヤマグンナカヤママチ",
    "town": "長崎",
    "town_kana": "ナガサキ",
    "street": null,
    "office_name": null,
    "office_name_kana": null
  },
  "0402": {
    "postcode": "9900402",
    "prefecture": "山形県",
    "prefecture_kana": "ヤマガタケン",
    "prefecture_code": 6,
    "city": "東村山郡中山町",
    "city_kana": "ヒガシムラヤマグンナカヤママチ",
    "town": "いずみ",
    "town_kana": "イズミ",
    "street": null,
    "office_name": null,
    "office_name_kana": null
  },
  "0403": {
    "postcode": "9900403",
    "prefecture": "山形県",
    "prefecture_kana": "ヤマガタケン",
    "prefecture_code": 6,
    "city": "東村山郡中山町",
    "city_kana": "ヒガシムラヤマグンナカヤママチ",
    "town": "達磨寺",
    "town_kana": "ダルマジ",
    "street": null,
    "office_name": null,
    "office_name_kana": null
  },
  "0404": {
    "postcode": "9900404",
    "prefecture": "山形県",
    "prefecture_kana": "ヤマガタケン",
    "prefecture_code": 6,
    "city": "東村山郡中山町",
    "city_kana": "ヒガシムラヤマグンナカヤママチ",
    "town": "向新田",
    "town_kana": "ムコウシンデン",
    "street": null,
    "office_name": null,
    "office_name_kana": null
  },
  "0405": {
    "postcode": "9900405",
    "prefecture": "山形県",
    "prefecture_kana": "ヤマガタケン",
    "prefecture_code": 6,
    "city": "東村山郡中山町",
    "city_kana": "ヒガシムラヤマグンナカヤママチ",
    "town": "金沢",
    "town_kana": "カネザワ",
    "street": null,
    "office_name": null,
    "office_name_kana": null
  },
  "0406": {
    "postcode": "9900406",
    "prefecture": "山形県",
    "prefecture_kana": "ヤマガタケン",
    "prefecture_code": 6,
    "city": "東村山郡中山町",
    "city_kana": "ヒガシムラヤマグンナカヤママチ",
    "town": "柳沢",
    "town_kana": "ヤナギサワ",
    "street": null,
    "office_name": null,
    "office_name_kana": null
  },
  "0407": {
    "postcode": "9900407",
    "prefecture": "山形県",
    "prefecture_kana": "ヤマガタケン",
    "prefecture_code": 6,
    "city": "東村山郡中山町",
    "city_kana": "ヒガシムラヤマグンナカヤママチ",
    "town": "土橋",
    "town_kana": "ツチハシ",
    "street": null,
    "office_name": null,
    "office_name_kana": null
  },
  "0408": {
    "postcode": "9900408",
    "prefecture": "山形県",
    "prefecture_kana": "ヤマガタケン",
    "prefecture_code": 6,
    "city": "東村山郡中山町",
    "city_kana": "ヒガシムラヤマグンナカヤママチ",
    "town": "岡",
    "town_kana": "オカ",
    "street": null,
    "office_name": null,
    "office_name_kana": null
  },
  "0409": {
    "postcode": "9900409",
    "prefecture": "山形県",
    "prefecture_kana": "ヤマガタケン",
    "prefecture_code": 6,
    "city": "東村山郡中山町",
    "city_kana": "ヒガシムラヤマグンナカヤママチ",
    "town": "小塩",
    "town_kana": "コシオ",
    "street": null,
    "office_name": null,
    "office_name_kana": null
  },
  "0411": {
    "postcode": "9900411",
    "prefecture": "山形県",
    "prefecture_kana": "ヤマガタケン",
    "prefecture_code": 6,
    "city": "東村山郡中山町",
    "city_kana": "ヒガシムラヤマグンナカヤママチ",
    "town": "あおば",
    "town_kana": "アオバ",
    "street": null,
    "office_name": null,
    "office_name_kana": null
  },
  "0492": {
    "postcode": "9900492",
    "prefecture": "山形県",
    "prefecture_kana": "ヤマガタケン",
    "prefecture_code": 6,
    "city": "東村山郡中山町",
    "city_kana": "ヒガシムラヤマグンナカヤママチ",
    "town": "大字長崎",
    "town_kana": null,
    "street": "１２０",
    "office_name": "中山町役場",
    "office_name_kana": "ナカヤママチヤクバ"
  },
  "0493": {
    "postcode": "9900493",
    "prefecture": "山形県",
    "prefecture_kana": "ヤマガタケン",
    "prefecture_code": 6,
    "city": "東村山郡中山町",
    "city_kana": "ヒガシムラヤマグンナカヤママチ",
    "town": "大字長崎",
    "town_kana": null,
    "street": "２２９−２",
    "office_name": "三和缶詰　株式会社",
    "office_name_kana": "サンワカンヅメ カブシキガイシヤ"
  },
  "0501": {
    "postcode": "9900501",
    "prefecture": "山形県",
    "prefecture_kana": "ヤマガタケン",
    "prefecture_code": 6,
    "city": "寒河江市",
    "city_kana": "サガエシ",
    "town": "宮内",
    "town_kana": "ミヤウチ",
    "street": null,
    "office_name": null,
    "office_name_kana": null
  },
  "0502": {
    "postcode": "9900502",
    "prefecture": "山形県",
    "prefecture_kana": "ヤマガタケン",
    "prefecture_code": 6,
    "city": "寒河江市",
    "city_kana": "サガエシ",
    "town": "幸生",
    "town_kana": "サチウ",
    "street": null,
    "office_name": null,
    "office_name_kana": null
  },
  "0503": {
    "postcode": "9900503",
    "prefecture": "山形県",
    "prefecture_kana": "ヤマガタケン",
    "prefecture_code": 6,
    "city": "寒河江市",
    "city_kana": "サガエシ",
    "town": "田代",
    "town_kana": "タシロ",
    "street": null,
    "office_name": null,
    "office_name_kana": null
  },
  "0504": {
    "postcode": "9900504",
    "prefecture": "山形県",
    "prefecture_kana": "ヤマガタケン",
    "prefecture_code": 6,
    "city": "寒河江市",
    "city_kana": "サガエシ",
    "town": "留場",
    "town_kana": "トメバ",
    "street": null,
    "office_name": null,
    "office_name_kana": null
  },
  "0505": {
    "postcode": "9900505",
    "prefecture": "山形県",
    "prefecture_kana": "ヤマガタケン",
    "prefecture_code": 6,
    "city": "寒河江市",
    "city_kana": "サガエシ",
    "town": "白岩",
    "town_kana": "シライワ",
    "street": null,
    "office_name": null,
    "office_name_kana": null
  },
  "0511": {
    "postcode": "9900511",
    "prefecture": "山形県",
    "prefecture_kana": "ヤマガタケン",
    "prefecture_code": 6,
    "city": "寒河江市",
    "city_kana": "サガエシ",
    "town": "慈恩寺",
    "town_kana": "ジオンジ",
    "street": null,
    "office_name": null,
    "office_name_kana": null
  },
  "0512": {
    "postcode": "9900512",
    "prefecture": "山形県",
    "prefecture_kana": "ヤマガタケン",
    "prefecture_code": 6,
    "city": "寒河江市",
    "city_kana": "サガエシ",
    "town": "箕輪",
    "town_kana": "ミノワ",
    "street": null,
    "office_name": null,
    "office_name_kana": null
  },
  "0513": {
    "postcode": "9900513",
    "prefecture": "山形県",
    "prefecture_kana": "ヤマガタケン",
    "prefecture_code": 6,
    "city": "寒河江市",
    "city_kana": "サガエシ",
    "town": "日和田",
    "town_kana": "ヒワダ",
    "street": null,
    "office_name": null,
    "office_name_kana": null
  },
  "0521": {
    "postcode": "9900521",
    "prefecture": "山形県",
    "prefecture_kana": "ヤマガタケン",
    "prefecture_code": 6,
    "city": "寒河江市",
    "city_kana": "サガエシ",
    "town": "谷沢",
    "town_kana": "ヤサワ",
    "street": null,
    "office_name": null,
    "office_name_kana": null
  },
  "0522": {
    "postcode": "9900522",
    "prefecture": "山形県",
    "prefecture_kana": "ヤマガタケン",
    "prefecture_code": 6,
    "city": "寒河江市",
    "city_kana": "サガエシ",
    "town": "清助新田",
    "town_kana": "セイスケシンデン",
    "street": null,
    "office_name": null,
    "office_name_kana": null
  },
  "0523": {
    "postcode": "9900523",
    "prefecture": "山形県",
    "prefecture_kana": "ヤマガタケン",
    "prefecture_code": 6,
    "city": "寒河江市",
    "city_kana": "サガエシ",
    "town": "八鍬",
    "town_kana": "ヤクワ",
    "street": null,
    "office_name": null,
    "office_name_kana": null
  },
  "0524": {
    "postcode": "9900524",
    "prefecture": "山形県",
    "prefecture_kana": "ヤマガタケン",
    "prefecture_code": 6,
    "city": "寒河江市",
    "city_kana": "サガエシ",
    "town": "高松",
    "town_kana": "タカマツ",
    "street": null,
    "office_name": null,
    "office_name_kana": null
  },
  "0525": {
    "postcode": "9900525",
    "prefecture": "山形県",
    "prefecture_kana": "ヤマガタケン",
    "prefecture_code": 6,
    "city": "寒河江市",
    "city_kana": "サガエシ",
    "town": "米沢",
    "town_kana": "ヨナザ",
    "street": null,
    "office_name": null,
    "office_name_kana": null
  },
  "0561": {
    "postcode": "9900561",
    "prefecture": "山形県",
    "prefecture_kana": "ヤマガタケン",
    "prefecture_code": 6,
    "city": "寒河江市",
    "city_kana": "サガエシ",
    "town": "中央工業団地",
    "town_kana": "チュウオウコウギョウダンチ",
    "street": null,
    "office_name": null,
    "office_name_kana": null
  },
  "0700": {
    "postcode": "9900700",
    "prefecture": "山形県",
    "prefecture_kana": "ヤマガタケン",
    "prefecture_code": 6,
    "city": "西村山郡西川町",
    "city_kana": "ニシムラヤマグンニシカワマチ",
    "town": "",
    "town_kana": "",
    "street": null,
    "office_name": null,
    "office_name_kana": null
  },
  "0701": {
    "postcode": "9900701",
    "prefecture": "山形県",
    "prefecture_kana": "ヤマガタケン",
    "prefecture_code": 6,
    "city": "西村山郡西川町",
    "city_kana": "ニシムラヤマグンニシカワマチ",
    "town": "睦合",
    "town_kana": "ムツアイ",
    "street": null,
    "office_name": null,
    "office_name_kana": null
  },
  "0702": {
    "postcode": "9900702",
    "prefecture": "山形県",
    "prefecture_kana": "ヤマガタケン",
    "prefecture_code": 6,
    "city": "西村山郡西川町",
    "city_kana": "ニシムラヤマグンニシカワマチ",
    "town": "海味",
    "town_kana": "カイシュウ",
    "street": null,
    "office_name": null,
    "office_name_kana": null
  },
  "0703": {
    "postcode": "9900703",
    "prefecture": "山形県",
    "prefecture_kana": "ヤマガタケン",
    "prefecture_code": 6,
    "city": "西村山郡西川町",
    "city_kana": "ニシムラヤマグンニシカワマチ",
    "town": "間沢",
    "town_kana": "マザワ",
    "street": null,
    "office_name": null,
    "office_name_kana": null
  },
  "0711": {
    "postcode": "9900711",
    "prefecture": "山形県",
    "prefecture_kana": "ヤマガタケン",
    "prefecture_code": 6,
    "city": "西村山郡西川町",
    "city_kana": "ニシムラヤマグンニシカワマチ",
    "town": "吉川",
    "town_kana": "ヨシカワ",
    "street": null,
    "office_name": null,
    "office_name_kana": null
  },
  "0712": {
    "postcode": "9900712",
    "prefecture": "山形県",
    "prefecture_kana": "ヤマガタケン",
    "prefecture_code": 6,
    "city": "西村山郡西川町",
    "city_kana": "ニシムラヤマグンニシカワマチ",
    "town": "原",
    "town_kana": "ハラ",
    "street": null,
    "office_name": null,
    "office_name_kana": null
  },
  "0713": {
    "postcode": "9900713",
    "prefecture": "山形県",
    "prefecture_kana": "ヤマガタケン",
    "prefecture_code": 6,
    "city": "西村山郡西川町",
    "city_kana": "ニシムラヤマグンニシカワマチ",
    "town": "沼山",
    "town_kana": "ヌマヤマ",
    "street": null,
    "office_name": null,
    "office_name_kana": null
  },
  "0714": {
    "postcode": "9900714",
    "prefecture": "山形県",
    "prefecture_kana": "ヤマガタケン",
    "prefecture_code": 6,
    "city": "西村山郡西川町",
    "city_kana": "ニシムラヤマグンニシカワマチ",
    "town": "入間",
    "town_kana": "イリマ",
    "street": null,
    "office_name": null,
    "office_name_kana": null
  },
  "0721": {
    "postcode": "9900721",
    "prefecture": "山形県",
    "prefecture_kana": "ヤマガタケン",
    "prefecture_code": 6,
    "city": "西村山郡西川町",
    "city_kana": "ニシムラヤマグンニシカワマチ",
    "town": "大井沢",
    "town_kana": "オオイサワ",
    "street": null,
    "office_name": null,
    "office_name_kana": null
  },
  "0731": {
    "postcode": "9900731",
    "prefecture": "山形県",
    "prefecture_kana": "ヤマガタケン",
    "prefecture_code": 6,
    "city": "西村山郡西川町",
    "city_kana": "ニシムラヤマグンニシカワマチ",
    "town": "月岡",
    "town_kana": "ツキオカ",
    "street": null,
    "office_name": null,
    "office_name_kana": null
  },
  "0732": {
    "postcode": "9900732",
    "prefecture": "山形県",
    "prefecture_kana": "ヤマガタケン",
    "prefecture_code": 6,
    "city": "西村山郡西川町",
    "city_kana": "ニシムラヤマグンニシカワマチ",
    "town": "砂子関",
    "town_kana": "スナゴセキ",
    "street": null,
    "office_name": null,
    "office_name_kana": null
  },
  "0733": {
    "postcode": "9900733",
    "prefecture": "山形県",
    "prefecture_kana": "ヤマガタケン",
    "prefecture_code": 6,
    "city": "西村山郡西川町",
    "city_kana": "ニシムラヤマグンニシカワマチ",
    "town": "月山沢",
    "town_kana": "ツキヤマザワ",
    "street": null,
    "office_name": null,
    "office_name_kana": null
  },
  "0734": {
    "postcode": "9900734",
    "prefecture": "山形県",
    "prefecture_kana": "ヤマガタケン",
    "prefecture_code": 6,
    "city": "西村山郡西川町",
    "city_kana": "ニシムラヤマグンニシカワマチ",
    "town": "志津",
    "town_kana": "シヅ",
    "street": null,
    "office_name": null,
    "office_name_kana": null
  },
  "0735": {
    "postcode": "9900735",
    "prefecture": "山形県",
    "prefecture_kana": "ヤマガタケン",
    "prefecture_code": 6,
    "city": "西村山郡西川町",
    "city_kana": "ニシムラヤマグンニシカワマチ",
    "town": "本道寺",
    "town_kana": "ホンドウジ",
    "street": null,
    "office_name": null,
    "office_name_kana": null
  },
  "0741": {
    "postcode": "9900741",
    "prefecture": "山形県",
    "prefecture_kana": "ヤマガタケン",
    "prefecture_code": 6,
    "city": "西村山郡西川町",
    "city_kana": "ニシムラヤマグンニシカワマチ",
    "town": "綱取",
    "town_kana": "ツナトリ",
    "street": null,
    "office_name": null,
    "office_name_kana": null
  },
  "0742": {
    "postcode": "9900742",
    "prefecture": "山形県",
    "prefecture_kana": "ヤマガタケン",
    "prefecture_code": 6,
    "city": "西村山郡西川町",
    "city_kana": "ニシムラヤマグンニシカワマチ",
    "town": "水沢",
    "town_kana": "ミズサワ",
    "street": null,
    "office_name": null,
    "office_name_kana": null
  },
  "0743": {
    "postcode": "9900743",
    "prefecture": "山形県",
    "prefecture_kana": "ヤマガタケン",
    "prefecture_code": 6,
    "city": "西村山郡西川町",
    "city_kana": "ニシムラヤマグンニシカワマチ",
    "town": "岩根沢",
    "town_kana": "イワネザワ",
    "street": null,
    "office_name": null,
    "office_name_kana": null
  },
  "0792": {
    "postcode": "9900792",
    "prefecture": "山形県",
    "prefecture_kana": "ヤマガタケン",
    "prefecture_code": 6,
    "city": "西村山郡西川町",
    "city_kana": "ニシムラヤマグンニシカワマチ",
    "town": "大字海味",
    "town_kana": null,
    "street": "５１０（西川郵便局私書箱第２号）",
    "office_name": "西川町役場",
    "office_name_kana": "ニシカワマチヤクバ"
  },
  "0801": {
    "postcode": "9900801",
    "prefecture": "山形県",
    "prefecture_kana": "ヤマガタケン",
    "prefecture_code": 6,
    "city": "山形市",
    "city_kana": "ヤマガタシ",
    "town": "天神町",
    "town_kana": "テンジンチョウ",
    "street": null,
    "office_name": null,
    "office_name_kana": null
  },
  "0802": {
    "postcode": "9900802",
    "prefecture": "山形県",
    "prefecture_kana": "ヤマガタケン",
    "prefecture_code": 6,
    "city": "山形市",
    "city_kana": "ヤマガタシ",
    "town": "見崎川原",
    "town_kana": "ミサキカワラ",
    "street": null,
    "office_name": null,
    "office_name_kana": null
  },
  "0803": {
    "postcode": "9900803",
    "prefecture": "山形県",
    "prefecture_kana": "ヤマガタケン",
    "prefecture_code": 6,
    "city": "山形市",
    "city_kana": "ヤマガタシ",
    "town": "見崎",
    "town_kana": "ミサキ",
    "street": null,
    "office_name": null,
    "office_name_kana": null
  },
  "0804": {
    "postcode": "9900804",
    "prefecture": "山形県",
    "prefecture_kana": "ヤマガタケン",
    "prefecture_code": 6,
    "city": "山形市",
    "city_kana": "ヤマガタシ",
    "town": "七十刈",
    "town_kana": "ナナジュウガリ",
    "street": null,
    "office_name": null,
    "office_name_kana": null
  },
  "0805": {
    "postcode": "9900805",
    "prefecture": "山形県",
    "prefecture_kana": "ヤマガタケン",
    "prefecture_code": 6,
    "city": "山形市",
    "city_kana": "ヤマガタシ",
    "town": "檀野前",
    "town_kana": "ダンノマエ",
    "street": null,
    "office_name": null,
    "office_name_kana": null
  },
  "0806": {
    "postcode": "9900806",
    "prefecture": "山形県",
    "prefecture_kana": "ヤマガタケン",
    "prefecture_code": 6,
    "city": "山形市",
    "city_kana": "ヤマガタシ",
    "town": "藤治屋敷",
    "town_kana": "トウジヤシキ",
    "street": null,
    "office_name": null,
    "office_name_kana": null
  },
  "0807": {
    "postcode": "9900807",
    "prefecture": "山形県",
    "prefecture_kana": "ヤマガタケン",
    "prefecture_code": 6,
    "city": "山形市",
    "city_kana": "ヤマガタシ",
    "town": "白川",
    "town_kana": "シラカワ",
    "street": null,
    "office_name": null,
    "office_name_kana": null
  },
  "0808": {
    "postcode": "9900808",
    "prefecture": "山形県",
    "prefecture_kana": "ヤマガタケン",
    "prefecture_code": 6,
    "city": "山形市",
    "city_kana": "ヤマガタシ",
    "town": "高田",
    "town_kana": "タカダ",
    "street": null,
    "office_name": null,
    "office_name_kana": null
  },
  "0809": {
    "postcode": "9900809",
    "prefecture": "山形県",
    "prefecture_kana": "ヤマガタケン",
    "prefecture_code": 6,
    "city": "山形市",
    "city_kana": "ヤマガタシ",
    "town": "下田",
    "town_kana": "シモダ",
    "street": null,
    "office_name": null,
    "office_name_kana": null
  },
  "0810": {
    "postcode": "9900810",
    "prefecture": "山形県",
    "prefecture_kana": "ヤマガタケン",
    "prefecture_code": 6,
    "city": "山形市",
    "city_kana": "ヤマガタシ",
    "town": "馬見ケ崎",
    "town_kana": "マミガサキ",
    "street": null,
    "office_name": null,
    "office_name_kana": null
  },
  "0811": {
    "postcode": "9900811",
    "prefecture": "山形県",
    "prefecture_kana": "ヤマガタケン",
    "prefecture_code": 6,
    "city": "山形市",
    "city_kana": "ヤマガタシ",
    "town": "長町",
    "town_kana": "ナガマチ",
    "street": null,
    "office_name": null,
    "office_name_kana": null
  },
  "0812": {
    "postcode": "9900812",
    "prefecture": "山形県",
    "prefecture_kana": "ヤマガタケン",
    "prefecture_code": 6,
    "city": "山形市",
    "city_kana": "ヤマガタシ",
    "town": "千歳",
    "town_kana": "チトセ",
    "street": null,
    "office_name": null,
    "office_name_kana": null
  },
  "0813": {
    "postcode": "9900813",
    "prefecture": "山形県",
    "prefecture_kana": "ヤマガタケン",
    "prefecture_code": 6,
    "city": "山形市",
    "city_kana": "ヤマガタシ",
    "town": "桧町",
    "town_kana": "ヒノキチョウ",
    "street": null,
    "office_name": null,
    "office_name_kana": null
  },
  "0814": {
    "postcode": "9900814",
    "prefecture": "山形県",
    "prefecture_kana": "ヤマガタケン",
    "prefecture_code": 6,
    "city": "山形市",
    "city_kana": "ヤマガタシ",
    "town": "土樋",
    "town_kana": "ツチドイ",
    "street": null,
    "office_name": null,
    "office_name_kana": null
  },
  "0815": {
    "postcode": "9900815",
    "prefecture": "山形県",
    "prefecture_kana": "ヤマガタケン",
    "prefecture_code": 6,
    "city": "山形市",
    "city_kana": "ヤマガタシ",
    "town": "樋越",
    "town_kana": "トヨゴシ",
    "street": null,
    "office_name": null,
    "office_name_kana": null
  },
  "0817": {
    "postcode": "9900817",
    "prefecture": "山形県",
    "prefecture_kana": "ヤマガタケン",
    "prefecture_code": 6,
    "city": "山形市",
    "city_kana": "ヤマガタシ",
    "town": "今塚",
    "town_kana": "イマヅカ",
    "street": null,
    "office_name": null,
    "office_name_kana": null
  },
  "0818": {
    "postcode": "9900818",
    "prefecture": "山形県",
    "prefecture_kana": "ヤマガタケン",
    "prefecture_code": 6,
    "city": "山形市",
    "city_kana": "ヤマガタシ",
    "town": "沖町",
    "town_kana": "オキマチ",
    "street": null,
    "office_name": null,
    "office_name_kana": null
  },
  "0819": {
    "postcode": "9900819",
    "prefecture": "山形県",
    "prefecture_kana": "ヤマガタケン",
    "prefecture_code": 6,
    "city": "山形市",
    "city_kana": "ヤマガタシ",
    "town": "境田町",
    "town_kana": "サカイダマチ",
    "street": null,
    "office_name": null,
    "office_name_kana": null
  },
  "0821": {
    "postcode": "9900821",
    "prefecture": "山形県",
    "prefecture_kana": "ヤマガタケン",
    "prefecture_code": 6,
    "city": "山形市",
    "city_kana": "ヤマガタシ",
    "town": "北町",
    "town_kana": "キタマチ",
    "street": null,
    "office_name": null,
    "office_name_kana": null
  },
  "0822": {
    "postcode": "9900822",
    "prefecture": "山形県",
    "prefecture_kana": "ヤマガタケン",
    "prefecture_code": 6,
    "city": "山形市",
    "city_kana": "ヤマガタシ",
    "town": "北山形",
    "town_kana": "キタヤマガタ",
    "street": null,
    "office_name": null,
    "office_name_kana": null
  },
  "0823": {
    "postcode": "9900823",
    "prefecture": "山形県",
    "prefecture_kana": "ヤマガタケン",
    "prefecture_code": 6,
    "city": "山形市",
    "city_kana": "ヤマガタシ",
    "town": "下条町",
    "town_kana": "シモジョウマチ",
    "street": null,
    "office_name": null,
    "office_name_kana": null
  },
  "0824": {
    "postcode": "9900824",
    "prefecture": "山形県",
    "prefecture_kana": "ヤマガタケン",
    "prefecture_code": 6,
    "city": "山形市",
    "city_kana": "ヤマガタシ",
    "town": "肴町",
    "town_kana": "サカナマチ",
    "street": null,
    "office_name": null,
    "office_name_kana": null
  },
  "0825": {
    "postcode": "9900825",
    "prefecture": "山形県",
    "prefecture_kana": "ヤマガタケン",
    "prefecture_code": 6,
    "city": "山形市",
    "city_kana": "ヤマガタシ",
    "town": "城北町",
    "town_kana": "ジョウホクマチ",
    "street": null,
    "office_name": null,
    "office_name_kana": null
  },
  "0826": {
    "postcode": "9900826",
    "prefecture": "山形県",
    "prefecture_kana": "ヤマガタケン",
    "prefecture_code": 6,
    "city": "山形市",
    "city_kana": "ヤマガタシ",
    "town": "霞城町",
    "town_kana": "カジョウマチ",
    "street": null,
    "office_name": null,
    "office_name_kana": null
  },
  "0827": {
    "postcode": "9900827",
    "prefecture": "山形県",
    "prefecture_kana": "ヤマガタケン",
    "prefecture_code": 6,
    "city": "山形市",
    "city_kana": "ヤマガタシ",
    "town": "城南町",
    "town_kana": "ジョウナンマチ",
    "street": null,
    "office_name": null,
    "office_name_kana": null
  },
  "0828": {
    "postcode": "9900828",
    "prefecture": "山形県",
    "prefecture_kana": "ヤマガタケン",
    "prefecture_code": 6,
    "city": "山形市",
    "city_kana": "ヤマガタシ",
    "town": "双葉町",
    "town_kana": "フタバチョウ",
    "street": null,
    "office_name": null,
    "office_name_kana": null
  },
  "0829": {
    "postcode": "9900829",
    "prefecture": "山形県",
    "prefecture_kana": "ヤマガタケン",
    "prefecture_code": 6,
    "city": "山形市",
    "city_kana": "ヤマガタシ",
    "town": "五日町",
    "town_kana": "イツカマチ",
    "street": null,
    "office_name": null,
    "office_name_kana": null
  },
  "0831": {
    "postcode": "9900831",
    "prefecture": "山形県",
    "prefecture_kana": "ヤマガタケン",
    "prefecture_code": 6,
    "city": "山形市",
    "city_kana": "ヤマガタシ",
    "town": "西田",
    "town_kana": "ニシタ",
    "street": null,
    "office_name": null,
    "office_name_kana": null
  },
  "0832": {
    "postcode": "9900832",
    "prefecture": "山形県",
    "prefecture_kana": "ヤマガタケン",
    "prefecture_code": 6,
    "city": "山形市",
    "city_kana": "ヤマガタシ",
    "town": "城西町",
    "town_kana": "シロニシマチ",
    "street": null,
    "office_name": null,
    "office_name_kana": null
  },
  "0833": {
    "postcode": "9900833",
    "prefecture": "山形県",
    "prefecture_kana": "ヤマガタケン",
    "prefecture_code": 6,
    "city": "山形市",
    "city_kana": "ヤマガタシ",
    "town": "春日町",
    "town_kana": "カスガチョウ",
    "street": null,
    "office_name": null,
    "office_name_kana": null
  },
  "0834": {
    "postcode": "9900834",
    "prefecture": "山形県",
    "prefecture_kana": "ヤマガタケン",
    "prefecture_code": 6,
    "city": "山形市",
    "city_kana": "ヤマガタシ",
    "town": "清住町",
    "town_kana": "キヨズミマチ",
    "street": null,
    "office_name": null,
    "office_name_kana": null
  },
  "0835": {
    "postcode": "9900835",
    "prefecture": "山形県",
    "prefecture_kana": "ヤマガタケン",
    "prefecture_code": 6,
    "city": "山形市",
    "city_kana": "ヤマガタシ",
    "town": "やよい",
    "town_kana": "ヤヨイ",
    "street": null,
    "office_name": null,
    "office_name_kana": null
  },
  "0836": {
    "postcode": "9900836",
    "prefecture": "山形県",
    "prefecture_kana": "ヤマガタケン",
    "prefecture_code": 6,
    "city": "山形市",
    "city_kana": "ヤマガタシ",
    "town": "南石関",
    "town_kana": "ミナミイシゼキ",
    "street": null,
    "office_name": null,
    "office_name_kana": null
  },
  "0841": {
    "postcode": "9900841",
    "prefecture": "山形県",
    "prefecture_kana": "ヤマガタケン",
    "prefecture_code": 6,
    "city": "山形市",
    "city_kana": "ヤマガタシ",
    "town": "飯塚口",
    "town_kana": "イイヅカグチ",
    "street": null,
    "office_name": null,
    "office_name_kana": null
  },
  "0842": {
    "postcode": "9900842",
    "prefecture": "山形県",
    "prefecture_kana": "ヤマガタケン",
    "prefecture_code": 6,
    "city": "山形市",
    "city_kana": "ヤマガタシ",
    "town": "石関",
    "town_kana": "イシゼキ",
    "street": null,
    "office_name": null,
    "office_name_kana": null
  },
  "0843": {
    "postcode": "9900843",
    "prefecture": "山形県",
    "prefecture_kana": "ヤマガタケン",
    "prefecture_code": 6,
    "city": "山形市",
    "city_kana": "ヤマガタシ",
    "town": "横道",
    "town_kana": "ヨコミチ",
    "street": null,
    "office_name": null,
    "office_name_kana": null
  },
  "0844": {
    "postcode": "9900844",
    "prefecture": "山形県",
    "prefecture_kana": "ヤマガタケン",
    "prefecture_code": 6,
    "city": "山形市",
    "city_kana": "ヤマガタシ",
    "town": "西見田",
    "town_kana": "ニシミダ",
    "street": null,
    "office_name": null,
    "office_name_kana": null
  },
  "0845": {
    "postcode": "9900845",
    "prefecture": "山形県",
    "prefecture_kana": "ヤマガタケン",
    "prefecture_code": 6,
    "city": "山形市",
    "city_kana": "ヤマガタシ",
    "town": "飯塚町",
    "town_kana": "イイヅカマチ",
    "street": null,
    "office_name": null,
    "office_name_kana": null
  },
  "0846": {
    "postcode": "9900846",
    "prefecture": "山形県",
    "prefecture_kana": "ヤマガタケン",
    "prefecture_code": 6,
    "city": "山形市",
    "city_kana": "ヤマガタシ",
    "town": "志鎌",
    "town_kana": "シカマ",
    "street": null,
    "office_name": null,
    "office_name_kana": null
  },
  "0847": {
    "postcode": "9900847",
    "prefecture": "山形県",
    "prefecture_kana": "ヤマガタケン",
    "prefecture_code": 6,
    "city": "山形市",
    "city_kana": "ヤマガタシ",
    "town": "砂田",
    "town_kana": "スナダ",
    "street": null,
    "office_name": null,
    "office_name_kana": null
  },
  "0848": {
    "postcode": "9900848",
    "prefecture": "山形県",
    "prefecture_kana": "ヤマガタケン",
    "prefecture_code": 6,
    "city": "山形市",
    "city_kana": "ヤマガタシ",
    "town": "宮浦",
    "town_kana": "ミヤウラ",
    "street": null,
    "office_name": null,
    "office_name_kana": null
  },
  "0849": {
    "postcode": "9900849",
    "prefecture": "山形県",
    "prefecture_kana": "ヤマガタケン",
    "prefecture_code": 6,
    "city": "山形市",
    "city_kana": "ヤマガタシ",
    "town": "中沼",
    "town_kana": "ナカヌマ",
    "street": null,
    "office_name": null,
    "office_name_kana": null
  },
  "0850": {
    "postcode": "9900850",
    "prefecture": "山形県",
    "prefecture_kana": "ヤマガタケン",
    "prefecture_code": 6,
    "city": "山形市",
    "city_kana": "ヤマガタシ",
    "town": "くぬぎざわ西",
    "town_kana": "クヌギザワニシ",
    "street": null,
    "office_name": null,
    "office_name_kana": null
  },
  "0851": {
    "postcode": "9900851",
    "prefecture": "山形県",
    "prefecture_kana": "ヤマガタケン",
    "prefecture_code": 6,
    "city": "山形市",
    "city_kana": "ヤマガタシ",
    "town": "上椹沢",
    "town_kana": "カミクヌギザワ",
    "street": null,
    "office_name": null,
    "office_name_kana": null
  },
  "0852": {
    "postcode": "9900852",
    "prefecture": "山形県",
    "prefecture_kana": "ヤマガタケン",
    "prefecture_code": 6,
    "city": "山形市",
    "city_kana": "ヤマガタシ",
    "town": "黄金",
    "town_kana": "コガネ",
    "street": null,
    "office_name": null,
    "office_name_kana": null
  },
  "0853": {
    "postcode": "9900853",
    "prefecture": "山形県",
    "prefecture_kana": "ヤマガタケン",
    "prefecture_code": 6,
    "city": "山形市",
    "city_kana": "ヤマガタシ",
    "town": "西崎",
    "town_kana": "ニシザキ",
    "street": null,
    "office_name": null,
    "office_name_kana": null
  },
  "0854": {
    "postcode": "9900854",
    "prefecture": "山形県",
    "prefecture_kana": "ヤマガタケン",
    "prefecture_code": 6,
    "city": "山形市",
    "city_kana": "ヤマガタシ",
    "town": "砂塚",
    "town_kana": "スナヅカ",
    "street": null,
    "office_name": null,
    "office_name_kana": null
  },
  "0855": {
    "postcode": "9900855",
    "prefecture": "山形県",
    "prefecture_kana": "ヤマガタケン",
    "prefecture_code": 6,
    "city": "山形市",
    "city_kana": "ヤマガタシ",
    "town": "千代田",
    "town_kana": "チヨダ",
    "street": null,
    "office_name": null,
    "office_name_kana": null
  },
  "0856": {
    "postcode": "9900856",
    "prefecture": "山形県",
    "prefecture_kana": "ヤマガタケン",
    "prefecture_code": 6,
    "city": "山形市",
    "city_kana": "ヤマガタシ",
    "town": "金石田",
    "town_kana": "カナイシダ",
    "street": null,
    "office_name": null,
    "office_name_kana": null
  },
  "0857": {
    "postcode": "9900857",
    "prefecture": "山形県",
    "prefecture_kana": "ヤマガタケン",
    "prefecture_code": 6,
    "city": "山形市",
    "city_kana": "ヤマガタシ",
    "town": "平田",
    "town_kana": "ヘイダ",
    "street": null,
    "office_name": null,
    "office_name_kana": null
  },
  "0858": {
    "postcode": "9900858",
    "prefecture": "山形県",
    "prefecture_kana": "ヤマガタケン",
    "prefecture_code": 6,
    "city": "山形市",
    "city_kana": "ヤマガタシ",
    "town": "下椹沢",
    "town_kana": "シモクヌギザワ",
    "street": null,
    "office_name": null,
    "office_name_kana": null
  },
  "0859": {
    "postcode": "9900859",
    "prefecture": "山形県",
    "prefecture_kana": "ヤマガタケン",
    "prefecture_code": 6,
    "city": "山形市",
    "city_kana": "ヤマガタシ",
    "town": "西原",
    "town_kana": "ニシハラ",
    "street": null,
    "office_name": null,
    "office_name_kana": null
  },
  "0860": {
    "postcode": "9900860",
    "prefecture": "山形県",
    "prefecture_kana": "ヤマガタケン",
    "prefecture_code": 6,
    "city": "山形市",
    "city_kana": "ヤマガタシ",
    "town": "陣場南",
    "town_kana": "ジンバミナミ",
    "street": null,
    "office_name": null,
    "office_name_kana": null
  },
  "0861": {
    "postcode": "9900861",
    "prefecture": "山形県",
    "prefecture_kana": "ヤマガタケン",
    "prefecture_code": 6,
    "city": "山形市",
    "city_kana": "ヤマガタシ",
    "town": "江俣",
    "town_kana": "エマタ",
    "street": null,
    "office_name": null,
    "office_name_kana": null
  },
  "0862": {
    "postcode": "9900862",
    "prefecture": "山形県",
    "prefecture_kana": "ヤマガタケン",
    "prefecture_code": 6,
    "city": "山形市",
    "city_kana": "ヤマガタシ",
    "town": "西江俣",
    "town_kana": "ニシエマタ",
    "street": null,
    "office_name": null,
    "office_name_kana": null
  },
  "0863": {
    "postcode": "9900863",
    "prefecture": "山形県",
    "prefecture_kana": "ヤマガタケン",
    "prefecture_code": 6,
    "city": "山形市",
    "city_kana": "ヤマガタシ",
    "town": "江南",
    "town_kana": "コウナン",
    "street": null,
    "office_name": null,
    "office_name_kana": null
  },
  "0864": {
    "postcode": "9900864",
    "prefecture": "山形県",
    "prefecture_kana": "ヤマガタケン",
    "prefecture_code": 6,
    "city": "山形市",
    "city_kana": "ヤマガタシ",
    "town": "陣場",
    "town_kana": "ジンバ",
    "street": null,
    "office_name": null,
    "office_name_kana": null
  },
  "0865": {
    "postcode": "9900865",
    "prefecture": "山形県",
    "prefecture_kana": "ヤマガタケン",
    "prefecture_code": 6,
    "city": "山形市",
    "city_kana": "ヤマガタシ",
    "town": "馬上台",
    "town_kana": "バジョウダイ",
    "street": null,
    "office_name": null,
    "office_name_kana": null
  },
  "0866": {
    "postcode": "9900866",
    "prefecture": "山形県",
    "prefecture_kana": "ヤマガタケン",
    "prefecture_code": 6,
    "city": "山形市",
    "city_kana": "ヤマガタシ",
    "town": "横井",
    "town_kana": "ヨコイ",
    "street": null,
    "office_name": null,
    "office_name_kana": null
  },
  "0867": {
    "postcode": "9900867",
    "prefecture": "山形県",
    "prefecture_kana": "ヤマガタケン",
    "prefecture_code": 6,
    "city": "山形市",
    "city_kana": "ヤマガタシ",
    "town": "天神台",
    "town_kana": "テンジンダイ",
    "street": null,
    "office_name": null,
    "office_name_kana": null
  },
  "0868": {
    "postcode": "9900868",
    "prefecture": "山形県",
    "prefecture_kana": "ヤマガタケン",
    "prefecture_code": 6,
    "city": "山形市",
    "city_kana": "ヤマガタシ",
    "town": "志戸田",
    "town_kana": "シトダ",
    "street": null,
    "office_name": null,
    "office_name_kana": null
  },
  "0869": {
    "postcode": "9900869",
    "prefecture": "山形県",
    "prefecture_kana": "ヤマガタケン",
    "prefecture_code": 6,
    "city": "山形市",
    "city_kana": "ヤマガタシ",
    "town": "東志戸田",
    "town_kana": "ヒガシシトダ",
    "street": null,
    "office_name": null,
    "office_name_kana": null
  },
  "0870": {
    "postcode": "9900870",
    "prefecture": "山形県",
    "prefecture_kana": "ヤマガタケン",
    "prefecture_code": 6,
    "city": "山形市",
    "city_kana": "ヤマガタシ",
    "town": "島",
    "town_kana": "シマ",
    "street": null,
    "office_name": null,
    "office_name_kana": null
  },
  "0871": {
    "postcode": "9900871",
    "prefecture": "山形県",
    "prefecture_kana": "ヤマガタケン",
    "prefecture_code": 6,
    "city": "山形市",
    "city_kana": "ヤマガタシ",
    "town": "銅谷口",
    "town_kana": "ドウヤグチ",
    "street": null,
    "office_name": null,
    "office_name_kana": null
  },
  "0872": {
    "postcode": "9900872",
    "prefecture": "山形県",
    "prefecture_kana": "ヤマガタケン",
    "prefecture_code": 6,
    "city": "山形市",
    "city_kana": "ヤマガタシ",
    "town": "八幡前",
    "town_kana": "ハチマンマエ",
    "street": null,
    "office_name": null,
    "office_name_kana": null
  },
  "0874": {
    "postcode": "9900874",
    "prefecture": "山形県",
    "prefecture_kana": "ヤマガタケン",
    "prefecture_code": 6,
    "city": "山形市",
    "city_kana": "ヤマガタシ",
    "town": "梅野木前",
    "town_kana": "ウメノキマエ",
    "street": null,
    "office_name": null,
    "office_name_kana": null
  },
  "0875": {
    "postcode": "9900875",
    "prefecture": "山形県",
    "prefecture_kana": "ヤマガタケン",
    "prefecture_code": 6,
    "city": "山形市",
    "city_kana": "ヤマガタシ",
    "town": "北江俣",
    "town_kana": "キタエマタ",
    "street": null,
    "office_name": null,
    "office_name_kana": null
  },
  "0876": {
    "postcode": "9900876",
    "prefecture": "山形県",
    "prefecture_kana": "ヤマガタケン",
    "prefecture_code": 6,
    "city": "山形市",
    "city_kana": "ヤマガタシ",
    "town": "行才",
    "town_kana": "ギョウサイ",
    "street": null,
    "office_name": null,
    "office_name_kana": null
  },
  "0877": {
    "postcode": "9900877",
    "prefecture": "山形県",
    "prefecture_kana": "ヤマガタケン",
    "prefecture_code": 6,
    "city": "山形市",
    "city_kana": "ヤマガタシ",
    "town": "内表",
    "town_kana": "ウチオモテ",
    "street": null,
    "office_name": null,
    "office_name_kana": null
  },
  "0878": {
    "postcode": "9900878",
    "prefecture": "山形県",
    "prefecture_kana": "ヤマガタケン",
    "prefecture_code": 6,
    "city": "山形市",
    "city_kana": "ヤマガタシ",
    "town": "内表東",
    "town_kana": "ウチオモテヒガシ",
    "street": null,
    "office_name": null,
    "office_name_kana": null
  },
  "0879": {
    "postcode": "9900879",
    "prefecture": "山形県",
    "prefecture_kana": "ヤマガタケン",
    "prefecture_code": 6,
    "city": "山形市",
    "city_kana": "ヤマガタシ",
    "town": "南志戸田",
    "town_kana": "ミナミシトダ",
    "street": null,
    "office_name": null,
    "office_name_kana": null
  },
  "0881": {
    "postcode": "9900881",
    "prefecture": "山形県",
    "prefecture_kana": "ヤマガタケン",
    "prefecture_code": 6,
    "city": "山形市",
    "city_kana": "ヤマガタシ",
    "town": "瀬波",
    "town_kana": "セナミ",
    "street": null,
    "office_name": null,
    "office_name_kana": null
  },
  "0882": {
    "postcode": "9900882",
    "prefecture": "山形県",
    "prefecture_kana": "ヤマガタケン",
    "prefecture_code": 6,
    "city": "山形市",
    "city_kana": "ヤマガタシ",
    "town": "陣場新田",
    "town_kana": "ジンバシンデン",
    "street": null,
    "office_name": null,
    "office_name_kana": null
  },
  "0883": {
    "postcode": "9900883",
    "prefecture": "山形県",
    "prefecture_kana": "ヤマガタケン",
    "prefecture_code": 6,
    "city": "山形市",
    "city_kana": "ヤマガタシ",
    "town": "吉野宿",
    "town_kana": "ヨシノジュク",
    "street": null,
    "office_name": null,
    "office_name_kana": null
  },
  "0884": {
    "postcode": "9900884",
    "prefecture": "山形県",
    "prefecture_kana": "ヤマガタケン",
    "prefecture_code": 6,
    "city": "山形市",
    "city_kana": "ヤマガタシ",
    "town": "鮨洗",
    "town_kana": "スシアライ",
    "street": null,
    "office_name": null,
    "office_name_kana": null
  },
  "0885": {
    "postcode": "9900885",
    "prefecture": "山形県",
    "prefecture_kana": "ヤマガタケン",
    "prefecture_code": 6,
    "city": "山形市",
    "city_kana": "ヤマガタシ",
    "town": "嶋北",
    "town_kana": "シマキタ",
    "street": null,
    "office_name": null,
    "office_name_kana": null
  },
  "0886": {
    "postcode": "9900886",
    "prefecture": "山形県",
    "prefecture_kana": "ヤマガタケン",
    "prefecture_code": 6,
    "city": "山形市",
    "city_kana": "ヤマガタシ",
    "town": "嶋南",
    "town_kana": "シマミナミ",
    "street": null,
    "office_name": null,
    "office_name_kana": null
  },
  "0891": {
    "postcode": "9900891",
    "prefecture": "山形県",
    "prefecture_kana": "ヤマガタケン",
    "prefecture_code": 6,
    "city": "山形市",
    "city_kana": "ヤマガタシ",
    "town": "成安",
    "town_kana": "ナリヤス",
    "street": null,
    "office_name": null,
    "office_name_kana": null
  },
  "0892": {
    "postcode": "9900892",
    "prefecture": "山形県",
    "prefecture_kana": "ヤマガタケン",
    "prefecture_code": 6,
    "city": "山形市",
    "city_kana": "ヤマガタシ",
    "town": "中野",
    "town_kana": "ナカノ",
    "street": null,
    "office_name": null,
    "office_name_kana": null
  },
  "0893": {
    "postcode": "9900893",
    "prefecture": "山形県",
    "prefecture_kana": "ヤマガタケン",
    "prefecture_code": 6,
    "city": "山形市",
    "city_kana": "ヤマガタシ",
    "town": "西中野",
    "town_kana": "ニシナカノ",
    "street": null,
    "office_name": null,
    "office_name_kana": null
  },
  "0894": {
    "postcode": "9900894",
    "prefecture": "山形県",
    "prefecture_kana": "ヤマガタケン",
    "prefecture_code": 6,
    "city": "山形市",
    "city_kana": "ヤマガタシ",
    "town": "船町",
    "town_kana": "フナマチ",
    "street": null,
    "office_name": null,
    "office_name_kana": null
  },
  "0895": {
    "postcode": "9900895",
    "prefecture": "山形県",
    "prefecture_kana": "ヤマガタケン",
    "prefecture_code": 6,
    "city": "山形市",
    "city_kana": "ヤマガタシ",
    "town": "向新田",
    "town_kana": "ムカイシンデン",
    "street": null,
    "office_name": null,
    "office_name_kana": null
  },
  "0896": {
    "postcode": "9900896",
    "prefecture": "山形県",
    "prefecture_kana": "ヤマガタケン",
    "prefecture_code": 6,
    "city": "山形市",
    "city_kana": "ヤマガタシ",
    "town": "北田",
    "town_kana": "キタダ",
    "street": null,
    "office_name": null,
    "office_name_kana": null
  },
  "0897": {
    "postcode": "9900897",
    "prefecture": "山形県",
    "prefecture_kana": "ヤマガタケン",
    "prefecture_code": 6,
    "city": "山形市",
    "city_kana": "ヤマガタシ",
    "town": "東田",
    "town_kana": "ヒガシダ",
    "street": null,
    "office_name": null,
    "office_name_kana": null
  },
  "0898": {
    "postcode": "9900898",
    "prefecture": "山形県",
    "prefecture_kana": "ヤマガタケン",
    "prefecture_code": 6,
    "city": "山形市",
    "city_kana": "ヤマガタシ",
    "town": "三社",
    "town_kana": "サンシャ",
    "street": null,
    "office_name": null,
    "office_name_kana": null
  },
  "0899": {
    "postcode": "9900899",
    "prefecture": "山形県",
    "prefecture_kana": "ヤマガタケン",
    "prefecture_code": 6,
    "city": "山形市",
    "city_kana": "ヤマガタシ",
    "town": "東篭野町",
    "town_kana": "ヒガシカゴノマチ",
    "street": null,
    "office_name": null,
    "office_name_kana": null
  },
  "1100": {
    "postcode": "9901100",
    "prefecture": "山形県",
    "prefecture_kana": "ヤマガタケン",
    "prefecture_code": 6,
    "city": "西村山郡大江町",
    "city_kana": "ニシムラヤマグンオオエマチ",
    "town": "",
    "town_kana": "",
    "street": null,
    "office_name": null,
    "office_name_kana": null
  },
  "1101": {
    "postcode": "9901101",
    "prefecture": "山形県",
    "prefecture_kana": "ヤマガタケン",
    "prefecture_code": 6,
    "city": "西村山郡大江町",
    "city_kana": "ニシムラヤマグンオオエマチ",
    "town": "左沢",
    "town_kana": "アテラザワ",
    "street": null,
    "office_name": null,
    "office_name_kana": null
  },
  "1111": {
    "postcode": "9901111",
    "prefecture": "山形県",
    "prefecture_kana": "ヤマガタケン",
    "prefecture_code": 6,
    "city": "西村山郡大江町",
    "city_kana": "ニシムラヤマグンオオエマチ",
    "town": "三郷丙",
    "town_kana": "サンゴウヘイ",
    "street": null,
    "office_name": null,
    "office_name_kana": null
  },
  "1112": {
    "postcode": "9901112",
    "prefecture": "山形県",
    "prefecture_kana": "ヤマガタケン",
    "prefecture_code": 6,
    "city": "西村山郡大江町",
    "city_kana": "ニシムラヤマグンオオエマチ",
    "town": "三郷乙",
    "town_kana": "サンゴウオツ",
    "street": null,
    "office_name": null,
    "office_name_kana": null
  },
  "1113": {
    "postcode": "9901113",
    "prefecture": "山形県",
    "prefecture_kana": "ヤマガタケン",
    "prefecture_code": 6,
    "city": "西村山郡大江町",
    "city_kana": "ニシムラヤマグンオオエマチ",
    "town": "三郷甲",
    "town_kana": "サンゴウコウ",
    "street": null,
    "office_name": null,
    "office_name_kana": null
  },
  "1114": {
    "postcode": "9901114",
    "prefecture": "山形県",
    "prefecture_kana": "ヤマガタケン",
    "prefecture_code": 6,
    "city": "西村山郡大江町",
    "city_kana": "ニシムラヤマグンオオエマチ",
    "town": "富沢",
    "town_kana": "トミザワ",
    "street": null,
    "office_name": null,
    "office_name_kana": null
  },
  "1121": {
    "postcode": "9901121",
    "prefecture": "山形県",
    "prefecture_kana": "ヤマガタケン",
    "prefecture_code": 6,
    "city": "西村山郡大江町",
    "city_kana": "ニシムラヤマグンオオエマチ",
    "town": "藤田",
    "town_kana": "フジタ",
    "street": null,
    "office_name": null,
    "office_name_kana": null
  },
  "1122": {
    "postcode": "9901122",
    "prefecture": "山形県",
    "prefecture_kana": "ヤマガタケン",
    "prefecture_code": 6,
    "city": "西村山郡大江町",
    "city_kana": "ニシムラヤマグンオオエマチ",
    "town": "小見",
    "town_kana": "オオミ",
    "street": null,
    "office_name": null,
    "office_name_kana": null
  },
  "1131": {
    "postcode": "9901131",
    "prefecture": "山形県",
    "prefecture_kana": "ヤマガタケン",
    "prefecture_code": 6,
    "city": "西村山郡大江町",
    "city_kana": "ニシムラヤマグンオオエマチ",
    "town": "荻野",
    "town_kana": "オギノ",
    "street": null,
    "office_name": null,
    "office_name_kana": null
  },
  "1132": {
    "postcode": "9901132",
    "prefecture": "山形県",
    "prefecture_kana": "ヤマガタケン",
    "prefecture_code": 6,
    "city": "西村山郡大江町",
    "city_kana": "ニシムラヤマグンオオエマチ",
    "town": "堂屋敷",
    "town_kana": "ドウヤシキ",
    "street": null,
    "office_name": null,
    "office_name_kana": null
  },
  "1133": {
    "postcode": "9901133",
    "prefecture": "山形県",
    "prefecture_kana": "ヤマガタケン",
    "prefecture_code": 6,
    "city": "西村山郡大江町",
    "city_kana": "ニシムラヤマグンオオエマチ",
    "town": "塩ノ平",
    "town_kana": "シオノタイラ",
    "street": null,
    "office_name": null,
    "office_name_kana": null
  },
  "1134": {
    "postcode": "9901134",
    "prefecture": "山形県",
    "prefecture_kana": "ヤマガタケン",
    "prefecture_code": 6,
    "city": "西村山郡大江町",
    "city_kana": "ニシムラヤマグンオオエマチ",
    "town": "所部",
    "town_kana": "トコロブ",
    "street": null,
    "office_name": null,
    "office_name_kana": null
  },
  "1141": {
    "postcode": "9901141",
    "prefecture": "山形県",
    "prefecture_kana": "ヤマガタケン",
    "prefecture_code": 6,
    "city": "西村山郡大江町",
    "city_kana": "ニシムラヤマグンオオエマチ",
    "town": "小釿",
    "town_kana": "コジュウナ",
    "street": null,
    "office_name": null,
    "office_name_kana": null
  },
  "1142": {
    "postcode": "9901142",
    "prefecture": "山形県",
    "prefecture_kana": "ヤマガタケン",
    "prefecture_code": 6,
    "city": "西村山郡大江町",
    "city_kana": "ニシムラヤマグンオオエマチ",
    "town": "材木",
    "town_kana": "ザイモク",
    "street": null,
    "office_name": null,
    "office_name_kana": null
  },
  "1143": {
    "postcode": "9901143",
    "prefecture": "山形県",
    "prefecture_kana": "ヤマガタケン",
    "prefecture_code": 6,
    "city": "西村山郡大江町",
    "city_kana": "ニシムラヤマグンオオエマチ",
    "town": "橋上",
    "town_kana": "ハシカミ",
    "street": null,
    "office_name": null,
    "office_name_kana": null
  },
  "1144": {
    "postcode": "9901144",
    "prefecture": "山形県",
    "prefecture_kana": "ヤマガタケン",
    "prefecture_code": 6,
    "city": "西村山郡大江町",
    "city_kana": "ニシムラヤマグンオオエマチ",
    "town": "十八才甲",
    "town_kana": "ジュウハツサイコウ",
    "street": null,
    "office_name": null,
    "office_name_kana": null
  },
  "1145": {
    "postcode": "9901145",
    "prefecture": "山形県",
    "prefecture_kana": "ヤマガタケン",
    "prefecture_code": 6,
    "city": "西村山郡大江町",
    "city_kana": "ニシムラヤマグンオオエマチ",
    "town": "十八才乙",
    "town_kana": "ジュウハツサイオツ",
    "street": null,
    "office_name": null,
    "office_name_kana": null
  },
  "1146": {
    "postcode": "9901146",
    "prefecture": "山形県",
    "prefecture_kana": "ヤマガタケン",
    "prefecture_code": 6,
    "city": "西村山郡大江町",
    "city_kana": "ニシムラヤマグンオオエマチ",
    "town": "楢山",
    "town_kana": "ナラヤマ",
    "street": null,
    "office_name": null,
    "office_name_kana": null
  },
  "1151": {
    "postcode": "9901151",
    "prefecture": "山形県",
    "prefecture_kana": "ヤマガタケン",
    "prefecture_code": 6,
    "city": "西村山郡大江町",
    "city_kana": "ニシムラヤマグンオオエマチ",
    "town": "本郷乙",
    "town_kana": "ホンゴウオツ",
    "street": null,
    "office_name": null,
    "office_name_kana": null
  },
  "1152": {
    "postcode": "9901152",
    "prefecture": "山形県",
    "prefecture_kana": "ヤマガタケン",
    "prefecture_code": 6,
    "city": "西村山郡大江町",
    "city_kana": "ニシムラヤマグンオオエマチ",
    "town": "顔好甲",
    "town_kana": "カオヨシコウ",
    "street": null,
    "office_name": null,
    "office_name_kana": null
  },
  "1153": {
    "postcode": "9901153",
    "prefecture": "山形県",
    "prefecture_kana": "ヤマガタケン",
    "prefecture_code": 6,
    "city": "西村山郡大江町",
    "city_kana": "ニシムラヤマグンオオエマチ",
    "town": "顔好乙",
    "town_kana": "カオヨシオツ",
    "street": null,
    "office_name": null,
    "office_name_kana": null
  },
  "1154": {
    "postcode": "9901154",
    "prefecture": "山形県",
    "prefecture_kana": "ヤマガタケン",
    "prefecture_code": 6,
    "city": "西村山郡大江町",
    "city_kana": "ニシムラヤマグンオオエマチ",
    "town": "本郷甲",
    "town_kana": "ホンゴウコウ",
    "street": null,
    "office_name": null,
    "office_name_kana": null
  },
  "1161": {
    "postcode": "9901161",
    "prefecture": "山形県",
    "prefecture_kana": "ヤマガタケン",
    "prefecture_code": 6,
    "city": "西村山郡大江町",
    "city_kana": "ニシムラヤマグンオオエマチ",
    "town": "原田",
    "town_kana": "ハラダ",
    "street": null,
    "office_name": null,
    "office_name_kana": null
  },
  "1162": {
    "postcode": "9901162",
    "prefecture": "山形県",
    "prefecture_kana": "ヤマガタケン",
    "prefecture_code": 6,
    "city": "西村山郡大江町",
    "city_kana": "ニシムラヤマグンオオエマチ",
    "town": "本郷己",
    "town_kana": "ホンゴウキ",
    "street": null,
    "office_name": null,
    "office_name_kana": null
  },
  "1163": {
    "postcode": "9901163",
    "prefecture": "山形県",
    "prefecture_kana": "ヤマガタケン",
    "prefecture_code": 6,
    "city": "西村山郡大江町",
    "city_kana": "ニシムラヤマグンオオエマチ",
    "town": "本郷丁",
    "town_kana": "ホンゴウテイ",
    "street": null,
    "office_name": null,
    "office_name_kana": null
  },
  "1164": {
    "postcode": "9901164",
    "prefecture": "山形県",
    "prefecture_kana": "ヤマガタケン",
    "prefecture_code": 6,
    "city": "西村山郡大江町",
    "city_kana": "ニシムラヤマグンオオエマチ",
    "town": "本郷丙",
    "town_kana": "ホンゴウヘイ",
    "street": null,
    "office_name": null,
    "office_name_kana": null
  },
  "1165": {
    "postcode": "9901165",
    "prefecture": "山形県",
    "prefecture_kana": "ヤマガタケン",
    "prefecture_code": 6,
    "city": "西村山郡大江町",
    "city_kana": "ニシムラヤマグンオオエマチ",
    "town": "本郷戊",
    "town_kana": "ホンゴウボ",
    "street": null,
    "office_name": null,
    "office_name_kana": null
  },
  "1271": {
    "postcode": "9901271",
    "prefecture": "山形県",
    "prefecture_kana": "ヤマガタケン",
    "prefecture_code": 6,
    "city": "西村山郡大江町",
    "city_kana": "ニシムラヤマグンオオエマチ",
    "town": "月布",
    "town_kana": "ツキヌノ",
    "street": null,
    "office_name": null,
    "office_name_kana": null
  },
  "1272": {
    "postcode": "9901272",
    "prefecture": "山形県",
    "prefecture_kana": "ヤマガタケン",
    "prefecture_code": 6,
    "city": "西村山郡大江町",
    "city_kana": "ニシムラヤマグンオオエマチ",
    "town": "貫見",
    "town_kana": "ヌクミ",
    "street": null,
    "office_name": null,
    "office_name_kana": null
  },
  "1273": {
    "postcode": "9901273",
    "prefecture": "山形県",
    "prefecture_kana": "ヤマガタケン",
    "prefecture_code": 6,
    "city": "西村山郡大江町",
    "city_kana": "ニシムラヤマグンオオエマチ",
    "town": "小清",
    "town_kana": "コセイ",
    "street": null,
    "office_name": null,
    "office_name_kana": null
  },
  "1274": {
    "postcode": "9901274",
    "prefecture": "山形県",
    "prefecture_kana": "ヤマガタケン",
    "prefecture_code": 6,
    "city": "西村山郡大江町",
    "city_kana": "ニシムラヤマグンオオエマチ",
    "town": "柳川",
    "town_kana": "ヤナガワ",
    "street": null,
    "office_name": null,
    "office_name_kana": null
  },
  "1275": {
    "postcode": "9901275",
    "prefecture": "山形県",
    "prefecture_kana": "ヤマガタケン",
    "prefecture_code": 6,
    "city": "西村山郡大江町",
    "city_kana": "ニシムラヤマグンオオエマチ",
    "town": "沢口",
    "town_kana": "サワグチ",
    "street": null,
    "office_name": null,
    "office_name_kana": null
  },
  "1276": {
    "postcode": "9901276",
    "prefecture": "山形県",
    "prefecture_kana": "ヤマガタケン",
    "prefecture_code": 6,
    "city": "西村山郡大江町",
    "city_kana": "ニシムラヤマグンオオエマチ",
    "town": "黒森",
    "town_kana": "クロモリ",
    "street": null,
    "office_name": null,
    "office_name_kana": null
  },
  "1301": {
    "postcode": "9901301",
    "prefecture": "山形県",
    "prefecture_kana": "ヤマガタケン",
    "prefecture_code": 6,
    "city": "西村山郡朝日町",
    "city_kana": "ニシムラヤマグンアサヒマチ",
    "town": "中沢",
    "town_kana": "ナカザワ",
    "street": null,
    "office_name": null,
    "office_name_kana": null
  },
  "1302": {
    "postcode": "9901302",
    "prefecture": "山形県",
    "prefecture_kana": "ヤマガタケン",
    "prefecture_code": 6,
    "city": "西村山郡朝日町",
    "city_kana": "ニシムラヤマグンアサヒマチ",
    "town": "玉ノ井",
    "town_kana": "タマノイ",
    "street": null,
    "office_name": null,
    "office_name_kana": null
  },
  "1303": {
    "postcode": "9901303",
    "prefecture": "山形県",
    "prefecture_kana": "ヤマガタケン",
    "prefecture_code": 6,
    "city": "西村山郡朝日町",
    "city_kana": "ニシムラヤマグンアサヒマチ",
    "town": "馬神",
    "town_kana": "ウマガミ",
    "street": null,
    "office_name": null,
    "office_name_kana": null
  },
  "1304": {
    "postcode": "9901304",
    "prefecture": "山形県",
    "prefecture_kana": "ヤマガタケン",
    "prefecture_code": 6,
    "city": "西村山郡朝日町",
    "city_kana": "ニシムラヤマグンアサヒマチ",
    "town": "大谷",
    "town_kana": "オオヤ",
    "street": null,
    "office_name": null,
    "office_name_kana": null
  },
  "1305": {
    "postcode": "9901305",
    "prefecture": "山形県",
    "prefecture_kana": "ヤマガタケン",
    "prefecture_code": 6,
    "city": "西村山郡朝日町",
    "city_kana": "ニシムラヤマグンアサヒマチ",
    "town": "大沼",
    "town_kana": "オオヌマ",
    "street": null,
    "office_name": null,
    "office_name_kana": null
  },
  "1306": {
    "postcode": "9901306",
    "prefecture": "山形県",
    "prefecture_kana": "ヤマガタケン",
    "prefecture_code": 6,
    "city": "西村山郡朝日町",
    "city_kana": "ニシムラヤマグンアサヒマチ",
    "town": "大暮山",
    "town_kana": "オオグレヤマ",
    "street": null,
    "office_name": null,
    "office_name_kana": null
  },
  "1400": {
    "postcode": "9901400",
    "prefecture": "山形県",
    "prefecture_kana": "ヤマガタケン",
    "prefecture_code": 6,
    "city": "西村山郡朝日町",
    "city_kana": "ニシムラヤマグンアサヒマチ",
    "town": "",
    "town_kana": "",
    "street": null,
    "office_name": null,
    "office_name_kana": null
  },
  "1411": {
    "postcode": "9901411",
    "prefecture": "山形県",
    "prefecture_kana": "ヤマガタケン",
    "prefecture_code": 6,
    "city": "西村山郡朝日町",
    "city_kana": "ニシムラヤマグンアサヒマチ",
    "town": "和合",
    "town_kana": "ワゴウ",
    "street": null,
    "office_name": null,
    "office_name_kana": null
  },
  "1412": {
    "postcode": "9901412",
    "prefecture": "山形県",
    "prefecture_kana": "ヤマガタケン",
    "prefecture_code": 6,
    "city": "西村山郡朝日町",
    "city_kana": "ニシムラヤマグンアサヒマチ",
    "town": "和合平",
    "town_kana": "ワゴウタイラ",
    "street": null,
    "office_name": null,
    "office_name_kana": null
  },
  "1421": {
    "postcode": "9901421",
    "prefecture": "山形県",
    "prefecture_kana": "ヤマガタケン",
    "prefecture_code": 6,
    "city": "西村山郡朝日町",
    "city_kana": "ニシムラヤマグンアサヒマチ",
    "town": "古槇",
    "town_kana": "フルマギ",
    "street": null,
    "office_name": null,
    "office_name_kana": null
  },
  "1422": {
    "postcode": "9901422",
    "prefecture": "山形県",
    "prefecture_kana": "ヤマガタケン",
    "prefecture_code": 6,
    "city": "西村山郡朝日町",
    "city_kana": "ニシムラヤマグンアサヒマチ",
    "town": "送橋",
    "town_kana": "オクリハシ",
    "street": null,
    "office_name": null,
    "office_name_kana": null
  },
  "1423": {
    "postcode": "9901423",
    "prefecture": "山形県",
    "prefecture_kana": "ヤマガタケン",
    "prefecture_code": 6,
    "city": "西村山郡朝日町",
    "city_kana": "ニシムラヤマグンアサヒマチ",
    "town": "下芦沢",
    "town_kana": "シモアシザワ",
    "street": null,
    "office_name": null,
    "office_name_kana": null
  },
  "1424": {
    "postcode": "9901424",
    "prefecture": "山形県",
    "prefecture_kana": "ヤマガタケン",
    "prefecture_code": 6,
    "city": "西村山郡朝日町",
    "city_kana": "ニシムラヤマグンアサヒマチ",
    "town": "水本",
    "town_kana": "ミズモト",
    "street": null,
    "office_name": null,
    "office_name_kana": null
  },
  "1431": {
    "postcode": "9901431",
    "prefecture": "山形県",
    "prefecture_kana": "ヤマガタケン",
    "prefecture_code": 6,
    "city": "西村山郡朝日町",
    "city_kana": "ニシムラヤマグンアサヒマチ",
    "town": "大滝",
    "town_kana": "オオタキ",
    "street": null,
    "office_name": null,
    "office_name_kana": null
  },
  "1432": {
    "postcode": "9901432",
    "prefecture": "山形県",
    "prefecture_kana": "ヤマガタケン",
    "prefecture_code": 6,
    "city": "西村山郡朝日町",
    "city_kana": "ニシムラヤマグンアサヒマチ",
    "town": "上郷",
    "town_kana": "カミゴウ",
    "street": null,
    "office_name": null,
    "office_name_kana": null
  },
  "1433": {
    "postcode": "9901433",
    "prefecture": "山形県",
    "prefecture_kana": "ヤマガタケン",
    "prefecture_code": 6,
    "city": "西村山郡朝日町",
    "city_kana": "ニシムラヤマグンアサヒマチ",
    "town": "杉山",
    "town_kana": "スギヤマ",
    "street": null,
    "office_name": null,
    "office_name_kana": null
  },
  "1441": {
    "postcode": "9901441",
    "prefecture": "山形県",
    "prefecture_kana": "ヤマガタケン",
    "prefecture_code": 6,
    "city": "西村山郡朝日町",
    "city_kana": "ニシムラヤマグンアサヒマチ",
    "town": "新宿",
    "town_kana": "アラジュク",
    "street": null,
    "office_name": null,
    "office_name_kana": null
  },
  "1442": {
    "postcode": "9901442",
    "prefecture": "山形県",
    "prefecture_kana": "ヤマガタケン",
    "prefecture_code": 6,
    "city": "西村山郡朝日町",
    "city_kana": "ニシムラヤマグンアサヒマチ",
    "town": "宮宿",
    "town_kana": "ミヤジュク",
    "street": null,
    "office_name": null,
    "office_name_kana": null
  },
  "1443": {
    "postcode": "9901443",
    "prefecture": "山形県",
    "prefecture_kana": "ヤマガタケン",
    "prefecture_code": 6,
    "city": "西村山郡朝日町",
    "city_kana": "ニシムラヤマグンアサヒマチ",
    "town": "雪谷",
    "town_kana": "ユキタニ",
    "street": null,
    "office_name": null,
    "office_name_kana": null
  },
  "1444": {
    "postcode": "9901444",
    "prefecture": "山形県",
    "prefecture_kana": "ヤマガタケン",
    "prefecture_code": 6,
    "city": "西村山郡朝日町",
    "city_kana": "ニシムラヤマグンアサヒマチ",
    "town": "四ノ沢",
    "town_kana": "シノサワ",
    "street": null,
    "office_name": null,
    "office_name_kana": null
  },
  "1551": {
    "postcode": "9901551",
    "prefecture": "山形県",
    "prefecture_kana": "ヤマガタケン",
    "prefecture_code": 6,
    "city": "西村山郡朝日町",
    "city_kana": "ニシムラヤマグンアサヒマチ",
    "town": "三中",
    "town_kana": "ミナカ",
    "street": null,
    "office_name": null,
    "office_name_kana": null
  },
  "1552": {
    "postcode": "9901552",
    "prefecture": "山形県",
    "prefecture_kana": "ヤマガタケン",
    "prefecture_code": 6,
    "city": "西村山郡朝日町",
    "city_kana": "ニシムラヤマグンアサヒマチ",
    "town": "常盤",
    "town_kana": "トキワ",
    "street": null,
    "office_name": null,
    "office_name_kana": null
  },
  "1553": {
    "postcode": "9901553",
    "prefecture": "山形県",
    "prefecture_kana": "ヤマガタケン",
    "prefecture_code": 6,
    "city": "西村山郡朝日町",
    "city_kana": "ニシムラヤマグンアサヒマチ",
    "town": "長沼",
    "town_kana": "ナガヌマ",
    "street": null,
    "office_name": null,
    "office_name_kana": null
  },
  "1561": {
    "postcode": "9901561",
    "prefecture": "山形県",
    "prefecture_kana": "ヤマガタケン",
    "prefecture_code": 6,
    "city": "西村山郡朝日町",
    "city_kana": "ニシムラヤマグンアサヒマチ",
    "town": "松程",
    "town_kana": "マツホド",
    "street": null,
    "office_name": null,
    "office_name_kana": null
  },
  "1562": {
    "postcode": "9901562",
    "prefecture": "山形県",
    "prefecture_kana": "ヤマガタケン",
    "prefecture_code": 6,
    "city": "西村山郡朝日町",
    "city_kana": "ニシムラヤマグンアサヒマチ",
    "town": "大船木",
    "town_kana": "オオフナギ",
    "street": null,
    "office_name": null,
    "office_name_kana": null
  },
  "1563": {
    "postcode": "9901563",
    "prefecture": "山形県",
    "prefecture_kana": "ヤマガタケン",
    "prefecture_code": 6,
    "city": "西村山郡朝日町",
    "city_kana": "ニシムラヤマグンアサヒマチ",
    "town": "今平",
    "town_kana": "コンペイ",
    "street": null,
    "office_name": null,
    "office_name_kana": null
  },
  "1571": {
    "postcode": "9901571",
    "prefecture": "山形県",
    "prefecture_kana": "ヤマガタケン",
    "prefecture_code": 6,
    "city": "西村山郡朝日町",
    "city_kana": "ニシムラヤマグンアサヒマチ",
    "town": "石須部",
    "town_kana": "コクスベ",
    "street": null,
    "office_name": null,
    "office_name_kana": null
  },
  "1572": {
    "postcode": "9901572",
    "prefecture": "山形県",
    "prefecture_kana": "ヤマガタケン",
    "prefecture_code": 6,
    "city": "西村山郡朝日町",
    "city_kana": "ニシムラヤマグンアサヒマチ",
    "town": "太郎",
    "town_kana": "タロウ",
    "street": null,
    "office_name": null,
    "office_name_kana": null
  },
  "1573": {
    "postcode": "9901573",
    "prefecture": "山形県",
    "prefecture_kana": "ヤマガタケン",
    "prefecture_code": 6,
    "city": "西村山郡朝日町",
    "city_kana": "ニシムラヤマグンアサヒマチ",
    "town": "立木",
    "town_kana": "タテキ",
    "street": null,
    "office_name": null,
    "office_name_kana": null
  },
  "1574": {
    "postcode": "9901574",
    "prefecture": "山形県",
    "prefecture_kana": "ヤマガタケン",
    "prefecture_code": 6,
    "city": "西村山郡朝日町",
    "city_kana": "ニシムラヤマグンアサヒマチ",
    "town": "白倉",
    "town_kana": "シラクラ",
    "street": null,
    "office_name": null,
    "office_name_kana": null
  },
  "2161": {
    "postcode": "9902161",
    "prefecture": "山形県",
    "prefecture_kana": "ヤマガタケン",
    "prefecture_code": 6,
    "city": "山形市",
    "city_kana": "ヤマガタシ",
    "town": "漆山",
    "town_kana": "ウルシヤマ",
    "street": null,
    "office_name": null,
    "office_name_kana": null
  },
  "2162": {
    "postcode": "9902162",
    "prefecture": "山形県",
    "prefecture_kana": "ヤマガタケン",
    "prefecture_code": 6,
    "city": "山形市",
    "city_kana": "ヤマガタシ",
    "town": "あけぼの",
    "town_kana": "アケボノ",
    "street": null,
    "office_name": null,
    "office_name_kana": null
  },
  "2163": {
    "postcode": "9902163",
    "prefecture": "山形県",
    "prefecture_kana": "ヤマガタケン",
    "prefecture_code": 6,
    "city": "山形市",
    "city_kana": "ヤマガタシ",
    "town": "伊達城",
    "town_kana": "ダテジョウ",
    "street": null,
    "office_name": null,
    "office_name_kana": null
  },
  "2164": {
    "postcode": "9902164",
    "prefecture": "山形県",
    "prefecture_kana": "ヤマガタケン",
    "prefecture_code": 6,
    "city": "山形市",
    "city_kana": "ヤマガタシ",
    "town": "新開",
    "town_kana": "シンカイ",
    "street": null,
    "office_name": null,
    "office_name_kana": null
  },
  "2171": {
    "postcode": "9902171",
    "prefecture": "山形県",
    "prefecture_kana": "ヤマガタケン",
    "prefecture_code": 6,
    "city": "山形市",
    "city_kana": "ヤマガタシ",
    "town": "七浦",
    "town_kana": "ナナウラ",
    "street": null,
    "office_name": null,
    "office_name_kana": null
  },
  "2172": {
    "postcode": "9902172",
    "prefecture": "山形県",
    "prefecture_kana": "ヤマガタケン",
    "prefecture_code": 6,
    "city": "山形市",
    "city_kana": "ヤマガタシ",
    "town": "千手堂",
    "town_kana": "センジュドウ",
    "street": null,
    "office_name": null,
    "office_name_kana": null
  },
  "2173": {
    "postcode": "9902173",
    "prefecture": "山形県",
    "prefecture_kana": "ヤマガタケン",
    "prefecture_code": 6,
    "city": "山形市",
    "city_kana": "ヤマガタシ",
    "town": "渋江",
    "town_kana": "シブエ",
    "street": null,
    "office_name": null,
    "office_name_kana": null
  },
  "2174": {
    "postcode": "9902174",
    "prefecture": "山形県",
    "prefecture_kana": "ヤマガタケン",
    "prefecture_code": 6,
    "city": "山形市",
    "city_kana": "ヤマガタシ",
    "town": "灰塚",
    "town_kana": "ハイヅカ",
    "street": null,
    "office_name": null,
    "office_name_kana": null
  },
  "2175": {
    "postcode": "9902175",
    "prefecture": "山形県",
    "prefecture_kana": "ヤマガタケン",
    "prefecture_code": 6,
    "city": "山形市",
    "city_kana": "ヤマガタシ",
    "town": "中野目",
    "town_kana": "ナカノメ",
    "street": null,
    "office_name": null,
    "office_name_kana": null
  },
  "2196": {
    "postcode": "9902196",
    "prefecture": "山形県",
    "prefecture_kana": "ヤマガタケン",
    "prefecture_code": 6,
    "city": "山形市",
    "city_kana": "ヤマガタシ",
    "town": "大字漆山",
    "town_kana": null,
    "street": "字石田５４７番地",
    "office_name": "（株）　トプコン山形",
    "office_name_kana": "カブシキカイシヤ トプコンヤマガタ"
  },
  "2211": {
    "postcode": "9902211",
    "prefecture": "山形県",
    "prefecture_kana": "ヤマガタケン",
    "prefecture_code": 6,
    "city": "山形市",
    "city_kana": "ヤマガタシ",
    "town": "十文字",
    "town_kana": "ジュウモンジ",
    "street": null,
    "office_name": null,
    "office_name_kana": null
  },
  "2212": {
    "postcode": "9902212",
    "prefecture": "山形県",
    "prefecture_kana": "ヤマガタケン",
    "prefecture_code": 6,
    "city": "山形市",
    "city_kana": "ヤマガタシ",
    "town": "上柳",
    "town_kana": "カミヤナギ",
    "street": null,
    "office_name": null,
    "office_name_kana": null
  },
  "2213": {
    "postcode": "9902213",
    "prefecture": "山形県",
    "prefecture_kana": "ヤマガタケン",
    "prefecture_code": 6,
    "city": "山形市",
    "city_kana": "ヤマガタシ",
    "town": "寺西",
    "town_kana": "テラニシ",
    "street": null,
    "office_name": null,
    "office_name_kana": null
  },
  "2214": {
    "postcode": "9902214",
    "prefecture": "山形県",
    "prefecture_kana": "ヤマガタケン",
    "prefecture_code": 6,
    "city": "山形市",
    "city_kana": "ヤマガタシ",
    "town": "青柳",
    "town_kana": "アオヤギ",
    "street": null,
    "office_name": null,
    "office_name_kana": null
  },
  "2215": {
    "postcode": "9902215",
    "prefecture": "山形県",
    "prefecture_kana": "ヤマガタケン",
    "prefecture_code": 6,
    "city": "山形市",
    "city_kana": "ヤマガタシ",
    "town": "下柳",
    "town_kana": "シモヤナギ",
    "street": null,
    "office_name": null,
    "office_name_kana": null
  },
  "2216": {
    "postcode": "9902216",
    "prefecture": "山形県",
    "prefecture_kana": "ヤマガタケン",
    "prefecture_code": 6,
    "city": "山形市",
    "city_kana": "ヤマガタシ",
    "town": "千刈",
    "town_kana": "センガリ",
    "street": null,
    "office_name": null,
    "office_name_kana": null
  },
  "2221": {
    "postcode": "9902221",
    "prefecture": "山形県",
    "prefecture_kana": "ヤマガタケン",
    "prefecture_code": 6,
    "city": "山形市",
    "city_kana": "ヤマガタシ",
    "town": "風間",
    "town_kana": "カザマ",
    "street": null,
    "office_name": null,
    "office_name_kana": null
  },
  "2222": {
    "postcode": "9902222",
    "prefecture": "山形県",
    "prefecture_kana": "ヤマガタケン",
    "prefecture_code": 6,
    "city": "山形市",
    "city_kana": "ヤマガタシ",
    "town": "青野",
    "town_kana": "アオノ",
    "street": null,
    "office_name": null,
    "office_name_kana": null
  },
  "2223": {
    "postcode": "9902223",
    "prefecture": "山形県",
    "prefecture_kana": "ヤマガタケン",
    "prefecture_code": 6,
    "city": "山形市",
    "city_kana": "ヤマガタシ",
    "town": "塔の前",
    "town_kana": "トウノマエ",
    "street": null,
    "office_name": null,
    "office_name_kana": null
  },
  "2224": {
    "postcode": "9902224",
    "prefecture": "山形県",
    "prefecture_kana": "ヤマガタケン",
    "prefecture_code": 6,
    "city": "山形市",
    "city_kana": "ヤマガタシ",
    "town": "近田",
    "town_kana": "チカダ",
    "street": null,
    "office_name": null,
    "office_name_kana": null
  },
  "2225": {
    "postcode": "9902225",
    "prefecture": "山形県",
    "prefecture_kana": "ヤマガタケン",
    "prefecture_code": 6,
    "city": "山形市",
    "city_kana": "ヤマガタシ",
    "town": "花岡",
    "town_kana": "ハナオカ",
    "street": null,
    "office_name": null,
    "office_name_kana": null
  },
  "2226": {
    "postcode": "9902226",
    "prefecture": "山形県",
    "prefecture_kana": "ヤマガタケン",
    "prefecture_code": 6,
    "city": "山形市",
    "city_kana": "ヤマガタシ",
    "town": "西越",
    "town_kana": "ニシゴシ",
    "street": null,
    "office_name": null,
    "office_name_kana": null
  },
  "2227": {
    "postcode": "9902227",
    "prefecture": "山形県",
    "prefecture_kana": "ヤマガタケン",
    "prefecture_code": 6,
    "city": "山形市",
    "city_kana": "ヤマガタシ",
    "town": "千石",
    "town_kana": "センゴク",
    "street": null,
    "office_name": null,
    "office_name_kana": null
  },
  "2231": {
    "postcode": "9902231",
    "prefecture": "山形県",
    "prefecture_kana": "ヤマガタケン",
    "prefecture_code": 6,
    "city": "山形市",
    "city_kana": "ヤマガタシ",
    "town": "大森",
    "town_kana": "オオモリ",
    "street": null,
    "office_name": null,
    "office_name_kana": null
  },
  "2232": {
    "postcode": "9902232",
    "prefecture": "山形県",
    "prefecture_kana": "ヤマガタケン",
    "prefecture_code": 6,
    "city": "山形市",
    "city_kana": "ヤマガタシ",
    "town": "下東山",
    "town_kana": "シモヒガシヤマ",
    "street": null,
    "office_name": null,
    "office_name_kana": null
  },
  "2233": {
    "postcode": "9902233",
    "prefecture": "山形県",
    "prefecture_kana": "ヤマガタケン",
    "prefecture_code": 6,
    "city": "山形市",
    "city_kana": "ヤマガタシ",
    "town": "切畑",
    "town_kana": "キリハタ",
    "street": null,
    "office_name": null,
    "office_name_kana": null
  },
  "2234": {
    "postcode": "9902234",
    "prefecture": "山形県",
    "prefecture_kana": "ヤマガタケン",
    "prefecture_code": 6,
    "city": "山形市",
    "city_kana": "ヤマガタシ",
    "town": "こも石",
    "town_kana": "コモイシ",
    "street": null,
    "office_name": null,
    "office_name_kana": null
  },
  "2235": {
    "postcode": "9902235",
    "prefecture": "山形県",
    "prefecture_kana": "ヤマガタケン",
    "prefecture_code": 6,
    "city": "山形市",
    "city_kana": "ヤマガタシ",
    "town": "中里",
    "town_kana": "ナカザト",
    "street": null,
    "office_name": null,
    "office_name_kana": null
  },
  "2241": {
    "postcode": "9902241",
    "prefecture": "山形県",
    "prefecture_kana": "ヤマガタケン",
    "prefecture_code": 6,
    "city": "山形市",
    "city_kana": "ヤマガタシ",
    "town": "上東山",
    "town_kana": "カミヒガシヤマ",
    "street": null,
    "office_name": null,
    "office_name_kana": null
  },
  "2242": {
    "postcode": "9902242",
    "prefecture": "山形県",
    "prefecture_kana": "ヤマガタケン",
    "prefecture_code": 6,
    "city": "山形市",
    "city_kana": "ヤマガタシ",
    "town": "高沢",
    "town_kana": "タカサワ",
    "street": null,
    "office_name": null,
    "office_name_kana": null
  },
  "2251": {
    "postcode": "9902251",
    "prefecture": "山形県",
    "prefecture_kana": "ヤマガタケン",
    "prefecture_code": 6,
    "city": "山形市",
    "city_kana": "ヤマガタシ",
    "town": "立谷川",
    "town_kana": "タチヤガワ",
    "street": null,
    "office_name": null,
    "office_name_kana": null
  },
  "2292": {
    "postcode": "9902292",
    "prefecture": "山形県",
    "prefecture_kana": "ヤマガタケン",
    "prefecture_code": 6,
    "city": "山形市",
    "city_kana": "ヤマガタシ",
    "town": "大字青柳",
    "town_kana": null,
    "street": "１８００",
    "office_name": "山形県立　中央病院",
    "office_name_kana": "ヤマガタケンリツ チユウオウビヨウイン"
  },
  "2301": {
    "postcode": "9902301",
    "prefecture": "山形県",
    "prefecture_kana": "ヤマガタケン",
    "prefecture_code": 6,
    "city": "山形市",
    "city_kana": "ヤマガタシ",
    "town": "蔵王温泉",
    "town_kana": "ザオウオンセン",
    "street": null,
    "office_name": null,
    "office_name_kana": null
  },
  "2302": {
    "postcode": "9902302",
    "prefecture": "山形県",
    "prefecture_kana": "ヤマガタケン",
    "prefecture_code": 6,
    "city": "山形市",
    "city_kana": "ヤマガタシ",
    "town": "蔵王堀田",
    "town_kana": "ザオウホッタ",
    "street": null,
    "office_name": null,
    "office_name_kana": null
  },
  "2303": {
    "postcode": "9902303",
    "prefecture": "山形県",
    "prefecture_kana": "ヤマガタケン",
    "prefecture_code": 6,
    "city": "山形市",
    "city_kana": "ヤマガタシ",
    "town": "蔵王上野",
    "town_kana": "ザオウウワノ",
    "street": null,
    "office_name": null,
    "office_name_kana": null
  },
  "2304": {
    "postcode": "9902304",
    "prefecture": "山形県",
    "prefecture_kana": "ヤマガタケン",
    "prefecture_code": 6,
    "city": "山形市",
    "city_kana": "ヤマガタシ",
    "town": "蔵王山田",
    "town_kana": "ザオウヤマダ",
    "street": null,
    "office_name": null,
    "office_name_kana": null
  },
  "2305": {
    "postcode": "9902305",
    "prefecture": "山形県",
    "prefecture_kana": "ヤマガタケン",
    "prefecture_code": 6,
    "city": "山形市",
    "city_kana": "ヤマガタシ",
    "town": "蔵王半郷",
    "town_kana": "ザオウハンゴウ",
    "street": null,
    "office_name": null,
    "office_name_kana": null
  },
  "2306": {
    "postcode": "9902306",
    "prefecture": "山形県",
    "prefecture_kana": "ヤマガタケン",
    "prefecture_code": 6,
    "city": "山形市",
    "city_kana": "ヤマガタシ",
    "town": "南半郷",
    "town_kana": "ミナミハンゴウ",
    "street": null,
    "office_name": null,
    "office_name_kana": null
  },
  "2307": {
    "postcode": "9902307",
    "prefecture": "山形県",
    "prefecture_kana": "ヤマガタケン",
    "prefecture_code": 6,
    "city": "山形市",
    "city_kana": "ヤマガタシ",
    "town": "表蔵王",
    "town_kana": "オモテザオウ",
    "street": null,
    "office_name": null,
    "office_name_kana": null
  },
  "2308": {
    "postcode": "9902308",
    "prefecture": "山形県",
    "prefecture_kana": "ヤマガタケン",
    "prefecture_code": 6,
    "city": "山形市",
    "city_kana": "ヤマガタシ",
    "town": "東半郷",
    "town_kana": "ヒガシハンゴウ",
    "street": null,
    "office_name": null,
    "office_name_kana": null
  },
  "2311": {
    "postcode": "9902311",
    "prefecture": "山形県",
    "prefecture_kana": "ヤマガタケン",
    "prefecture_code": 6,
    "city": "山形市",
    "city_kana": "ヤマガタシ",
    "town": "黒沢",
    "town_kana": "クロサワ",
    "street": null,
    "office_name": null,
    "office_name_kana": null
  },
  "2312": {
    "postcode": "9902312",
    "prefecture": "山形県",
    "prefecture_kana": "ヤマガタケン",
    "prefecture_code": 6,
    "city": "山形市",
    "city_kana": "ヤマガタシ",
    "town": "南松原",
    "town_kana": "ミナミマツバラ",
    "street": null,
    "office_name": null,
    "office_name_kana": null
  },
  "2313": {
    "postcode": "9902313",
    "prefecture": "山形県",
    "prefecture_kana": "ヤマガタケン",
    "prefecture_code": 6,
    "city": "山形市",
    "city_kana": "ヤマガタシ",
    "town": "松原",
    "town_kana": "マツバラ",
    "street": null,
    "office_name": null,
    "office_name_kana": null
  },
  "2314": {
    "postcode": "9902314",
    "prefecture": "山形県",
    "prefecture_kana": "ヤマガタケン",
    "prefecture_code": 6,
    "city": "山形市",
    "city_kana": "ヤマガタシ",
    "town": "谷柏",
    "town_kana": "ヤガシワ",
    "street": null,
    "office_name": null,
    "office_name_kana": null
  },
  "2315": {
    "postcode": "9902315",
    "prefecture": "山形県",
    "prefecture_kana": "ヤマガタケン",
    "prefecture_code": 6,
    "city": "山形市",
    "city_kana": "ヤマガタシ",
    "town": "津金沢",
    "town_kana": "ツガネザワ",
    "street": null,
    "office_name": null,
    "office_name_kana": null
  },
  "2316": {
    "postcode": "9902316",
    "prefecture": "山形県",
    "prefecture_kana": "ヤマガタケン",
    "prefecture_code": 6,
    "city": "山形市",
    "city_kana": "ヤマガタシ",
    "town": "片谷地",
    "town_kana": "カタヤチ",
    "street": null,
    "office_name": null,
    "office_name_kana": null
  },
  "2317": {
    "postcode": "9902317",
    "prefecture": "山形県",
    "prefecture_kana": "ヤマガタケン",
    "prefecture_code": 6,
    "city": "山形市",
    "city_kana": "ヤマガタシ",
    "town": "みはらしの丘",
    "town_kana": "ミハラシノオカ",
    "street": null,
    "office_name": null,
    "office_name_kana": null
  },
  "2321": {
    "postcode": "9902321",
    "prefecture": "山形県",
    "prefecture_kana": "ヤマガタケン",
    "prefecture_code": 6,
    "city": "山形市",
    "city_kana": "ヤマガタシ",
    "town": "桜田西",
    "town_kana": "サクラダニシ",
    "street": null,
    "office_name": null,
    "office_name_kana": null
  },
  "2322": {
    "postcode": "9902322",
    "prefecture": "山形県",
    "prefecture_kana": "ヤマガタケン",
    "prefecture_code": 6,
    "city": "山形市",
    "city_kana": "ヤマガタシ",
    "town": "桜田南",
    "town_kana": "サクラダミナミ",
    "street": null,
    "office_name": null,
    "office_name_kana": null
  },
  "2323": {
    "postcode": "9902323",
    "prefecture": "山形県",
    "prefecture_kana": "ヤマガタケン",
    "prefecture_code": 6,
    "city": "山形市",
    "city_kana": "ヤマガタシ",
    "town": "桜田東",
    "town_kana": "サクラダヒガシ",
    "street": null,
    "office_name": null,
    "office_name_kana": null
  },
  "2324": {
    "postcode": "9902324",
    "prefecture": "山形県",
    "prefecture_kana": "ヤマガタケン",
    "prefecture_code": 6,
    "city": "山形市",
    "city_kana": "ヤマガタシ",
    "town": "青田南",
    "town_kana": "アオタミナミ",
    "street": null,
    "office_name": null,
    "office_name_kana": null
  },
  "2331": {
    "postcode": "9902331",
    "prefecture": "山形県",
    "prefecture_kana": "ヤマガタケン",
    "prefecture_code": 6,
    "city": "山形市",
    "city_kana": "ヤマガタシ",
    "town": "飯田西",
    "town_kana": "イイダニシ",
    "street": null,
    "office_name": null,
    "office_name_kana": null
  },
  "2332": {
    "postcode": "9902332",
    "prefecture": "山形県",
    "prefecture_kana": "ヤマガタケン",
    "prefecture_code": 6,
    "city": "山形市",
    "city_kana": "ヤマガタシ",
    "town": "飯田",
    "town_kana": "イイダ",
    "street": null,
    "office_name": null,
    "office_name_kana": null
  },
  "2333": {
    "postcode": "9902333",
    "prefecture": "山形県",
    "prefecture_kana": "ヤマガタケン",
    "prefecture_code": 6,
    "city": "山形市",
    "city_kana": "ヤマガタシ",
    "town": "蔵王飯田",
    "town_kana": "ザオウイイダ",
    "street": null,
    "office_name": null,
    "office_name_kana": null
  },
  "2334": {
    "postcode": "9902334",
    "prefecture": "山形県",
    "prefecture_kana": "ヤマガタケン",
    "prefecture_code": 6,
    "city": "山形市",
    "city_kana": "ヤマガタシ",
    "town": "蔵王成沢",
    "town_kana": "ザオウナリサワ",
    "street": null,
    "office_name": null,
    "office_name_kana": null
  },
  "2335": {
    "postcode": "9902335",
    "prefecture": "山形県",
    "prefecture_kana": "ヤマガタケン",
    "prefecture_code": 6,
    "city": "山形市",
    "city_kana": "ヤマガタシ",
    "town": "蔵王南成沢",
    "town_kana": "ザオウミナミナリサワ",
    "street": null,
    "office_name": null,
    "office_name_kana": null
  },
  "2337": {
    "postcode": "9902337",
    "prefecture": "山形県",
    "prefecture_kana": "ヤマガタケン",
    "prefecture_code": 6,
    "city": "山形市",
    "city_kana": "ヤマガタシ",
    "town": "蔵王西成沢",
    "town_kana": "ザオウニシナリサワ",
    "street": null,
    "office_name": null,
    "office_name_kana": null
  },
  "2338": {
    "postcode": "9902338",
    "prefecture": "山形県",
    "prefecture_kana": "ヤマガタケン",
    "prefecture_code": 6,
    "city": "山形市",
    "city_kana": "ヤマガタシ",
    "town": "蔵王松ケ丘",
    "town_kana": "ザオウマツガオカ",
    "street": null,
    "office_name": null,
    "office_name_kana": null
  },
  "2339": {
    "postcode": "9902339",
    "prefecture": "山形県",
    "prefecture_kana": "ヤマガタケン",
    "prefecture_code": 6,
    "city": "山形市",
    "city_kana": "ヤマガタシ",
    "town": "成沢西",
    "town_kana": "ナリサワニシ",
    "street": null,
    "office_name": null,
    "office_name_kana": null
  },
  "2341": {
    "postcode": "9902341",
    "prefecture": "山形県",
    "prefecture_kana": "ヤマガタケン",
    "prefecture_code": 6,
    "city": "山形市",
    "city_kana": "ヤマガタシ",
    "town": "柏倉",
    "town_kana": "カシワグラ",
    "street": null,
    "office_name": null,
    "office_name_kana": null
  },
  "2342": [
    {
      "postcode": "9902342",
      "prefecture": "山形県",
      "prefecture_kana": "ヤマガタケン",
      "prefecture_code": 6,
      "city": "山形市",
      "city_kana": "ヤマガタシ",
      "town": "富神前",
      "town_kana": "トガミマエ",
      "street": null,
      "office_name": null,
      "office_name_kana": null
    },
    {
      "postcode": "9902342",
      "prefecture": "山形県",
      "prefecture_kana": "ヤマガタケン",
      "prefecture_code": 6,
      "city": "山形市",
      "city_kana": "ヤマガタシ",
      "town": "門伝",
      "town_kana": "モンデン",
      "street": null,
      "office_name": null,
      "office_name_kana": null
    }
  ],
  "2343": {
    "postcode": "9902343",
    "prefecture": "山形県",
    "prefecture_kana": "ヤマガタケン",
    "prefecture_code": 6,
    "city": "山形市",
    "city_kana": "ヤマガタシ",
    "town": "城森",
    "town_kana": "シロモリ",
    "street": null,
    "office_name": null,
    "office_name_kana": null
  },
  "2344": {
    "postcode": "9902344",
    "prefecture": "山形県",
    "prefecture_kana": "ヤマガタケン",
    "prefecture_code": 6,
    "city": "山形市",
    "city_kana": "ヤマガタシ",
    "town": "大道端",
    "town_kana": "オオミチバタ",
    "street": null,
    "office_name": null,
    "office_name_kana": null
  },
  "2345": {
    "postcode": "9902345",
    "prefecture": "山形県",
    "prefecture_kana": "ヤマガタケン",
    "prefecture_code": 6,
    "city": "山形市",
    "city_kana": "ヤマガタシ",
    "town": "富神台",
    "town_kana": "トガミダイ",
    "street": null,
    "office_name": null,
    "office_name_kana": null
  },
  "2346": {
    "postcode": "9902346",
    "prefecture": "山形県",
    "prefecture_kana": "ヤマガタケン",
    "prefecture_code": 6,
    "city": "山形市",
    "city_kana": "ヤマガタシ",
    "town": "高木",
    "town_kana": "タカギ",
    "street": null,
    "office_name": null,
    "office_name_kana": null
  },
  "2351": {
    "postcode": "9902351",
    "prefecture": "山形県",
    "prefecture_kana": "ヤマガタケン",
    "prefecture_code": 6,
    "city": "山形市",
    "city_kana": "ヤマガタシ",
    "town": "鋳物町",
    "town_kana": "イモノマチ",
    "street": null,
    "office_name": null,
    "office_name_kana": null
  },
  "2352": {
    "postcode": "9902352",
    "prefecture": "山形県",
    "prefecture_kana": "ヤマガタケン",
    "prefecture_code": 6,
    "city": "山形市",
    "city_kana": "ヤマガタシ",
    "town": "前明石",
    "town_kana": "マエアカシ",
    "street": null,
    "office_name": null,
    "office_name_kana": null
  },
  "2353": {
    "postcode": "9902353",
    "prefecture": "山形県",
    "prefecture_kana": "ヤマガタケン",
    "prefecture_code": 6,
    "city": "山形市",
    "city_kana": "ヤマガタシ",
    "town": "明石堂",
    "town_kana": "アカシドウ",
    "street": null,
    "office_name": null,
    "office_name_kana": null
  },
  "2354": {
    "postcode": "9902354",
    "prefecture": "山形県",
    "prefecture_kana": "ヤマガタケン",
    "prefecture_code": 6,
    "city": "山形市",
    "city_kana": "ヤマガタシ",
    "town": "東二位田",
    "town_kana": "ヒガシニイダ",
    "street": null,
    "office_name": null,
    "office_name_kana": null
  },
  "2355": {
    "postcode": "9902355",
    "prefecture": "山形県",
    "prefecture_kana": "ヤマガタケン",
    "prefecture_code": 6,
    "city": "山形市",
    "city_kana": "ヤマガタシ",
    "town": "二位田",
    "town_kana": "ニイダ",
    "street": null,
    "office_name": null,
    "office_name_kana": null
  },
  "2361": {
    "postcode": "9902361",
    "prefecture": "山形県",
    "prefecture_kana": "ヤマガタケン",
    "prefecture_code": 6,
    "city": "山形市",
    "city_kana": "ヤマガタシ",
    "town": "百目鬼",
    "town_kana": "ドメキ",
    "street": null,
    "office_name": null,
    "office_name_kana": null
  },
  "2362": {
    "postcode": "9902362",
    "prefecture": "山形県",
    "prefecture_kana": "ヤマガタケン",
    "prefecture_code": 6,
    "city": "山形市",
    "city_kana": "ヤマガタシ",
    "town": "菅沢",
    "town_kana": "スゲサワ",
    "street": null,
    "office_name": null,
    "office_name_kana": null
  },
  "2363": {
    "postcode": "9902363",
    "prefecture": "山形県",
    "prefecture_kana": "ヤマガタケン",
    "prefecture_code": 6,
    "city": "山形市",
    "city_kana": "ヤマガタシ",
    "town": "長谷堂",
    "town_kana": "ハセドウ",
    "street": null,
    "office_name": null,
    "office_name_kana": null
  },
  "2364": {
    "postcode": "9902364",
    "prefecture": "山形県",
    "prefecture_kana": "ヤマガタケン",
    "prefecture_code": 6,
    "city": "山形市",
    "city_kana": "ヤマガタシ",
    "town": "大師堂",
    "town_kana": "ダイシドウ",
    "street": null,
    "office_name": null,
    "office_name_kana": null
  },
  "2365": {
    "postcode": "9902365",
    "prefecture": "山形県",
    "prefecture_kana": "ヤマガタケン",
    "prefecture_code": 6,
    "city": "山形市",
    "city_kana": "ヤマガタシ",
    "town": "御手作",
    "town_kana": "オテサク",
    "street": null,
    "office_name": null,
    "office_name_kana": null
  },
  "2366": {
    "postcode": "9902366",
    "prefecture": "山形県",
    "prefecture_kana": "ヤマガタケン",
    "prefecture_code": 6,
    "city": "山形市",
    "city_kana": "ヤマガタシ",
    "town": "谷地前",
    "town_kana": "ヤチマエ",
    "street": null,
    "office_name": null,
    "office_name_kana": null
  },
  "2367": {
    "postcode": "9902367",
    "prefecture": "山形県",
    "prefecture_kana": "ヤマガタケン",
    "prefecture_code": 6,
    "city": "山形市",
    "city_kana": "ヤマガタシ",
    "town": "すげさわの丘",
    "town_kana": "スゲサワノオカ",
    "street": null,
    "office_name": null,
    "office_name_kana": null
  },
  "2371": {
    "postcode": "9902371",
    "prefecture": "山形県",
    "prefecture_kana": "ヤマガタケン",
    "prefecture_code": 6,
    "city": "山形市",
    "city_kana": "ヤマガタシ",
    "town": "村木沢",
    "town_kana": "ムラキザワ",
    "street": null,
    "office_name": null,
    "office_name_kana": null
  },
  "2372": {
    "postcode": "9902372",
    "prefecture": "山形県",
    "prefecture_kana": "ヤマガタケン",
    "prefecture_code": 6,
    "city": "山形市",
    "city_kana": "ヤマガタシ",
    "town": "みのりが丘",
    "town_kana": "ミノリガオカ",
    "street": null,
    "office_name": null,
    "office_name_kana": null
  },
  "2373": {
    "postcode": "9902373",
    "prefecture": "山形県",
    "prefecture_kana": "ヤマガタケン",
    "prefecture_code": 6,
    "city": "山形市",
    "city_kana": "ヤマガタシ",
    "town": "若木",
    "town_kana": "ワカギ",
    "street": null,
    "office_name": null,
    "office_name_kana": null
  },
  "2374": {
    "postcode": "9902374",
    "prefecture": "山形県",
    "prefecture_kana": "ヤマガタケン",
    "prefecture_code": 6,
    "city": "山形市",
    "city_kana": "ヤマガタシ",
    "town": "古館",
    "town_kana": "フルダテ",
    "street": null,
    "office_name": null,
    "office_name_kana": null
  },
  "2375": {
    "postcode": "9902375",
    "prefecture": "山形県",
    "prefecture_kana": "ヤマガタケン",
    "prefecture_code": 6,
    "city": "山形市",
    "city_kana": "ヤマガタシ",
    "town": "東古館",
    "town_kana": "ヒガシフルダテ",
    "street": null,
    "office_name": null,
    "office_name_kana": null
  },
  "2376": {
    "postcode": "9902376",
    "prefecture": "山形県",
    "prefecture_kana": "ヤマガタケン",
    "prefecture_code": 6,
    "city": "山形市",
    "city_kana": "ヤマガタシ",
    "town": "桜ケ丘",
    "town_kana": "サクラガオカ",
    "street": null,
    "office_name": null,
    "office_name_kana": null
  },
  "2377": {
    "postcode": "9902377",
    "prefecture": "山形県",
    "prefecture_kana": "ヤマガタケン",
    "prefecture_code": 6,
    "city": "山形市",
    "city_kana": "ヤマガタシ",
    "town": "藤沢川",
    "town_kana": "フジサワガワ",
    "street": null,
    "office_name": null,
    "office_name_kana": null
  },
  "2378": {
    "postcode": "9902378",
    "prefecture": "山形県",
    "prefecture_kana": "ヤマガタケン",
    "prefecture_code": 6,
    "city": "山形市",
    "city_kana": "ヤマガタシ",
    "town": "反町",
    "town_kana": "ソリマチ",
    "street": null,
    "office_name": null,
    "office_name_kana": null
  },
  "2381": {
    "postcode": "9902381",
    "prefecture": "山形県",
    "prefecture_kana": "ヤマガタケン",
    "prefecture_code": 6,
    "city": "山形市",
    "city_kana": "ヤマガタシ",
    "town": "常明寺",
    "town_kana": "ジョウミョウジ",
    "street": null,
    "office_name": null,
    "office_name_kana": null
  },
  "2382": {
    "postcode": "9902382",
    "prefecture": "山形県",
    "prefecture_kana": "ヤマガタケン",
    "prefecture_code": 6,
    "city": "山形市",
    "city_kana": "ヤマガタシ",
    "town": "滝平",
    "town_kana": "タキノヒラ",
    "street": null,
    "office_name": null,
    "office_name_kana": null
  },
  "2383": {
    "postcode": "9902383",
    "prefecture": "山形県",
    "prefecture_kana": "ヤマガタケン",
    "prefecture_code": 6,
    "city": "山形市",
    "city_kana": "ヤマガタシ",
    "town": "芳沢",
    "town_kana": "ヨシザワ",
    "street": null,
    "office_name": null,
    "office_name_kana": null
  },
  "2384": {
    "postcode": "9902384",
    "prefecture": "山形県",
    "prefecture_kana": "ヤマガタケン",
    "prefecture_code": 6,
    "city": "山形市",
    "city_kana": "ヤマガタシ",
    "town": "上反田",
    "town_kana": "カミソリダ",
    "street": null,
    "office_name": null,
    "office_name_kana": null
  },
  "2385": {
    "postcode": "9902385",
    "prefecture": "山形県",
    "prefecture_kana": "ヤマガタケン",
    "prefecture_code": 6,
    "city": "山形市",
    "city_kana": "ヤマガタシ",
    "town": "下反田",
    "town_kana": "シモソリダ",
    "street": null,
    "office_name": null,
    "office_name_kana": null
  },
  "2386": {
    "postcode": "9902386",
    "prefecture": "山形県",
    "prefecture_kana": "ヤマガタケン",
    "prefecture_code": 6,
    "city": "山形市",
    "city_kana": "ヤマガタシ",
    "town": "並柳",
    "town_kana": "ナミヤナギ",
    "street": null,
    "office_name": null,
    "office_name_kana": null
  },
  "2401": {
    "postcode": "9902401",
    "prefecture": "山形県",
    "prefecture_kana": "ヤマガタケン",
    "prefecture_code": 6,
    "city": "山形市",
    "city_kana": "ヤマガタシ",
    "town": "平清水",
    "town_kana": "ヒラシミズ",
    "street": null,
    "office_name": null,
    "office_name_kana": null
  },
  "2402": {
    "postcode": "9902402",
    "prefecture": "山形県",
    "prefecture_kana": "ヤマガタケン",
    "prefecture_code": 6,
    "city": "山形市",
    "city_kana": "ヤマガタシ",
    "town": "小立",
    "town_kana": "オダチ",
    "street": null,
    "office_name": null,
    "office_name_kana": null
  },
  "2403": {
    "postcode": "9902403",
    "prefecture": "山形県",
    "prefecture_kana": "ヤマガタケン",
    "prefecture_code": 6,
    "city": "山形市",
    "city_kana": "ヤマガタシ",
    "town": "岩波",
    "town_kana": "イワナミ",
    "street": null,
    "office_name": null,
    "office_name_kana": null
  },
  "2404": {
    "postcode": "9902404",
    "prefecture": "山形県",
    "prefecture_kana": "ヤマガタケン",
    "prefecture_code": 6,
    "city": "山形市",
    "city_kana": "ヤマガタシ",
    "town": "八森",
    "town_kana": "ハチモリ",
    "street": null,
    "office_name": null,
    "office_name_kana": null
  },
  "2405": {
    "postcode": "9902405",
    "prefecture": "山形県",
    "prefecture_kana": "ヤマガタケン",
    "prefecture_code": 6,
    "city": "山形市",
    "city_kana": "ヤマガタシ",
    "town": "土坂",
    "town_kana": "ツチザカ",
    "street": null,
    "office_name": null,
    "office_name_kana": null
  },
  "2406": {
    "postcode": "9902406",
    "prefecture": "山形県",
    "prefecture_kana": "ヤマガタケン",
    "prefecture_code": 6,
    "city": "山形市",
    "city_kana": "ヤマガタシ",
    "town": "神尾",
    "town_kana": "カンノウ",
    "street": null,
    "office_name": null,
    "office_name_kana": null
  },
  "2411": {
    "postcode": "9902411",
    "prefecture": "山形県",
    "prefecture_kana": "ヤマガタケン",
    "prefecture_code": 6,
    "city": "山形市",
    "city_kana": "ヤマガタシ",
    "town": "前田町",
    "town_kana": "マエタマチ",
    "street": null,
    "office_name": null,
    "office_name_kana": null
  },
  "2412": {
    "postcode": "9902412",
    "prefecture": "山形県",
    "prefecture_kana": "ヤマガタケン",
    "prefecture_code": 6,
    "city": "山形市",
    "city_kana": "ヤマガタシ",
    "town": "松山",
    "town_kana": "マツヤマ",
    "street": null,
    "office_name": null,
    "office_name_kana": null
  },
  "2413": {
    "postcode": "9902413",
    "prefecture": "山形県",
    "prefecture_kana": "ヤマガタケン",
    "prefecture_code": 6,
    "city": "山形市",
    "city_kana": "ヤマガタシ",
    "town": "南原町",
    "town_kana": "ミナミハラマチ",
    "street": null,
    "office_name": null,
    "office_name_kana": null
  },
  "2414": {
    "postcode": "9902414",
    "prefecture": "山形県",
    "prefecture_kana": "ヤマガタケン",
    "prefecture_code": 6,
    "city": "山形市",
    "city_kana": "ヤマガタシ",
    "town": "寿町",
    "town_kana": "コトブキチョウ",
    "street": null,
    "office_name": null,
    "office_name_kana": null
  },
  "2421": {
    "postcode": "9902421",
    "prefecture": "山形県",
    "prefecture_kana": "ヤマガタケン",
    "prefecture_code": 6,
    "city": "山形市",
    "city_kana": "ヤマガタシ",
    "town": "上桜田",
    "town_kana": "カミサクラダ",
    "street": null,
    "office_name": null,
    "office_name_kana": null
  },
  "2422": {
    "postcode": "9902422",
    "prefecture": "山形県",
    "prefecture_kana": "ヤマガタケン",
    "prefecture_code": 6,
    "city": "山形市",
    "city_kana": "ヤマガタシ",
    "town": "中桜田",
    "town_kana": "ナカサクラダ",
    "street": null,
    "office_name": null,
    "office_name_kana": null
  },
  "2423": {
    "postcode": "9902423",
    "prefecture": "山形県",
    "prefecture_kana": "ヤマガタケン",
    "prefecture_code": 6,
    "city": "山形市",
    "city_kana": "ヤマガタシ",
    "town": "東青田",
    "town_kana": "ヒガシアオタ",
    "street": null,
    "office_name": null,
    "office_name_kana": null
  },
  "2431": {
    "postcode": "9902431",
    "prefecture": "山形県",
    "prefecture_kana": "ヤマガタケン",
    "prefecture_code": 6,
    "city": "山形市",
    "city_kana": "ヤマガタシ",
    "town": "松見町",
    "town_kana": "マツミチョウ",
    "street": null,
    "office_name": null,
    "office_name_kana": null
  },
  "2432": {
    "postcode": "9902432",
    "prefecture": "山形県",
    "prefecture_kana": "ヤマガタケン",
    "prefecture_code": 6,
    "city": "山形市",
    "city_kana": "ヤマガタシ",
    "town": "荒楯町",
    "town_kana": "アラタテチョウ",
    "street": null,
    "office_name": null,
    "office_name_kana": null
  },
  "2433": {
    "postcode": "9902433",
    "prefecture": "山形県",
    "prefecture_kana": "ヤマガタケン",
    "prefecture_code": 6,
    "city": "山形市",
    "city_kana": "ヤマガタシ",
    "town": "鳥居ケ丘",
    "town_kana": "トリイガオカ",
    "street": null,
    "office_name": null,
    "office_name_kana": null
  },
  "2434": {
    "postcode": "9902434",
    "prefecture": "山形県",
    "prefecture_kana": "ヤマガタケン",
    "prefecture_code": 6,
    "city": "山形市",
    "city_kana": "ヤマガタシ",
    "town": "旭が丘",
    "town_kana": "アサヒガオカ",
    "street": null,
    "office_name": null,
    "office_name_kana": null
  },
  "2435": {
    "postcode": "9902435",
    "prefecture": "山形県",
    "prefecture_kana": "ヤマガタケン",
    "prefecture_code": 6,
    "city": "山形市",
    "city_kana": "ヤマガタシ",
    "town": "青田",
    "town_kana": "アオタ",
    "street": null,
    "office_name": null,
    "office_name_kana": null
  },
  "2441": {
    "postcode": "9902441",
    "prefecture": "山形県",
    "prefecture_kana": "ヤマガタケン",
    "prefecture_code": 6,
    "city": "山形市",
    "city_kana": "ヤマガタシ",
    "town": "南一番町",
    "town_kana": "ミナミ1バンチョウ",
    "street": null,
    "office_name": null,
    "office_name_kana": null
  },
  "2442": {
    "postcode": "9902442",
    "prefecture": "山形県",
    "prefecture_kana": "ヤマガタケン",
    "prefecture_code": 6,
    "city": "山形市",
    "city_kana": "ヤマガタシ",
    "town": "南二番町",
    "town_kana": "ミナミ2バンチョウ",
    "street": null,
    "office_name": null,
    "office_name_kana": null
  },
  "2443": {
    "postcode": "9902443",
    "prefecture": "山形県",
    "prefecture_kana": "ヤマガタケン",
    "prefecture_code": 6,
    "city": "山形市",
    "city_kana": "ヤマガタシ",
    "town": "南三番町",
    "town_kana": "ミナミ3バンチョウ",
    "street": null,
    "office_name": null,
    "office_name_kana": null
  },
  "2444": {
    "postcode": "9902444",
    "prefecture": "山形県",
    "prefecture_kana": "ヤマガタケン",
    "prefecture_code": 6,
    "city": "山形市",
    "city_kana": "ヤマガタシ",
    "town": "南四番町",
    "town_kana": "ミナミ4バンチョウ",
    "street": null,
    "office_name": null,
    "office_name_kana": null
  },
  "2445": {
    "postcode": "9902445",
    "prefecture": "山形県",
    "prefecture_kana": "ヤマガタケン",
    "prefecture_code": 6,
    "city": "山形市",
    "city_kana": "ヤマガタシ",
    "town": "南栄町",
    "town_kana": "ナンエイチョウ",
    "street": null,
    "office_name": null,
    "office_name_kana": null
  },
  "2446": {
    "postcode": "9902446",
    "prefecture": "山形県",
    "prefecture_kana": "ヤマガタケン",
    "prefecture_code": 6,
    "city": "山形市",
    "city_kana": "ヤマガタシ",
    "town": "白山",
    "town_kana": "ハクサン",
    "street": null,
    "office_name": null,
    "office_name_kana": null
  },
  "2447": {
    "postcode": "9902447",
    "prefecture": "山形県",
    "prefecture_kana": "ヤマガタケン",
    "prefecture_code": 6,
    "city": "山形市",
    "city_kana": "ヤマガタシ",
    "town": "元木",
    "town_kana": "モトキ",
    "street": null,
    "office_name": null,
    "office_name_kana": null
  },
  "2451": {
    "postcode": "9902451",
    "prefecture": "山形県",
    "prefecture_kana": "ヤマガタケン",
    "prefecture_code": 6,
    "city": "山形市",
    "city_kana": "ヤマガタシ",
    "town": "吉原",
    "town_kana": "ヨシハラ",
    "street": null,
    "office_name": null,
    "office_name_kana": null
  },
  "2453": {
    "postcode": "9902453",
    "prefecture": "山形県",
    "prefecture_kana": "ヤマガタケン",
    "prefecture_code": 6,
    "city": "山形市",
    "city_kana": "ヤマガタシ",
    "town": "若宮",
    "town_kana": "ワカミヤ",
    "street": null,
    "office_name": null,
    "office_name_kana": null
  },
  "2455": {
    "postcode": "9902455",
    "prefecture": "山形県",
    "prefecture_kana": "ヤマガタケン",
    "prefecture_code": 6,
    "city": "山形市",
    "city_kana": "ヤマガタシ",
    "town": "吉原南",
    "town_kana": "ヨシハラミナミ",
    "street": null,
    "office_name": null,
    "office_name_kana": null
  },
  "2461": {
    "postcode": "9902461",
    "prefecture": "山形県",
    "prefecture_kana": "ヤマガタケン",
    "prefecture_code": 6,
    "city": "山形市",
    "city_kana": "ヤマガタシ",
    "town": "南館",
    "town_kana": "ミナミダテ",
    "street": null,
    "office_name": null,
    "office_name_kana": null
  },
  "2462": {
    "postcode": "9902462",
    "prefecture": "山形県",
    "prefecture_kana": "ヤマガタケン",
    "prefecture_code": 6,
    "city": "山形市",
    "city_kana": "ヤマガタシ",
    "town": "深町",
    "town_kana": "フカマチ",
    "street": null,
    "office_name": null,
    "office_name_kana": null
  },
  "2463": {
    "postcode": "9902463",
    "prefecture": "山形県",
    "prefecture_kana": "ヤマガタケン",
    "prefecture_code": 6,
    "city": "山形市",
    "city_kana": "ヤマガタシ",
    "town": "富の中",
    "town_kana": "トミノジュウ",
    "street": null,
    "office_name": null,
    "office_name_kana": null
  },
  "2464": {
    "postcode": "9902464",
    "prefecture": "山形県",
    "prefecture_kana": "ヤマガタケン",
    "prefecture_code": 6,
    "city": "山形市",
    "city_kana": "ヤマガタシ",
    "town": "高堂",
    "town_kana": "タカドウ",
    "street": null,
    "office_name": null,
    "office_name_kana": null
  },
  "2465": {
    "postcode": "9902465",
    "prefecture": "山形県",
    "prefecture_kana": "ヤマガタケン",
    "prefecture_code": 6,
    "city": "山形市",
    "city_kana": "ヤマガタシ",
    "town": "南館西",
    "town_kana": "ミナミダテニシ",
    "street": null,
    "office_name": null,
    "office_name_kana": null
  },
  "2471": {
    "postcode": "9902471",
    "prefecture": "山形県",
    "prefecture_kana": "ヤマガタケン",
    "prefecture_code": 6,
    "city": "山形市",
    "city_kana": "ヤマガタシ",
    "town": "羽黒堂",
    "town_kana": "ハグロドウ",
    "street": null,
    "office_name": null,
    "office_name_kana": null
  },
  "2472": {
    "postcode": "9902472",
    "prefecture": "山形県",
    "prefecture_kana": "ヤマガタケン",
    "prefecture_code": 6,
    "city": "山形市",
    "city_kana": "ヤマガタシ",
    "town": "明神前",
    "town_kana": "ミョウジンマエ",
    "street": null,
    "office_name": null,
    "office_name_kana": null
  },
  "2473": {
    "postcode": "9902473",
    "prefecture": "山形県",
    "prefecture_kana": "ヤマガタケン",
    "prefecture_code": 6,
    "city": "山形市",
    "city_kana": "ヤマガタシ",
    "town": "松栄",
    "town_kana": "マツエイ",
    "street": null,
    "office_name": null,
    "office_name_kana": null
  },
  "2474": {
    "postcode": "9902474",
    "prefecture": "山形県",
    "prefecture_kana": "ヤマガタケン",
    "prefecture_code": 6,
    "city": "山形市",
    "city_kana": "ヤマガタシ",
    "town": "沼木",
    "town_kana": "ヌマギ",
    "street": null,
    "office_name": null,
    "office_name_kana": null
  },
  "2475": {
    "postcode": "9902475",
    "prefecture": "山形県",
    "prefecture_kana": "ヤマガタケン",
    "prefecture_code": 6,
    "city": "山形市",
    "city_kana": "ヤマガタシ",
    "town": "木ノ目田",
    "town_kana": "キノメダ",
    "street": null,
    "office_name": null,
    "office_name_kana": null
  },
  "2476": {
    "postcode": "9902476",
    "prefecture": "山形県",
    "prefecture_kana": "ヤマガタケン",
    "prefecture_code": 6,
    "city": "山形市",
    "city_kana": "ヤマガタシ",
    "town": "飯沢",
    "town_kana": "イイザワ",
    "street": null,
    "office_name": null,
    "office_name_kana": null
  },
  "2477": {
    "postcode": "9902477",
    "prefecture": "山形県",
    "prefecture_kana": "ヤマガタケン",
    "prefecture_code": 6,
    "city": "山形市",
    "city_kana": "ヤマガタシ",
    "town": "長苗代",
    "town_kana": "ナガナワシロ",
    "street": null,
    "office_name": null,
    "office_name_kana": null
  },
  "2481": {
    "postcode": "9902481",
    "prefecture": "山形県",
    "prefecture_kana": "ヤマガタケン",
    "prefecture_code": 6,
    "city": "山形市",
    "city_kana": "ヤマガタシ",
    "town": "あかねケ丘",
    "town_kana": "アカネガオカ",
    "street": null,
    "office_name": null,
    "office_name_kana": null
  },
  "2482": {
    "postcode": "9902482",
    "prefecture": "山形県",
    "prefecture_kana": "ヤマガタケン",
    "prefecture_code": 6,
    "city": "山形市",
    "city_kana": "ヤマガタシ",
    "town": "久保田",
    "town_kana": "クボタ",
    "street": null,
    "office_name": null,
    "office_name_kana": null
  },
  "2483": {
    "postcode": "9902483",
    "prefecture": "山形県",
    "prefecture_kana": "ヤマガタケン",
    "prefecture_code": 6,
    "city": "山形市",
    "city_kana": "ヤマガタシ",
    "town": "上町",
    "town_kana": "ウワマチ",
    "street": null,
    "office_name": null,
    "office_name_kana": null
  },
  "2484": {
    "postcode": "9902484",
    "prefecture": "山形県",
    "prefecture_kana": "ヤマガタケン",
    "prefecture_code": 6,
    "city": "山形市",
    "city_kana": "ヤマガタシ",
    "town": "篭田",
    "town_kana": "カゴタ",
    "street": null,
    "office_name": null,
    "office_name_kana": null
  },
  "2491": {
    "postcode": "9902491",
    "prefecture": "山形県",
    "prefecture_kana": "ヤマガタケン",
    "prefecture_code": 6,
    "city": "山形市",
    "city_kana": "ヤマガタシ",
    "town": "あずま町",
    "town_kana": "アズマチョウ",
    "street": null,
    "office_name": null,
    "office_name_kana": null
  },
  "2492": {
    "postcode": "9902492",
    "prefecture": "山形県",
    "prefecture_kana": "ヤマガタケン",
    "prefecture_code": 6,
    "city": "山形市",
    "city_kana": "ヤマガタシ",
    "town": "鉄砲町",
    "town_kana": "テッポウマチ",
    "street": null,
    "office_name": null,
    "office_name_kana": null
  },
  "2493": {
    "postcode": "9902493",
    "prefecture": "山形県",
    "prefecture_kana": "ヤマガタケン",
    "prefecture_code": 6,
    "city": "山形市",
    "city_kana": "ヤマガタシ",
    "town": "美畑町",
    "town_kana": "ミハタチョウ",
    "street": null,
    "office_name": null,
    "office_name_kana": null
  },
  "2494": {
    "postcode": "9902494",
    "prefecture": "山形県",
    "prefecture_kana": "ヤマガタケン",
    "prefecture_code": 6,
    "city": "山形市",
    "city_kana": "ヤマガタシ",
    "town": "末広町",
    "town_kana": "スエヒロチョウ",
    "street": null,
    "office_name": null,
    "office_name_kana": null
  },
  "2495": {
    "postcode": "9902495",
    "prefecture": "山形県",
    "prefecture_kana": "ヤマガタケン",
    "prefecture_code": 6,
    "city": "山形市",
    "city_kana": "ヤマガタシ",
    "town": "若葉町",
    "town_kana": "ワカバチョウ",
    "street": null,
    "office_name": null,
    "office_name_kana": null
  },
  "8501": {
    "postcode": "9908501",
    "prefecture": "山形県",
    "prefecture_kana": "ヤマガタケン",
    "prefecture_code": 6,
    "city": "山形市",
    "city_kana": "ヤマガタシ",
    "town": "七日町",
    "town_kana": "ナヌカマチ",
    "street": "３丁目１番９号",
    "office_name": "山形商工会議所",
    "office_name_kana": "ヤマガタシヨウコウカイギシヨ"
  },
  "8502": {
    "postcode": "9908502",
    "prefecture": "山形県",
    "prefecture_kana": "ヤマガタケン",
    "prefecture_code": 6,
    "city": "山形市",
    "city_kana": "ヤマガタシ",
    "town": "江俣",
    "town_kana": "エマタ",
    "street": "２丁目１２番１５号",
    "office_name": "株式会社　タルイシ",
    "office_name_kana": "カブシキガイシヤ タルイシ"
  },
  "8506": {
    "postcode": "9908506",
    "prefecture": "山形県",
    "prefecture_kana": "ヤマガタケン",
    "prefecture_code": 6,
    "city": "山形市",
    "city_kana": "ヤマガタシ",
    "town": "清住町",
    "town_kana": "キヨズミマチ",
    "street": "３丁目２−４５",
    "office_name": "（株）　でん六",
    "office_name_kana": "カブシキガイシヤ デンロク"
  },
  "8510": {
    "postcode": "9908510",
    "prefecture": "山形県",
    "prefecture_kana": "ヤマガタケン",
    "prefecture_code": 6,
    "city": "山形市",
    "city_kana": "ヤマガタシ",
    "town": "和合町",
    "town_kana": "ワゴウマチ",
    "street": "３丁目２−５",
    "office_name": "公立学校　共済組合　東北中央病院",
    "office_name_kana": "コウリツガツコウ キヨウサイクミアイ トウホクチユウオウビヨウイン"
  },
  "8511": {
    "postcode": "9908511",
    "prefecture": "山形県",
    "prefecture_kana": "ヤマガタケン",
    "prefecture_code": 6,
    "city": "山形市",
    "city_kana": "ヤマガタシ",
    "town": "城西町",
    "town_kana": "シロニシマチ",
    "street": "５丁目４−１",
    "office_name": "株式会社　山形テレビ",
    "office_name_kana": "カブシキガイシヤ ヤマガタテレビ"
  },
  "8512": {
    "postcode": "9908512",
    "prefecture": "山形県",
    "prefecture_kana": "ヤマガタケン",
    "prefecture_code": 6,
    "city": "山形市",
    "city_kana": "ヤマガタシ",
    "town": "北町",
    "town_kana": "キタマチ",
    "street": "１丁目５−１２",
    "office_name": "株式会社　吉田",
    "office_name_kana": "カブシキガイシヤ ヨシダ"
  },
  "8519": {
    "postcode": "9908519",
    "prefecture": "山形県",
    "prefecture_kana": "ヤマガタケン",
    "prefecture_code": 6,
    "city": "山形市",
    "city_kana": "ヤマガタシ",
    "town": "薬師町",
    "town_kana": "ヤクシマチ",
    "street": "２丁目１８−１",
    "office_name": "東日本電信電話　株式会社　山形支店",
    "office_name_kana": "ヒガシニホンデンシンデンワ カブシキガイシヤ ヤマガタシテン"
  },
  "8521": {
    "postcode": "9908521",
    "prefecture": "山形県",
    "prefecture_kana": "ヤマガタケン",
    "prefecture_code": 6,
    "city": "山形市",
    "city_kana": "ヤマガタシ",
    "town": "香澄町",
    "town_kana": "カスミチョウ",
    "street": "２丁目２−３６山形センタービル６Ｆ",
    "office_name": "山形ニコス　株式会社",
    "office_name_kana": "ヤマガタニコス カブシキガイシヤ"
  },
  "8522": {
    "postcode": "9908522",
    "prefecture": "山形県",
    "prefecture_kana": "ヤマガタケン",
    "prefecture_code": 6,
    "city": "山形市",
    "city_kana": "ヤマガタシ",
    "town": "松波",
    "town_kana": "マツナミ",
    "street": "１丁目１番５号",
    "office_name": "東京海上日動火災保険　株式会社　山形支店",
    "office_name_kana": "トウキヨウカイジヨウニチドウカサイホケン カブシキカイシヤ ヤマガタシテン"
  },
  "8525": {
    "postcode": "9908525",
    "prefecture": "山形県",
    "prefecture_kana": "ヤマガタケン",
    "prefecture_code": 6,
    "city": "山形市",
    "city_kana": "ヤマガタシ",
    "town": "緑町",
    "town_kana": "ミドリチョウ",
    "street": "１丁目５−８７",
    "office_name": "山形県立　山形東高等学校",
    "office_name_kana": "ヤマガタケンリツ ヤマガタヒガシコウトウガツコウ"
  },
  "8531": {
    "postcode": "9908531",
    "prefecture": "山形県",
    "prefecture_kana": "ヤマガタケン",
    "prefecture_code": 6,
    "city": "山形市",
    "city_kana": "ヤマガタシ",
    "town": "旅篭町",
    "town_kana": "ハタゴマチ",
    "street": "２丁目４−２２",
    "office_name": "山形地方裁判所",
    "office_name_kana": "ヤマガタチホウサイバンシヨ"
  },
  "8533": {
    "postcode": "9908533",
    "prefecture": "山形県",
    "prefecture_kana": "ヤマガタケン",
    "prefecture_code": 6,
    "city": "山形市",
    "city_kana": "ヤマガタシ",
    "town": "七日町",
    "town_kana": "ナヌカマチ",
    "street": "１丁目３−２６",
    "office_name": "山形市立病院済生館",
    "office_name_kana": "ヤマガタシリツビヨウインサイセイカン"
  },
  "8535": {
    "postcode": "9908535",
    "prefecture": "山形県",
    "prefecture_kana": "ヤマガタケン",
    "prefecture_code": 6,
    "city": "山形市",
    "city_kana": "ヤマガタシ",
    "town": "旅篭町",
    "town_kana": "ハタゴマチ",
    "street": "１丁目１２−３５",
    "office_name": "山形農業協同組合",
    "office_name_kana": "ヤマガタノウギヨウキヨウドウクミアイ"
  },
  "8539": {
    "postcode": "9908539",
    "prefecture": "山形県",
    "prefecture_kana": "ヤマガタケン",
    "prefecture_code": 6,
    "city": "山形市",
    "city_kana": "ヤマガタシ",
    "town": "落合町",
    "town_kana": "オチアイマチ",
    "street": "８５",
    "office_name": "株式会社　さくらんぼテレビジヨン",
    "office_name_kana": "カブシキガイシヤ サクランボテレビジヨン"
  },
  "8540": {
    "postcode": "9908540",
    "prefecture": "山形県",
    "prefecture_kana": "ヤマガタケン",
    "prefecture_code": 6,
    "city": "山形市",
    "city_kana": "ヤマガタシ",
    "town": "旅篭町",
    "town_kana": "ハタゴマチ",
    "street": "２丁目３−２５",
    "office_name": "山形市役所",
    "office_name_kana": "ヤマガタシヤクシヨ"
  },
  "8545": {
    "postcode": "9908545",
    "prefecture": "山形県",
    "prefecture_kana": "ヤマガタケン",
    "prefecture_code": 6,
    "city": "山形市",
    "city_kana": "ヤマガタシ",
    "town": "沖町",
    "town_kana": "オキマチ",
    "street": "７９−１",
    "office_name": "社会福祉法人　恩賜財団　済生会　山形済生病院",
    "office_name_kana": "シヤカイフクシホウジン オンシザイダン サイセイカイ ヤマガタサイセイビヨウイン"
  },
  "8550": {
    "postcode": "9908550",
    "prefecture": "山形県",
    "prefecture_kana": "ヤマガタケン",
    "prefecture_code": 6,
    "city": "山形市",
    "city_kana": "ヤマガタシ",
    "town": "旅篭町",
    "town_kana": "ハタゴマチ",
    "street": "２丁目５−１２",
    "office_name": "株式会社　山形新聞社",
    "office_name_kana": "カブシキカイシヤ ヤマガタシンブンシヤ"
  },
  "8551": {
    "postcode": "9908551",
    "prefecture": "山形県",
    "prefecture_kana": "ヤマガタケン",
    "prefecture_code": 6,
    "city": "山形市",
    "city_kana": "ヤマガタシ",
    "town": "幸町",
    "town_kana": "サイワイチョウ",
    "street": "２番８号",
    "office_name": "株式会社　中合十字屋　山形店",
    "office_name_kana": "カブシキカイシヤ ナカゴウジユウジヤ ヤマガタテン"
  },
  "8555": {
    "postcode": "9908555",
    "prefecture": "山形県",
    "prefecture_kana": "ヤマガタケン",
    "prefecture_code": 6,
    "city": "山形市",
    "city_kana": "ヤマガタシ",
    "town": "旅篭町",
    "town_kana": "ハタゴマチ",
    "street": "２丁目５−１２",
    "office_name": "山形放送　株式会社",
    "office_name_kana": "ヤマガタホウソウ カブシキカイシヤ"
  },
  "8558": {
    "postcode": "9908558",
    "prefecture": "山形県",
    "prefecture_kana": "ヤマガタケン",
    "prefecture_code": 6,
    "city": "山形市",
    "city_kana": "ヤマガタシ",
    "town": "穂積",
    "town_kana": "ホヅミ",
    "street": "８５",
    "office_name": "遠藤商事　株式会社",
    "office_name_kana": "エンドウシヨウジ カブシキガイシヤ"
  },
  "8560": {
    "postcode": "9908560",
    "prefecture": "山形県",
    "prefecture_kana": "ヤマガタケン",
    "prefecture_code": 6,
    "city": "山形市",
    "city_kana": "ヤマガタシ",
    "town": "小白川町",
    "town_kana": "コジラカワマチ",
    "street": "１丁目４−１２",
    "office_name": "山形大学（事務局）（人文学部）（地域教育文化学部）（理学部）（附属図書館）",
    "office_name_kana": "ヤマガタダイガク(ジムキヨク)(ジンブンガクブ)(チイキキヨウイクブンカガクブ)(リガクブ)(フゾクトシヨカン)"
  },
  "8566": {
    "postcode": "9908566",
    "prefecture": "山形県",
    "prefecture_kana": "ヤマガタケン",
    "prefecture_code": 6,
    "city": "山形市",
    "city_kana": "ヤマガタシ",
    "town": "香澄町",
    "town_kana": "カスミチョウ",
    "street": "３丁目２−１山交ビル",
    "office_name": "ルネサスマイクロシステム　株式会社",
    "office_name_kana": "ルネサスマイクロシステム カブシキガイシヤ"
  },
  "8567": {
    "postcode": "9908567",
    "prefecture": "山形県",
    "prefecture_kana": "ヤマガタケン",
    "prefecture_code": 6,
    "city": "山形市",
    "city_kana": "ヤマガタシ",
    "town": "香澄町",
    "town_kana": "カスミチョウ",
    "street": "３丁目２−１ヤマコービル３階",
    "office_name": "山形労働局",
    "office_name_kana": "ヤマガタロウドウキヨク"
  },
  "8570": {
    "postcode": "9908570",
    "prefecture": "山形県",
    "prefecture_kana": "ヤマガタケン",
    "prefecture_code": 6,
    "city": "山形市",
    "city_kana": "ヤマガタシ",
    "town": "松波",
    "town_kana": "マツナミ",
    "street": "２丁目８−１",
    "office_name": "山形県庁",
    "office_name_kana": "ヤマガタケンチヨウ"
  },
  "8571": {
    "postcode": "9908571",
    "prefecture": "山形県",
    "prefecture_kana": "ヤマガタケン",
    "prefecture_code": 6,
    "city": "山形市",
    "city_kana": "ヤマガタシ",
    "town": "七日町",
    "town_kana": "ナヌカマチ",
    "street": "１丁目２−３０",
    "office_name": "株式会社　大沼",
    "office_name_kana": "カブシキガイシヤ オオヌマ"
  },
  "8575": {
    "postcode": "9908575",
    "prefecture": "山形県",
    "prefecture_kana": "ヤマガタケン",
    "prefecture_code": 6,
    "city": "山形市",
    "city_kana": "ヤマガタシ",
    "town": "桜町",
    "town_kana": "サクラチョウ",
    "street": "２−５０",
    "office_name": "日本放送協会　山形放送局",
    "office_name_kana": "ニツポンホウソウキヨウカイ ヤマガタホウソウキヨク"
  },
  "8577": {
    "postcode": "9908577",
    "prefecture": "山形県",
    "prefecture_kana": "ヤマガタケン",
    "prefecture_code": 6,
    "city": "山形市",
    "city_kana": "ヤマガタシ",
    "town": "松波",
    "town_kana": "マツナミ",
    "street": "２丁目８−１",
    "office_name": "山形県　警察本部",
    "office_name_kana": "ヤマガタケン ケイサツホンブ"
  },
  "8578": {
    "postcode": "9908578",
    "prefecture": "山形県",
    "prefecture_kana": "ヤマガタケン",
    "prefecture_code": 6,
    "city": "山形市",
    "city_kana": "ヤマガタシ",
    "town": "旅篭町",
    "town_kana": "ハタゴマチ",
    "street": "３丁目２−３",
    "office_name": "株式会社　きらやかホールディングス",
    "office_name_kana": "カブシキガイシヤ キラヤカホ-ルデイングス"
  },
  "8580": {
    "postcode": "9908580",
    "prefecture": "山形県",
    "prefecture_kana": "ヤマガタケン",
    "prefecture_code": 6,
    "city": "山形市",
    "city_kana": "ヤマガタシ",
    "town": "城南町",
    "town_kana": "ジョウナンマチ",
    "street": "１丁目１６−１",
    "office_name": "霞城セントラル",
    "office_name_kana": "カジヨウセントラル"
  },
  "8585": {
    "postcode": "9908585",
    "prefecture": "山形県",
    "prefecture_kana": "ヤマガタケン",
    "prefecture_code": 6,
    "city": "山形市",
    "city_kana": "ヤマガタシ",
    "town": "あこや町",
    "town_kana": "アコヤチョウ",
    "street": "３丁目８−９",
    "office_name": "（株）　ヤマザワ",
    "office_name_kana": "カブシキカイシヤ ヤマザワ"
  },
  "8587": {
    "postcode": "9908587",
    "prefecture": "山形県",
    "prefecture_kana": "ヤマガタケン",
    "prefecture_code": 6,
    "city": "山形市",
    "city_kana": "ヤマガタシ",
    "town": "幸町",
    "town_kana": "サイワイチョウ",
    "street": "１８−２０ＪＡ山形市本店ビル",
    "office_name": "全国健康保険協会　山形支部",
    "office_name_kana": "ゼンコクケンコウホケンキヨウカイ ヤマガタシブ"
  },
  "8601": {
    "postcode": "9908601",
    "prefecture": "山形県",
    "prefecture_kana": "ヤマガタケン",
    "prefecture_code": 6,
    "city": "山形市",
    "city_kana": "ヤマガタシ",
    "town": "大手町",
    "town_kana": "オオテマチ",
    "street": "１番２３号山形税務署内",
    "office_name": "仙台国税局業務センター　山形分室",
    "office_name_kana": "センダイコクゼイキヨクギヨウムセンタ- ヤマガタブンシツ"
  },
  "8606": {
    "postcode": "9908606",
    "prefecture": "山形県",
    "prefecture_kana": "ヤマガタケン",
    "prefecture_code": 6,
    "city": "山形市",
    "city_kana": "ヤマガタシ",
    "town": "大手町",
    "town_kana": "オオテマチ",
    "street": "１−２３",
    "office_name": "山形税務署",
    "office_name_kana": "ヤマガタゼイムシヨ"
  },
  "8611": {
    "postcode": "9908611",
    "prefecture": "山形県",
    "prefecture_kana": "ヤマガタケン",
    "prefecture_code": 6,
    "city": "山形市",
    "city_kana": "ヤマガタシ",
    "town": "旅篭町",
    "town_kana": "ハタゴマチ",
    "street": "３丁目２−３（山形中央郵便局私書箱第１号）",
    "office_name": "株式会社　きらやか銀行",
    "office_name_kana": "カブシキガイシヤ キラヤカギンコウ"
  },
  "8622": {
    "postcode": "9908622",
    "prefecture": "山形県",
    "prefecture_kana": "ヤマガタケン",
    "prefecture_code": 6,
    "city": "山形市",
    "city_kana": "ヤマガタシ",
    "town": "七日町",
    "town_kana": "ナヌカマチ",
    "street": "３丁目１−１６",
    "office_name": "全国農業協同組合連合会　山形県本部",
    "office_name_kana": "ゼンコクノウギヨウキヨウドウクミアイレンゴウカイ ヤマガタケンホンブ"
  },
  "8642": {
    "postcode": "9908642",
    "prefecture": "山形県",
    "prefecture_kana": "ヤマガタケン",
    "prefecture_code": 6,
    "city": "山形市",
    "city_kana": "ヤマガタシ",
    "town": "七日町",
    "town_kana": "ナヌカマチ",
    "street": "３丁目１−２（山形中央郵便局私書箱第７号）",
    "office_name": "株式会社　山形銀行",
    "office_name_kana": "カブシキガイシヤ ヤマガタギンコウ"
  },
  "8668": {
    "postcode": "9908668",
    "prefecture": "山形県",
    "prefecture_kana": "ヤマガタケン",
    "prefecture_code": 6,
    "city": "山形市",
    "city_kana": "ヤマガタシ",
    "town": "流通センター",
    "town_kana": "リュウツウセンター",
    "street": "１丁目９−２",
    "office_name": "オビサン　（株）",
    "office_name_kana": "オビサン カブシキカイシヤ"
  },
  "8670": {
    "postcode": "9908670",
    "prefecture": "山形県",
    "prefecture_kana": "ヤマガタケン",
    "prefecture_code": 6,
    "city": "山形市",
    "city_kana": "ヤマガタシ",
    "town": "流通センター",
    "town_kana": "リュウツウセンター",
    "street": "２丁目８−４",
    "office_name": "ネムール　（株）",
    "office_name_kana": "ネム-ル カブシキカイシヤ"
  },
  "8677": {
    "postcode": "9908677",
    "prefecture": "山形県",
    "prefecture_kana": "ヤマガタケン",
    "prefecture_code": 6,
    "city": "山形市",
    "city_kana": "ヤマガタシ",
    "town": "北田",
    "town_kana": "キタダ",
    "street": "６９",
    "office_name": "株式会社　シブヤ",
    "office_name_kana": "カブシキガイシヤ シブヤ"
  },
  "8678": {
    "postcode": "9908678",
    "prefecture": "山形県",
    "prefecture_kana": "ヤマガタケン",
    "prefecture_code": 6,
    "city": "山形市",
    "city_kana": "ヤマガタシ",
    "town": "流通センター",
    "town_kana": "リュウツウセンター",
    "street": "３丁目８−１",
    "office_name": "株式会社　ヤマケン",
    "office_name_kana": "カブシキガイシヤ ヤマケン"
  },
  "8794": {
    "postcode": "9908794",
    "prefecture": "山形県",
    "prefecture_kana": "ヤマガタケン",
    "prefecture_code": 6,
    "city": "山形市",
    "city_kana": "ヤマガタシ",
    "town": "十日町",
    "town_kana": "トウカマチ",
    "street": "１丁目７−２４",
    "office_name": "山形店　法人サービス部",
    "office_name_kana": "ヤマガタテン ホウジンサ-ビスブ"
  },
  "9506": {
    "postcode": "9909506",
    "prefecture": "山形県",
    "prefecture_kana": "ヤマガタケン",
    "prefecture_code": 6,
    "city": "山形市",
    "city_kana": "ヤマガタシ",
    "town": "鉄砲町",
    "town_kana": "テッポウマチ",
    "street": "２丁目１０−７３",
    "office_name": "山形県立　山形中央高等学校",
    "office_name_kana": "ヤマガタケンリツ ヤマガタチユウオウコウトウガツコウ"
  },
  "9530": {
    "postcode": "9909530",
    "prefecture": "山形県",
    "prefecture_kana": "ヤマガタケン",
    "prefecture_code": 6,
    "city": "山形市",
    "city_kana": "ヤマガタシ",
    "town": "上桜田",
    "town_kana": "カミサクラダ",
    "street": "３丁目４番５号",
    "office_name": "学校法人　東北芸術工科大学",
    "office_name_kana": "ガツコウホウジン トウホクゲイジユツコウカダイガク"
  },
  "9536": {
    "postcode": "9909536",
    "prefecture": "山形県",
    "prefecture_kana": "ヤマガタケン",
    "prefecture_code": 6,
    "city": "山形市",
    "city_kana": "ヤマガタシ",
    "town": "白山",
    "town_kana": "ハクサン",
    "street": "１丁目１１−３３",
    "office_name": "株式会社　テレビユー山形",
    "office_name_kana": "カブシキガイシヤ テレビユ-ヤマガタ"
  },
  "9559": {
    "postcode": "9909559",
    "prefecture": "山形県",
    "prefecture_kana": "ヤマガタケン",
    "prefecture_code": 6,
    "city": "山形市",
    "city_kana": "ヤマガタシ",
    "town": "鉄砲町",
    "town_kana": "テッポウマチ",
    "street": "２丁目１５番１号",
    "office_name": "山形県　社会保険診療報酬支払基金",
    "office_name_kana": "ヤマガタケン シヤカイホケンシンリヨウホウシユウシハライキキン"
  },
  "9567": {
    "postcode": "9909567",
    "prefecture": "山形県",
    "prefecture_kana": "ヤマガタケン",
    "prefecture_code": 6,
    "city": "山形市",
    "city_kana": "ヤマガタシ",
    "town": "鉄砲町",
    "town_kana": "テッポウマチ",
    "street": "２丁目１３−１８",
    "office_name": "山交観光　株式会社",
    "office_name_kana": "ヤマコウカンコウ カブシキカイシヤ"
  },
  "9578": {
    "postcode": "9909578",
    "prefecture": "山形県",
    "prefecture_kana": "ヤマガタケン",
    "prefecture_code": 6,
    "city": "山形市",
    "city_kana": "ヤマガタシ",
    "town": "中桜田",
    "town_kana": "ナカサクラダ",
    "street": "３丁目１番１１号",
    "office_name": "やまがたシティエフエム　株式会社",
    "office_name_kana": "ヤマガタシテイエフエム カブシキガイシヤ"
  },
  "9580": {
    "postcode": "9909580",
    "prefecture": "山形県",
    "prefecture_kana": "ヤマガタケン",
    "prefecture_code": 6,
    "city": "山形市",
    "city_kana": "ヤマガタシ",
    "town": "成沢西",
    "town_kana": "ナリサワニシ",
    "street": "４丁目３番５５号",
    "office_name": "国土交通省　山形河川国道事務所",
    "office_name_kana": "コクドコウツウシヨウ ヤマガタカセンコクドウジムシヨ"
  },
  "9581": {
    "postcode": "9909581",
    "prefecture": "山形県",
    "prefecture_kana": "ヤマガタケン",
    "prefecture_code": 6,
    "city": "山形市",
    "city_kana": "ヤマガタシ",
    "town": "蔵王成沢",
    "town_kana": "ザオウナリサワ",
    "street": "２２２０",
    "office_name": "財団法人　山形県結核成人病予防協会",
    "office_name_kana": "ザイダンホウジン ヤマガタケンケツカクセイジンビヨウヨボウキヨウカイ"
  },
  "9582": {
    "postcode": "9909582",
    "prefecture": "山形県",
    "prefecture_kana": "ヤマガタケン",
    "prefecture_code": 6,
    "city": "山形市",
    "city_kana": "ヤマガタシ",
    "town": "富神台",
    "town_kana": "トガミダイ",
    "street": "８",
    "office_name": "株式会社　ヤガイ",
    "office_name_kana": "カブシキガイシヤ ヤガイ"
  },
  "9585": {
    "postcode": "9909585",
    "prefecture": "山形県",
    "prefecture_kana": "ヤマガタケン",
    "prefecture_code": 6,
    "city": "山形市",
    "city_kana": "ヤマガタシ",
    "town": "飯田西",
    "town_kana": "イイダニシ",
    "street": "２丁目２−２",
    "office_name": "山形大学　医学部",
    "office_name_kana": "ヤマガタダイガク イガクブ"
  },
  "9588": {
    "postcode": "9909588",
    "prefecture": "山形県",
    "prefecture_kana": "ヤマガタケン",
    "prefecture_code": 6,
    "city": "山形市",
    "city_kana": "ヤマガタシ",
    "town": "飯田西",
    "town_kana": "イイダニシ",
    "street": "５丁目５−２",
    "office_name": "山形トヨペット　株式会社",
    "office_name_kana": "ヤマガタトヨペツト カブシキガイシヤ"
  }
}